<?xml version="1.0" encoding="UTF-8"?>
<gpx version="1.1" creator="travel-planner" xmlns="http://www.topografix.com/GPX/1/1">
<metadata><name>厦门 行程路线图</name></metadata>
<wpt lat="24.49397" lon="118.077007"><name>东渡邮轮码头</name><desc>提前到码头取票/刷码</desc></wpt>
<wpt lat="24.442228" lon="118.067310"><name>日光岩</name><desc>节假日排队严重，建议早去或傍晚</desc></wpt>
<wpt lat="24.439035" lon="118.069520"><name>菽庄花园+钢琴博物馆</name><desc>钢琴博物馆有免费演奏，卡好时间</desc></wpt>
<wpt lat="24.446214" lon="118.066102"><name>鼓浪屿（全岛）</name><desc>主码头东渡；船票小程序购；不要信路边拉客</desc></wpt>
<wpt lat="24.447422" lon="118.068263"><name>八卦楼（风琴博物馆）</name><desc>每天有管风琴演奏；有免费讲解</desc></wpt>
<wpt lat="24.441099" lon="118.075936"><name>大德记沙滩+皓月园</name><desc>退潮礁石注意防滑</desc></wpt>
<trk><name>Day3 鼓浪屿全日：码头→三大片区</name><trkseg>
<trkpt lat="24.493763" lon="118.077005"></trkpt>
<trkpt lat="24.493763" lon="118.077326"></trkpt>
<trkpt lat="24.493763" lon="118.077326"></trkpt>
<trkpt lat="24.492643" lon="118.077083"></trkpt>
<trkpt lat="24.492643" lon="118.077083"></trkpt>
<trkpt lat="24.492491" lon="118.077062"></trkpt>
<trkpt lat="24.492491" lon="118.077062"></trkpt>
<trkpt lat="24.491697" lon="118.076936"></trkpt>
<trkpt lat="24.491697" lon="118.076936"></trkpt>
<trkpt lat="24.491506" lon="118.07691"></trkpt>
<trkpt lat="24.491506" lon="118.07691"></trkpt>
<trkpt lat="24.490621" lon="118.076797"></trkpt>
<trkpt lat="24.490621" lon="118.076797"></trkpt>
<trkpt lat="24.490564" lon="118.076793"></trkpt>
<trkpt lat="24.490564" lon="118.076793"></trkpt>
<trkpt lat="24.489944" lon="118.076658"></trkpt>
<trkpt lat="24.489944" lon="118.076658"></trkpt>
<trkpt lat="24.488529" lon="118.076402"></trkpt>
<trkpt lat="24.48832" lon="118.076367"></trkpt>
<trkpt lat="24.48832" lon="118.076367"></trkpt>
<trkpt lat="24.48803" lon="118.076324"></trkpt>
<trkpt lat="24.48803" lon="118.076324"></trkpt>
<trkpt lat="24.48694" lon="118.076159"></trkpt>
<trkpt lat="24.48694" lon="118.076159"></trkpt>
<trkpt lat="24.486832" lon="118.076137"></trkpt>
<trkpt lat="24.486832" lon="118.076137"></trkpt>
<trkpt lat="24.486289" lon="118.07602"></trkpt>
<trkpt lat="24.486289" lon="118.07602"></trkpt>
<trkpt lat="24.48605" lon="118.075959"></trkpt>
<trkpt lat="24.485846" lon="118.075833"></trkpt>
<trkpt lat="24.485846" lon="118.075833"></trkpt>
<trkpt lat="24.48549" lon="118.075573"></trkpt>
<trkpt lat="24.48549" lon="118.075573"></trkpt>
<trkpt lat="24.485195" lon="118.075234"></trkpt>
<trkpt lat="24.485191" lon="118.075234"></trkpt>
<trkpt lat="24.485122" lon="118.075291"></trkpt>
<trkpt lat="24.485035" lon="118.075217"></trkpt>
<trkpt lat="24.484852" lon="118.075156"></trkpt>
<trkpt lat="24.484588" lon="118.075187"></trkpt>
<trkpt lat="24.484332" lon="118.075239"></trkpt>
<trkpt lat="24.484145" lon="118.075282"></trkpt>
<trkpt lat="24.484097" lon="118.075286"></trkpt>
<trkpt lat="24.484093" lon="118.075286"></trkpt>
<trkpt lat="24.484041" lon="118.075378"></trkpt>
<trkpt lat="24.483963" lon="118.075447"></trkpt>
<trkpt lat="24.483963" lon="118.075447"></trkpt>
<trkpt lat="24.483811" lon="118.075577"></trkpt>
<trkpt lat="24.483754" lon="118.075577"></trkpt>
<trkpt lat="24.483754" lon="118.075577"></trkpt>
<trkpt lat="24.48375" lon="118.075577"></trkpt>
<trkpt lat="24.483507" lon="118.075729"></trkpt>
<trkpt lat="24.483507" lon="118.075729"></trkpt>
<trkpt lat="24.48322" lon="118.075885"></trkpt>
<trkpt lat="24.48322" lon="118.075885"></trkpt>
<trkpt lat="24.483082" lon="118.075951"></trkpt>
<trkpt lat="24.483082" lon="118.075951"></trkpt>
<trkpt lat="24.482982" lon="118.075994"></trkpt>
<trkpt lat="24.482982" lon="118.075994"></trkpt>
<trkpt lat="24.482943" lon="118.076011"></trkpt>
<trkpt lat="24.482943" lon="118.076011"></trkpt>
<trkpt lat="24.48276" lon="118.076094"></trkpt>
<trkpt lat="24.48276" lon="118.076094"></trkpt>
<trkpt lat="24.482682" lon="118.076133"></trkpt>
<trkpt lat="24.482682" lon="118.076133"></trkpt>
<trkpt lat="24.482491" lon="118.076224"></trkpt>
<trkpt lat="24.482491" lon="118.076224"></trkpt>
<trkpt lat="24.482326" lon="118.076319"></trkpt>
<trkpt lat="24.482326" lon="118.076319"></trkpt>
<trkpt lat="24.482092" lon="118.076471"></trkpt>
<trkpt lat="24.481879" lon="118.076632"></trkpt>
<trkpt lat="24.481879" lon="118.076632"></trkpt>
<trkpt lat="24.481649" lon="118.07684"></trkpt>
<trkpt lat="24.481645" lon="118.07684"></trkpt>
<trkpt lat="24.481398" lon="118.076515"></trkpt>
<trkpt lat="24.481398" lon="118.076515"></trkpt>
<trkpt lat="24.481259" lon="118.076315"></trkpt>
<trkpt lat="24.481254" lon="118.076311"></trkpt>
<trkpt lat="24.481276" lon="118.076302"></trkpt>
<trkpt lat="24.481298" lon="118.076289"></trkpt>
<trkpt lat="24.481298" lon="118.076289"></trkpt>
<trkpt lat="24.48122" lon="118.076168"></trkpt>
<trkpt lat="24.481168" lon="118.076029"></trkpt>
<trkpt lat="24.481137" lon="118.075859"></trkpt>
<trkpt lat="24.481137" lon="118.075729"></trkpt>
<trkpt lat="24.481215" lon="118.075204"></trkpt>
<trkpt lat="24.481254" lon="118.075143"></trkpt>
<trkpt lat="24.481641" lon="118.074996"></trkpt>
<trkpt lat="24.481658" lon="118.074952"></trkpt>
<trkpt lat="24.481641" lon="118.074701"></trkpt>
<trkpt lat="24.481641" lon="118.074701"></trkpt>
<trkpt lat="24.481632" lon="118.074605"></trkpt>
<trkpt lat="24.481632" lon="118.074601"></trkpt>
<trkpt lat="24.481549" lon="118.074141"></trkpt>
<trkpt lat="24.481372" lon="118.073472"></trkpt>
<trkpt lat="24.481372" lon="118.073472"></trkpt>
<trkpt lat="24.480352" lon="118.069614"></trkpt>
<trkpt lat="24.48023" lon="118.069288"></trkpt>
<trkpt lat="24.48023" lon="118.069288"></trkpt>
<trkpt lat="24.479492" lon="118.067318"></trkpt>
<trkpt lat="24.479102" lon="118.066632"></trkpt>
<trkpt lat="24.478069" lon="118.065946"></trkpt>
<trkpt lat="24.477539" lon="118.065777"></trkpt>
<trkpt lat="24.47678" lon="118.065538"></trkpt>
<trkpt lat="24.472543" lon="118.064896"></trkpt>
<trkpt lat="24.466554" lon="118.064019"></trkpt>
<trkpt lat="24.466215" lon="118.063971"></trkpt>
<trkpt lat="24.460043" lon="118.061137"></trkpt>
<trkpt lat="24.459201" lon="118.060477"></trkpt>
<trkpt lat="24.457951" lon="118.059084"></trkpt>
<trkpt lat="24.457665" lon="118.058767"></trkpt>
<trkpt lat="24.455799" lon="118.057092"></trkpt>
<trkpt lat="24.455569" lon="118.056979"></trkpt>
<trkpt lat="24.454236" lon="118.056332"></trkpt>
<trkpt lat="24.453416" lon="118.056133"></trkpt>
<trkpt lat="24.453416" lon="118.056133"></trkpt>
<trkpt lat="24.452982" lon="118.056024"></trkpt>
<trkpt lat="24.451688" lon="118.055877"></trkpt>
<trkpt lat="24.450247" lon="118.055946"></trkpt>
<trkpt lat="24.450043" lon="118.056011"></trkpt>
<trkpt lat="24.448494" lon="118.05671"></trkpt>
<trkpt lat="24.44727" lon="118.057517"></trkpt>
<trkpt lat="24.447179" lon="118.057626"></trkpt>
<trkpt lat="24.447179" lon="118.057626"></trkpt>
<trkpt lat="24.446354" lon="118.058628"></trkpt>
<trkpt lat="24.44635" lon="118.058628"></trkpt>
<trkpt lat="24.446228" lon="118.05878"></trkpt>
<trkpt lat="24.446228" lon="118.05878"></trkpt>
<trkpt lat="24.446133" lon="118.058893"></trkpt>
<trkpt lat="24.446133" lon="118.058893"></trkpt>
<trkpt lat="24.446042" lon="118.059028"></trkpt>
<trkpt lat="24.446042" lon="118.059028"></trkpt>
<trkpt lat="24.446003" lon="118.05908"></trkpt>
<trkpt lat="24.445768" lon="118.059405"></trkpt>
<trkpt lat="24.445768" lon="118.059405"></trkpt>
<trkpt lat="24.445681" lon="118.059505"></trkpt>
<trkpt lat="24.445681" lon="118.059505"></trkpt>
<trkpt lat="24.445651" lon="118.059531"></trkpt>
<trkpt lat="24.445651" lon="118.059531"></trkpt>
<trkpt lat="24.445456" lon="118.05967"></trkpt>
<trkpt lat="24.445456" lon="118.05967"></trkpt>
<trkpt lat="24.445312" lon="118.05974"></trkpt>
<trkpt lat="24.4452" lon="118.059761"></trkpt>
<trkpt lat="24.445161" lon="118.059753"></trkpt>
<trkpt lat="24.445" lon="118.05964"></trkpt>
<trkpt lat="24.444931" lon="118.059622"></trkpt>
<trkpt lat="24.444878" lon="118.059622"></trkpt>
<trkpt lat="24.444727" lon="118.059674"></trkpt>
<trkpt lat="24.444727" lon="118.059674"></trkpt>
<trkpt lat="24.444583" lon="118.059744"></trkpt>
<trkpt lat="24.444453" lon="118.059805"></trkpt>
<trkpt lat="24.444453" lon="118.059805"></trkpt>
<trkpt lat="24.444253" lon="118.059896"></trkpt>
<trkpt lat="24.444023" lon="118.059961"></trkpt>
<trkpt lat="24.443798" lon="118.059983"></trkpt>
<trkpt lat="24.443559" lon="118.059983"></trkpt>
<trkpt lat="24.443451" lon="118.059957"></trkpt>
<trkpt lat="24.443247" lon="118.059865"></trkpt>
<trkpt lat="24.443016" lon="118.059722"></trkpt>
<trkpt lat="24.442856" lon="118.059566"></trkpt>
<trkpt lat="24.442786" lon="118.059523"></trkpt>
<trkpt lat="24.442721" lon="118.059514"></trkpt>
<trkpt lat="24.442582" lon="118.059514"></trkpt>
<trkpt lat="24.442448" lon="118.059562"></trkpt>
<trkpt lat="24.442361" lon="118.059627"></trkpt>
<trkpt lat="24.442248" lon="118.059761"></trkpt>
<trkpt lat="24.442187" lon="118.059874"></trkpt>
<trkpt lat="24.442187" lon="118.059874"></trkpt>
<trkpt lat="24.442153" lon="118.059948"></trkpt>
<trkpt lat="24.442153" lon="118.059948"></trkpt>
<trkpt lat="24.442018" lon="118.060378"></trkpt>
<trkpt lat="24.441927" lon="118.060586"></trkpt>
<trkpt lat="24.441914" lon="118.060694"></trkpt>
<trkpt lat="24.441914" lon="118.060694"></trkpt>
<trkpt lat="24.44194" lon="118.061376"></trkpt>
<trkpt lat="24.44194" lon="118.061376"></trkpt>
<trkpt lat="24.44197" lon="118.061949"></trkpt>
<trkpt lat="24.44197" lon="118.061949"></trkpt>
<trkpt lat="24.442014" lon="118.062326"></trkpt>
<trkpt lat="24.442014" lon="118.062326"></trkpt>
<trkpt lat="24.442431" lon="118.062595"></trkpt>
<trkpt lat="24.442431" lon="118.062595"></trkpt>
<trkpt lat="24.442539" lon="118.062886"></trkpt>
<trkpt lat="24.4426" lon="118.062986"></trkpt>
<trkpt lat="24.4426" lon="118.062986"></trkpt>
<trkpt lat="24.442669" lon="118.063238"></trkpt>
<trkpt lat="24.442669" lon="118.06342"></trkpt>
<trkpt lat="24.442756" lon="118.063602"></trkpt>
<trkpt lat="24.442921" lon="118.063828"></trkpt>
<trkpt lat="24.442951" lon="118.063885"></trkpt>
<trkpt lat="24.442969" lon="118.06401"></trkpt>
<trkpt lat="24.442956" lon="118.064076"></trkpt>
<trkpt lat="24.442908" lon="118.064136"></trkpt>
<trkpt lat="24.442856" lon="118.064175"></trkpt>
<trkpt lat="24.442595" lon="118.064266"></trkpt>
<trkpt lat="24.442504" lon="118.064353"></trkpt>
<trkpt lat="24.442435" lon="118.06444"></trkpt>
<trkpt lat="24.442322" lon="118.064653"></trkpt>
<trkpt lat="24.442227" lon="118.064883"></trkpt>
<trkpt lat="24.442227" lon="118.064883"></trkpt>
<trkpt lat="24.442183" lon="118.065052"></trkpt>
<trkpt lat="24.442183" lon="118.065052"></trkpt>
<trkpt lat="24.442153" lon="118.065239"></trkpt>
<trkpt lat="24.442157" lon="118.065339"></trkpt>
<trkpt lat="24.442205" lon="118.065551"></trkpt>
<trkpt lat="24.442205" lon="118.065551"></trkpt>
<trkpt lat="24.442283" lon="118.065864"></trkpt>
<trkpt lat="24.442283" lon="118.065864"></trkpt>
<trkpt lat="24.442114" lon="118.066198"></trkpt>
<trkpt lat="24.441975" lon="118.066246"></trkpt>
<trkpt lat="24.441675" lon="118.06628"></trkpt>
<trkpt lat="24.441675" lon="118.06628"></trkpt>
<trkpt lat="24.441523" lon="118.066332"></trkpt>
<trkpt lat="24.441215" lon="118.06658"></trkpt>
<trkpt lat="24.441207" lon="118.06658"></trkpt>
<trkpt lat="24.441172" lon="118.066662"></trkpt>
<trkpt lat="24.441137" lon="118.066706"></trkpt>
<trkpt lat="24.441133" lon="118.066706"></trkpt>
<trkpt lat="24.441098" lon="118.067148"></trkpt>
<trkpt lat="24.44115" lon="118.067235"></trkpt>
<trkpt lat="24.44115" lon="118.067235"></trkpt>
<trkpt lat="24.441172" lon="118.067266"></trkpt>
<trkpt lat="24.441211" lon="118.06753"></trkpt>
<trkpt lat="24.441215" lon="118.067799"></trkpt>
<trkpt lat="24.44125" lon="118.067977"></trkpt>
<trkpt lat="24.441328" lon="118.068216"></trkpt>
<trkpt lat="24.441328" lon="118.068312"></trkpt>
<trkpt lat="24.441376" lon="118.068403"></trkpt>
<trkpt lat="24.441428" lon="118.068477"></trkpt>
<trkpt lat="24.441428" lon="118.068472"></trkpt>
<trkpt lat="24.441476" lon="118.068472"></trkpt>
<trkpt lat="24.441493" lon="118.06849"></trkpt>
<trkpt lat="24.441493" lon="118.06849"></trkpt>
<trkpt lat="24.441532" lon="118.068524"></trkpt>
<trkpt lat="24.441623" lon="118.06852"></trkpt>
<trkpt lat="24.44197" lon="118.068628"></trkpt>
<trkpt lat="24.44197" lon="118.068628"></trkpt>
<trkpt lat="24.442044" lon="118.068659"></trkpt>
<trkpt lat="24.442044" lon="118.068659"></trkpt>
<trkpt lat="24.442122" lon="118.068294"></trkpt>
<trkpt lat="24.442122" lon="118.06829"></trkpt>
<trkpt lat="24.442235" lon="118.068238"></trkpt>
<trkpt lat="24.442383" lon="118.068238"></trkpt>
<trkpt lat="24.442383" lon="118.068234"></trkpt>
<trkpt lat="24.442387" lon="118.068073"></trkpt>
<trkpt lat="24.442409" lon="118.068051"></trkpt>
<trkpt lat="24.442452" lon="118.068038"></trkpt>
<trkpt lat="24.442478" lon="118.067995"></trkpt>
<trkpt lat="24.442478" lon="118.06799"></trkpt>
<trkpt lat="24.442474" lon="118.06793"></trkpt>
<trkpt lat="24.442444" lon="118.06786"></trkpt>
<trkpt lat="24.442444" lon="118.067704"></trkpt>
<trkpt lat="24.442444" lon="118.067704"></trkpt>
<trkpt lat="24.442452" lon="118.067604"></trkpt>
<trkpt lat="24.442452" lon="118.067604"></trkpt>
<trkpt lat="24.44247" lon="118.067431"></trkpt>
<trkpt lat="24.44247" lon="118.067426"></trkpt>
<trkpt lat="24.4424" lon="118.067474"></trkpt>
<trkpt lat="24.442344" lon="118.067574"></trkpt>
<trkpt lat="24.442318" lon="118.067578"></trkpt>
<trkpt lat="24.442296" lon="118.067539"></trkpt>
<trkpt lat="24.442313" lon="118.067409"></trkpt>
<trkpt lat="24.442313" lon="118.067352"></trkpt>
<trkpt lat="24.442235" lon="118.0673"></trkpt>
<trkpt lat="24.442231" lon="118.067296"></trkpt>
<trkpt lat="24.442309" lon="118.067348"></trkpt>
<trkpt lat="24.442313" lon="118.067405"></trkpt>
<trkpt lat="24.442296" lon="118.067535"></trkpt>
<trkpt lat="24.442313" lon="118.067578"></trkpt>
<trkpt lat="24.442339" lon="118.067578"></trkpt>
<trkpt lat="24.442396" lon="118.067478"></trkpt>
<trkpt lat="24.44247" lon="118.067431"></trkpt>
<trkpt lat="24.44247" lon="118.067426"></trkpt>
<trkpt lat="24.442457" lon="118.0676"></trkpt>
<trkpt lat="24.442457" lon="118.0676"></trkpt>
<trkpt lat="24.442448" lon="118.0677"></trkpt>
<trkpt lat="24.442448" lon="118.0677"></trkpt>
<trkpt lat="24.442444" lon="118.067856"></trkpt>
<trkpt lat="24.44247" lon="118.067925"></trkpt>
<trkpt lat="24.442478" lon="118.06799"></trkpt>
<trkpt lat="24.442478" lon="118.06799"></trkpt>
<trkpt lat="24.442457" lon="118.068034"></trkpt>
<trkpt lat="24.442413" lon="118.068047"></trkpt>
<trkpt lat="24.442391" lon="118.068069"></trkpt>
<trkpt lat="24.442387" lon="118.068234"></trkpt>
<trkpt lat="24.442383" lon="118.068234"></trkpt>
<trkpt lat="24.44224" lon="118.068234"></trkpt>
<trkpt lat="24.442127" lon="118.06829"></trkpt>
<trkpt lat="24.442122" lon="118.06829"></trkpt>
<trkpt lat="24.442049" lon="118.068659"></trkpt>
<trkpt lat="24.442044" lon="118.068659"></trkpt>
<trkpt lat="24.441975" lon="118.068633"></trkpt>
<trkpt lat="24.441975" lon="118.068633"></trkpt>
<trkpt lat="24.441628" lon="118.06852"></trkpt>
<trkpt lat="24.441536" lon="118.068524"></trkpt>
<trkpt lat="24.441497" lon="118.068494"></trkpt>
<trkpt lat="24.441497" lon="118.068494"></trkpt>
<trkpt lat="24.44148" lon="118.068472"></trkpt>
<trkpt lat="24.441432" lon="118.068472"></trkpt>
<trkpt lat="24.441428" lon="118.068472"></trkpt>
<trkpt lat="24.441332" lon="118.068585"></trkpt>
<trkpt lat="24.441328" lon="118.068585"></trkpt>
<trkpt lat="24.441194" lon="118.068828"></trkpt>
<trkpt lat="24.441168" lon="118.068854"></trkpt>
<trkpt lat="24.44112" lon="118.068854"></trkpt>
<trkpt lat="24.44072" lon="118.068798"></trkpt>
<trkpt lat="24.440716" lon="118.068793"></trkpt>
<trkpt lat="24.440356" lon="118.069076"></trkpt>
<trkpt lat="24.440356" lon="118.069076"></trkpt>
<trkpt lat="24.440308" lon="118.06911"></trkpt>
<trkpt lat="24.440304" lon="118.06911"></trkpt>
<trkpt lat="24.440273" lon="118.06934"></trkpt>
<trkpt lat="24.440204" lon="118.069449"></trkpt>
<trkpt lat="24.4402" lon="118.069449"></trkpt>
<trkpt lat="24.440117" lon="118.069379"></trkpt>
<trkpt lat="24.440117" lon="118.069379"></trkpt>
<trkpt lat="24.440065" lon="118.069336"></trkpt>
<trkpt lat="24.440065" lon="118.069336"></trkpt>
<trkpt lat="24.439674" lon="118.069015"></trkpt>
<trkpt lat="24.439674" lon="118.069015"></trkpt>
<trkpt lat="24.439653" lon="118.068845"></trkpt>
<trkpt lat="24.439648" lon="118.068841"></trkpt>
<trkpt lat="24.439566" lon="118.068841"></trkpt>
<trkpt lat="24.439566" lon="118.068841"></trkpt>
<trkpt lat="24.439444" lon="118.06885"></trkpt>
<trkpt lat="24.43944" lon="118.06885"></trkpt>
<trkpt lat="24.439444" lon="118.06911"></trkpt>
<trkpt lat="24.439444" lon="118.06911"></trkpt>
<trkpt lat="24.439362" lon="118.069115"></trkpt>
<trkpt lat="24.439362" lon="118.069115"></trkpt>
<trkpt lat="24.439193" lon="118.069167"></trkpt>
<trkpt lat="24.439019" lon="118.069262"></trkpt>
<trkpt lat="24.439019" lon="118.069262"></trkpt>
<trkpt lat="24.438997" lon="118.069245"></trkpt>
<trkpt lat="24.438924" lon="118.069245"></trkpt>
<trkpt lat="24.438919" lon="118.06931"></trkpt>
<trkpt lat="24.438915" lon="118.06931"></trkpt>
<trkpt lat="24.438919" lon="118.069358"></trkpt>
<trkpt lat="24.438919" lon="118.069358"></trkpt>
<trkpt lat="24.438928" lon="118.06944"></trkpt>
<trkpt lat="24.438945" lon="118.069449"></trkpt>
<trkpt lat="24.43901" lon="118.069436"></trkpt>
<trkpt lat="24.43901" lon="118.069436"></trkpt>
<trkpt lat="24.439084" lon="118.069423"></trkpt>
<trkpt lat="24.439084" lon="118.069418"></trkpt>
<trkpt lat="24.439045" lon="118.069523"></trkpt>
<trkpt lat="24.439041" lon="118.069523"></trkpt>
<trkpt lat="24.439084" lon="118.069423"></trkpt>
<trkpt lat="24.439084" lon="118.069418"></trkpt>
<trkpt lat="24.439015" lon="118.069431"></trkpt>
<trkpt lat="24.439015" lon="118.069431"></trkpt>
<trkpt lat="24.43895" lon="118.069449"></trkpt>
<trkpt lat="24.438932" lon="118.069444"></trkpt>
<trkpt lat="24.438924" lon="118.069362"></trkpt>
<trkpt lat="24.438924" lon="118.069362"></trkpt>
<trkpt lat="24.438919" lon="118.069314"></trkpt>
<trkpt lat="24.438915" lon="118.06931"></trkpt>
<trkpt lat="24.438919" lon="118.069245"></trkpt>
<trkpt lat="24.438993" lon="118.069245"></trkpt>
<trkpt lat="24.439015" lon="118.069262"></trkpt>
<trkpt lat="24.439015" lon="118.069262"></trkpt>
<trkpt lat="24.439188" lon="118.069171"></trkpt>
<trkpt lat="24.439358" lon="118.069119"></trkpt>
<trkpt lat="24.439358" lon="118.069119"></trkpt>
<trkpt lat="24.439444" lon="118.069115"></trkpt>
<trkpt lat="24.439444" lon="118.06911"></trkpt>
<trkpt lat="24.439444" lon="118.068854"></trkpt>
<trkpt lat="24.43944" lon="118.06885"></trkpt>
<trkpt lat="24.439562" lon="118.068845"></trkpt>
<trkpt lat="24.439562" lon="118.068845"></trkpt>
<trkpt lat="24.439648" lon="118.068845"></trkpt>
<trkpt lat="24.439648" lon="118.068841"></trkpt>
<trkpt lat="24.439657" lon="118.06872"></trkpt>
<trkpt lat="24.439657" lon="118.068715"></trkpt>
<trkpt lat="24.439848" lon="118.068546"></trkpt>
<trkpt lat="24.439883" lon="118.06842"></trkpt>
<trkpt lat="24.439883" lon="118.06842"></trkpt>
<trkpt lat="24.439909" lon="118.068277"></trkpt>
<trkpt lat="24.439909" lon="118.068277"></trkpt>
<trkpt lat="24.439961" lon="118.068047"></trkpt>
<trkpt lat="24.439961" lon="118.068047"></trkpt>
<trkpt lat="24.43997" lon="118.067982"></trkpt>
<trkpt lat="24.43997" lon="118.067982"></trkpt>
<trkpt lat="24.439996" lon="118.06773"></trkpt>
<trkpt lat="24.439996" lon="118.067726"></trkpt>
<trkpt lat="24.440156" lon="118.067695"></trkpt>
<trkpt lat="24.440221" lon="118.067661"></trkpt>
<trkpt lat="24.440221" lon="118.067661"></trkpt>
<trkpt lat="24.440573" lon="118.067426"></trkpt>
<trkpt lat="24.440573" lon="118.067426"></trkpt>
<trkpt lat="24.440647" lon="118.067348"></trkpt>
<trkpt lat="24.440694" lon="118.067313"></trkpt>
<trkpt lat="24.440751" lon="118.067283"></trkpt>
<trkpt lat="24.44082" lon="118.067261"></trkpt>
<trkpt lat="24.440907" lon="118.067244"></trkpt>
<trkpt lat="24.440907" lon="118.067244"></trkpt>
<trkpt lat="24.44115" lon="118.06724"></trkpt>
<trkpt lat="24.44115" lon="118.067235"></trkpt>
<trkpt lat="24.441098" lon="118.067153"></trkpt>
<trkpt lat="24.441133" lon="118.06671"></trkpt>
<trkpt lat="24.441133" lon="118.066706"></trkpt>
<trkpt lat="24.441168" lon="118.066667"></trkpt>
<trkpt lat="24.441207" lon="118.066584"></trkpt>
<trkpt lat="24.441211" lon="118.06658"></trkpt>
<trkpt lat="24.441519" lon="118.066337"></trkpt>
<trkpt lat="24.441671" lon="118.066285"></trkpt>
<trkpt lat="24.441671" lon="118.066285"></trkpt>
<trkpt lat="24.44197" lon="118.06625"></trkpt>
<trkpt lat="24.442109" lon="118.066202"></trkpt>
<trkpt lat="24.442283" lon="118.065868"></trkpt>
<trkpt lat="24.442283" lon="118.065864"></trkpt>
<trkpt lat="24.442426" lon="118.066011"></trkpt>
<trkpt lat="24.442426" lon="118.066011"></trkpt>
<trkpt lat="24.4426" lon="118.066215"></trkpt>
<trkpt lat="24.442873" lon="118.066463"></trkpt>
<trkpt lat="24.442986" lon="118.066519"></trkpt>
<trkpt lat="24.443216" lon="118.066541"></trkpt>
<trkpt lat="24.443303" lon="118.066623"></trkpt>
<trkpt lat="24.443359" lon="118.066706"></trkpt>
<trkpt lat="24.443359" lon="118.066706"></trkpt>
<trkpt lat="24.443624" lon="118.067227"></trkpt>
<trkpt lat="24.443624" lon="118.067227"></trkpt>
<trkpt lat="24.444128" lon="118.066957"></trkpt>
<trkpt lat="24.444128" lon="118.066957"></trkpt>
<trkpt lat="24.444423" lon="118.066875"></trkpt>
<trkpt lat="24.444579" lon="118.066858"></trkpt>
<trkpt lat="24.444601" lon="118.066858"></trkpt>
<trkpt lat="24.444601" lon="118.066853"></trkpt>
<trkpt lat="24.444692" lon="118.066732"></trkpt>
<trkpt lat="24.444688" lon="118.066549"></trkpt>
<trkpt lat="24.44474" lon="118.066437"></trkpt>
<trkpt lat="24.44474" lon="118.066437"></trkpt>
<trkpt lat="24.444766" lon="118.066198"></trkpt>
<trkpt lat="24.444857" lon="118.06599"></trkpt>
<trkpt lat="24.444857" lon="118.065981"></trkpt>
<trkpt lat="24.445" lon="118.065994"></trkpt>
<trkpt lat="24.445" lon="118.065994"></trkpt>
<trkpt lat="24.44559" lon="118.066042"></trkpt>
<trkpt lat="24.44559" lon="118.066042"></trkpt>
<trkpt lat="24.445673" lon="118.066046"></trkpt>
<trkpt lat="24.445673" lon="118.066046"></trkpt>
<trkpt lat="24.445911" lon="118.066107"></trkpt>
<trkpt lat="24.44599" lon="118.066111"></trkpt>
<trkpt lat="24.44599" lon="118.066111"></trkpt>
<trkpt lat="24.446168" lon="118.066037"></trkpt>
<trkpt lat="24.446168" lon="118.066033"></trkpt>
<trkpt lat="24.446168" lon="118.066029"></trkpt>
<trkpt lat="24.446168" lon="118.066033"></trkpt>
<trkpt lat="24.445994" lon="118.066111"></trkpt>
<trkpt lat="24.44599" lon="118.066111"></trkpt>
<trkpt lat="24.446107" lon="118.066602"></trkpt>
<trkpt lat="24.446107" lon="118.066697"></trkpt>
<trkpt lat="24.446102" lon="118.066697"></trkpt>
<trkpt lat="24.445977" lon="118.066749"></trkpt>
<trkpt lat="24.445638" lon="118.066853"></trkpt>
<trkpt lat="24.445551" lon="118.066853"></trkpt>
<trkpt lat="24.445425" lon="118.066832"></trkpt>
<trkpt lat="24.445421" lon="118.066827"></trkpt>
<trkpt lat="24.445443" lon="118.066984"></trkpt>
<trkpt lat="24.445365" lon="118.067105"></trkpt>
<trkpt lat="24.445365" lon="118.067218"></trkpt>
<trkpt lat="24.445365" lon="118.067218"></trkpt>
<trkpt lat="24.445447" lon="118.067248"></trkpt>
<trkpt lat="24.445543" lon="118.067383"></trkpt>
<trkpt lat="24.445612" lon="118.067422"></trkpt>
<trkpt lat="24.445751" lon="118.0674"></trkpt>
<trkpt lat="24.445807" lon="118.067365"></trkpt>
<trkpt lat="24.445842" lon="118.067396"></trkpt>
<trkpt lat="24.445955" lon="118.067795"></trkpt>
<trkpt lat="24.446063" lon="118.068099"></trkpt>
<trkpt lat="24.446063" lon="118.068099"></trkpt>
<trkpt lat="24.446263" lon="118.068394"></trkpt>
<trkpt lat="24.446267" lon="118.068446"></trkpt>
<trkpt lat="24.446246" lon="118.068568"></trkpt>
<trkpt lat="24.446315" lon="118.068828"></trkpt>
<trkpt lat="24.446315" lon="118.068828"></trkpt>
<trkpt lat="24.446385" lon="118.068806"></trkpt>
<trkpt lat="24.446675" lon="118.068763"></trkpt>
<trkpt lat="24.446814" lon="118.068754"></trkpt>
<trkpt lat="24.446814" lon="118.068754"></trkpt>
<trkpt lat="24.44694" lon="118.068763"></trkpt>
<trkpt lat="24.447044" lon="118.068802"></trkpt>
<trkpt lat="24.447044" lon="118.068802"></trkpt>
<trkpt lat="24.447214" lon="118.068707"></trkpt>
<trkpt lat="24.447214" lon="118.068707"></trkpt>
<trkpt lat="24.447435" lon="118.068589"></trkpt>
<trkpt lat="24.447435" lon="118.068585"></trkpt>
<trkpt lat="24.447196" lon="118.068377"></trkpt>
<trkpt lat="24.44714" lon="118.068312"></trkpt>
<trkpt lat="24.447144" lon="118.068268"></trkpt>
<trkpt lat="24.44727" lon="118.068116"></trkpt>
<trkpt lat="24.44727" lon="118.068112"></trkpt>
<trkpt lat="24.447148" lon="118.068264"></trkpt>
<trkpt lat="24.44714" lon="118.068307"></trkpt>
<trkpt lat="24.447192" lon="118.068372"></trkpt>
<trkpt lat="24.447435" lon="118.068585"></trkpt>
<trkpt lat="24.447435" lon="118.068585"></trkpt>
<trkpt lat="24.447218" lon="118.068702"></trkpt>
<trkpt lat="24.447218" lon="118.068702"></trkpt>
<trkpt lat="24.447049" lon="118.068802"></trkpt>
<trkpt lat="24.447044" lon="118.068802"></trkpt>
<trkpt lat="24.446944" lon="118.068767"></trkpt>
<trkpt lat="24.446819" lon="118.068754"></trkpt>
<trkpt lat="24.446814" lon="118.06875"></trkpt>
<trkpt lat="24.446879" lon="118.069145"></trkpt>
<trkpt lat="24.446944" lon="118.069388"></trkpt>
<trkpt lat="24.446944" lon="118.069388"></trkpt>
<trkpt lat="24.44701" lon="118.069557"></trkpt>
<trkpt lat="24.44701" lon="118.069557"></trkpt>
<trkpt lat="24.447135" lon="118.069809"></trkpt>
<trkpt lat="24.447135" lon="118.069809"></trkpt>
<trkpt lat="24.447244" lon="118.070009"></trkpt>
<trkpt lat="24.447244" lon="118.070009"></trkpt>
<trkpt lat="24.447309" lon="118.070113"></trkpt>
<trkpt lat="24.447309" lon="118.070113"></trkpt>
<trkpt lat="24.447335" lon="118.070161"></trkpt>
<trkpt lat="24.447335" lon="118.070161"></trkpt>
<trkpt lat="24.447374" lon="118.070239"></trkpt>
<trkpt lat="24.447374" lon="118.070239"></trkpt>
<trkpt lat="24.4475" lon="118.070495"></trkpt>
<trkpt lat="24.4475" lon="118.070495"></trkpt>
<trkpt lat="24.44724" lon="118.070668"></trkpt>
<trkpt lat="24.447161" lon="118.070729"></trkpt>
<trkpt lat="24.446892" lon="118.071115"></trkpt>
<trkpt lat="24.446892" lon="118.071115"></trkpt>
<trkpt lat="24.446706" lon="118.071402"></trkpt>
<trkpt lat="24.446706" lon="118.071402"></trkpt>
<trkpt lat="24.446276" lon="118.072066"></trkpt>
<trkpt lat="24.446272" lon="118.072066"></trkpt>
<trkpt lat="24.446497" lon="118.072214"></trkpt>
<trkpt lat="24.446519" lon="118.072244"></trkpt>
<trkpt lat="24.446519" lon="118.072309"></trkpt>
<trkpt lat="24.446476" lon="118.0724"></trkpt>
<trkpt lat="24.446432" lon="118.072448"></trkpt>
<trkpt lat="24.446406" lon="118.072457"></trkpt>
<trkpt lat="24.446402" lon="118.072457"></trkpt>
<trkpt lat="24.446228" lon="118.073025"></trkpt>
<trkpt lat="24.446228" lon="118.073025"></trkpt>
<trkpt lat="24.44615" lon="118.073281"></trkpt>
<trkpt lat="24.44615" lon="118.073281"></trkpt>
<trkpt lat="24.446107" lon="118.073338"></trkpt>
<trkpt lat="24.445391" lon="118.073767"></trkpt>
<trkpt lat="24.445391" lon="118.073767"></trkpt>
<trkpt lat="24.445252" lon="118.073898"></trkpt>
<trkpt lat="24.445252" lon="118.073898"></trkpt>
<trkpt lat="24.444948" lon="118.074132"></trkpt>
<trkpt lat="24.444944" lon="118.074132"></trkpt>
<trkpt lat="24.445234" lon="118.074544"></trkpt>
<trkpt lat="24.445252" lon="118.074614"></trkpt>
<trkpt lat="24.44477" lon="118.075213"></trkpt>
<trkpt lat="24.444709" lon="118.075252"></trkpt>
<trkpt lat="24.444709" lon="118.075252"></trkpt>
<trkpt lat="24.444648" lon="118.075282"></trkpt>
<trkpt lat="24.444583" lon="118.075286"></trkpt>
<trkpt lat="24.444549" lon="118.075291"></trkpt>
<trkpt lat="24.444549" lon="118.075291"></trkpt>
<trkpt lat="24.444206" lon="118.075317"></trkpt>
<trkpt lat="24.444206" lon="118.075317"></trkpt>
<trkpt lat="24.444136" lon="118.075321"></trkpt>
<trkpt lat="24.444136" lon="118.075321"></trkpt>
<trkpt lat="24.443793" lon="118.075365"></trkpt>
<trkpt lat="24.443793" lon="118.075365"></trkpt>
<trkpt lat="24.443381" lon="118.075421"></trkpt>
<trkpt lat="24.442574" lon="118.075582"></trkpt>
<trkpt lat="24.442361" lon="118.075608"></trkpt>
<trkpt lat="24.442292" lon="118.075608"></trkpt>
<trkpt lat="24.442222" lon="118.075586"></trkpt>
<trkpt lat="24.442118" lon="118.075503"></trkpt>
<trkpt lat="24.442114" lon="118.075499"></trkpt>
<trkpt lat="24.441949" lon="118.075595"></trkpt>
<trkpt lat="24.441949" lon="118.075595"></trkpt>
<trkpt lat="24.441819" lon="118.075677"></trkpt>
<trkpt lat="24.441814" lon="118.075677"></trkpt>
<trkpt lat="24.441788" lon="118.075642"></trkpt>
<trkpt lat="24.441671" lon="118.075621"></trkpt>
<trkpt lat="24.441606" lon="118.075551"></trkpt>
<trkpt lat="24.441562" lon="118.07553"></trkpt>
<trkpt lat="24.441519" lon="118.075534"></trkpt>
<trkpt lat="24.441458" lon="118.07556"></trkpt>
<trkpt lat="24.441324" lon="118.075681"></trkpt>
<trkpt lat="24.441324" lon="118.075681"></trkpt>
<trkpt lat="24.441081" lon="118.075838"></trkpt>
<trkpt lat="24.441081" lon="118.075838"></trkpt>
<trkpt lat="24.441107" lon="118.075929"></trkpt>
</trkseg></trk>
</gpx>