<?xml version="1.0" encoding="UTF-8"?>
<gpx version="1.1" creator="travel-planner" xmlns="http://www.topografix.com/GPX/1/1">
<metadata><name>厦门 行程路线图</name></metadata>
<wpt lat="24.454104" lon="118.081903"><name>中山路步行街</name><desc>老虎城四楼天台可拍全景(10元)；中华城免费</desc></wpt>
<wpt lat="24.457902" lon="118.075017"><name>厦门八市（营平菜市场）</name><desc>看热闹为主，海鲜加工慎重；阿杰五香等小吃在此</desc></wpt>
<wpt lat="24.461247" lon="118.088955"><name>老溪岸沙茶面</name><desc></desc></wpt>
<wpt lat="24.572373" lon="118.103353"><name>集美学村</name><desc>地铁1号线直达；龙舟池/鳌园/嘉庚故居/大社戏台</desc></wpt>
<wpt lat="24.563722" lon="118.089475"><name>十里长堤（集美）</name><desc>地铁穿海+日落+不定期免费演出</desc></wpt>
<trk><name>Day1 老城烟火+集美学村（1号线沿线）</name><trkseg>
<trkpt lat="24.454102" lon="118.081901"></trkpt>
<trkpt lat="24.454102" lon="118.081901"></trkpt>
<trkpt lat="24.454102" lon="118.081901"></trkpt>
<trkpt lat="24.454045" lon="118.081259"></trkpt>
<trkpt lat="24.454045" lon="118.081259"></trkpt>
<trkpt lat="24.454023" lon="118.081055"></trkpt>
<trkpt lat="24.453976" lon="118.080521"></trkpt>
<trkpt lat="24.453976" lon="118.080521"></trkpt>
<trkpt lat="24.453954" lon="118.080252"></trkpt>
<trkpt lat="24.453954" lon="118.080252"></trkpt>
<trkpt lat="24.453798" lon="118.078637"></trkpt>
<trkpt lat="24.453793" lon="118.078633"></trkpt>
<trkpt lat="24.45398" lon="118.078498"></trkpt>
<trkpt lat="24.45398" lon="118.078498"></trkpt>
<trkpt lat="24.454718" lon="118.077934"></trkpt>
<trkpt lat="24.454718" lon="118.077934"></trkpt>
<trkpt lat="24.455013" lon="118.077708"></trkpt>
<trkpt lat="24.455013" lon="118.077708"></trkpt>
<trkpt lat="24.455156" lon="118.077517"></trkpt>
<trkpt lat="24.455221" lon="118.077348"></trkpt>
<trkpt lat="24.455243" lon="118.077244"></trkpt>
<trkpt lat="24.455226" lon="118.077027"></trkpt>
<trkpt lat="24.455226" lon="118.077027"></trkpt>
<trkpt lat="24.455113" lon="118.076771"></trkpt>
<trkpt lat="24.455109" lon="118.076766"></trkpt>
<trkpt lat="24.455386" lon="118.076641"></trkpt>
<trkpt lat="24.455386" lon="118.076636"></trkpt>
<trkpt lat="24.455295" lon="118.076415"></trkpt>
<trkpt lat="24.455291" lon="118.076411"></trkpt>
<trkpt lat="24.455547" lon="118.076263"></trkpt>
<trkpt lat="24.455547" lon="118.076263"></trkpt>
<trkpt lat="24.455564" lon="118.07625"></trkpt>
<trkpt lat="24.455707" lon="118.076141"></trkpt>
<trkpt lat="24.455707" lon="118.076141"></trkpt>
<trkpt lat="24.456011" lon="118.075911"></trkpt>
<trkpt lat="24.456011" lon="118.075911"></trkpt>
<trkpt lat="24.45622" lon="118.075816"></trkpt>
<trkpt lat="24.456523" lon="118.075638"></trkpt>
<trkpt lat="24.456523" lon="118.075638"></trkpt>
<trkpt lat="24.456936" lon="118.075386"></trkpt>
<trkpt lat="24.456936" lon="118.075386"></trkpt>
<trkpt lat="24.4574" lon="118.075208"></trkpt>
<trkpt lat="24.4574" lon="118.075208"></trkpt>
<trkpt lat="24.457496" lon="118.075178"></trkpt>
<trkpt lat="24.457496" lon="118.075178"></trkpt>
<trkpt lat="24.457661" lon="118.075109"></trkpt>
<trkpt lat="24.457773" lon="118.075043"></trkpt>
<trkpt lat="24.457869" lon="118.07497"></trkpt>
<trkpt lat="24.457869" lon="118.074965"></trkpt>
<trkpt lat="24.457778" lon="118.075039"></trkpt>
<trkpt lat="24.457665" lon="118.075104"></trkpt>
<trkpt lat="24.4575" lon="118.075174"></trkpt>
<trkpt lat="24.4575" lon="118.075174"></trkpt>
<trkpt lat="24.457405" lon="118.075204"></trkpt>
<trkpt lat="24.457405" lon="118.075204"></trkpt>
<trkpt lat="24.45694" lon="118.075382"></trkpt>
<trkpt lat="24.456936" lon="118.075382"></trkpt>
<trkpt lat="24.457127" lon="118.075994"></trkpt>
<trkpt lat="24.457127" lon="118.075994"></trkpt>
<trkpt lat="24.457153" lon="118.076089"></trkpt>
<trkpt lat="24.457218" lon="118.076207"></trkpt>
<trkpt lat="24.457218" lon="118.076207"></trkpt>
<trkpt lat="24.457344" lon="118.076411"></trkpt>
<trkpt lat="24.457344" lon="118.076411"></trkpt>
<trkpt lat="24.457474" lon="118.076615"></trkpt>
<trkpt lat="24.457474" lon="118.076615"></trkpt>
<trkpt lat="24.45793" lon="118.077309"></trkpt>
<trkpt lat="24.45793" lon="118.077309"></trkpt>
<trkpt lat="24.458199" lon="118.077717"></trkpt>
<trkpt lat="24.458199" lon="118.077717"></trkpt>
<trkpt lat="24.458234" lon="118.077769"></trkpt>
<trkpt lat="24.458234" lon="118.077769"></trkpt>
<trkpt lat="24.458529" lon="118.07822"></trkpt>
<trkpt lat="24.458529" lon="118.07822"></trkpt>
<trkpt lat="24.45865" lon="118.078385"></trkpt>
<trkpt lat="24.458793" lon="118.078533"></trkpt>
<trkpt lat="24.458889" lon="118.078585"></trkpt>
<trkpt lat="24.45911" lon="118.078637"></trkpt>
<trkpt lat="24.45911" lon="118.078637"></trkpt>
<trkpt lat="24.459839" lon="118.078724"></trkpt>
<trkpt lat="24.459839" lon="118.078724"></trkpt>
<trkpt lat="24.459931" lon="118.079049"></trkpt>
<trkpt lat="24.459931" lon="118.079049"></trkpt>
<trkpt lat="24.460022" lon="118.079449"></trkpt>
<trkpt lat="24.460022" lon="118.079449"></trkpt>
<trkpt lat="24.460082" lon="118.079753"></trkpt>
<trkpt lat="24.460082" lon="118.079753"></trkpt>
<trkpt lat="24.460126" lon="118.079983"></trkpt>
<trkpt lat="24.460126" lon="118.079983"></trkpt>
<trkpt lat="24.460161" lon="118.080161"></trkpt>
<trkpt lat="24.460161" lon="118.080161"></trkpt>
<trkpt lat="24.460243" lon="118.080512"></trkpt>
<trkpt lat="24.460243" lon="118.080512"></trkpt>
<trkpt lat="24.460321" lon="118.080855"></trkpt>
<trkpt lat="24.460321" lon="118.080855"></trkpt>
<trkpt lat="24.460365" lon="118.08105"></trkpt>
<trkpt lat="24.460412" lon="118.081293"></trkpt>
<trkpt lat="24.460412" lon="118.081293"></trkpt>
<trkpt lat="24.460573" lon="118.082179"></trkpt>
<trkpt lat="24.460573" lon="118.082179"></trkpt>
<trkpt lat="24.460703" lon="118.082773"></trkpt>
<trkpt lat="24.460703" lon="118.082773"></trkpt>
<trkpt lat="24.460803" lon="118.083264"></trkpt>
<trkpt lat="24.460803" lon="118.083264"></trkpt>
<trkpt lat="24.460933" lon="118.083798"></trkpt>
<trkpt lat="24.460933" lon="118.083798"></trkpt>
<trkpt lat="24.460955" lon="118.083906"></trkpt>
<trkpt lat="24.460955" lon="118.083906"></trkpt>
<trkpt lat="24.460981" lon="118.084015"></trkpt>
<trkpt lat="24.460981" lon="118.084015"></trkpt>
<trkpt lat="24.461046" lon="118.084336"></trkpt>
<trkpt lat="24.461046" lon="118.084336"></trkpt>
<trkpt lat="24.461163" lon="118.084922"></trkpt>
<trkpt lat="24.461163" lon="118.084922"></trkpt>
<trkpt lat="24.461224" lon="118.085156"></trkpt>
<trkpt lat="24.461224" lon="118.085156"></trkpt>
<trkpt lat="24.461367" lon="118.085773"></trkpt>
<trkpt lat="24.461367" lon="118.085773"></trkpt>
<trkpt lat="24.461619" lon="118.086953"></trkpt>
<trkpt lat="24.461619" lon="118.086953"></trkpt>
<trkpt lat="24.461085" lon="118.087604"></trkpt>
<trkpt lat="24.461085" lon="118.087604"></trkpt>
<trkpt lat="24.461024" lon="118.087682"></trkpt>
<trkpt lat="24.461024" lon="118.087682"></trkpt>
<trkpt lat="24.460807" lon="118.087934"></trkpt>
<trkpt lat="24.460803" lon="118.087934"></trkpt>
<trkpt lat="24.461311" lon="118.088338"></trkpt>
<trkpt lat="24.461311" lon="118.088338"></trkpt>
<trkpt lat="24.46122" lon="118.08895"></trkpt>
<trkpt lat="24.461215" lon="118.08895"></trkpt>
<trkpt lat="24.461211" lon="118.089015"></trkpt>
<trkpt lat="24.461211" lon="118.089015"></trkpt>
<trkpt lat="24.461545" lon="118.089015"></trkpt>
<trkpt lat="24.461545" lon="118.089015"></trkpt>
<trkpt lat="24.462092" lon="118.088997"></trkpt>
<trkpt lat="24.462092" lon="118.088993"></trkpt>
<trkpt lat="24.462344" lon="118.090074"></trkpt>
<trkpt lat="24.462344" lon="118.090074"></trkpt>
<trkpt lat="24.46263" lon="118.091224"></trkpt>
<trkpt lat="24.46263" lon="118.091224"></trkpt>
<trkpt lat="24.462665" lon="118.09138"></trkpt>
<trkpt lat="24.462665" lon="118.09138"></trkpt>
<trkpt lat="24.462817" lon="118.091944"></trkpt>
<trkpt lat="24.462817" lon="118.091944"></trkpt>
<trkpt lat="24.46316" lon="118.093112"></trkpt>
<trkpt lat="24.46316" lon="118.093112"></trkpt>
<trkpt lat="24.463199" lon="118.093242"></trkpt>
<trkpt lat="24.463199" lon="118.093242"></trkpt>
<trkpt lat="24.463346" lon="118.093203"></trkpt>
<trkpt lat="24.463346" lon="118.093203"></trkpt>
<trkpt lat="24.463741" lon="118.093047"></trkpt>
<trkpt lat="24.463741" lon="118.093047"></trkpt>
<trkpt lat="24.464063" lon="118.092917"></trkpt>
<trkpt lat="24.464063" lon="118.092917"></trkpt>
<trkpt lat="24.464197" lon="118.092917"></trkpt>
<trkpt lat="24.464722" lon="118.092791"></trkpt>
<trkpt lat="24.464905" lon="118.092726"></trkpt>
<trkpt lat="24.464905" lon="118.092726"></trkpt>
<trkpt lat="24.465317" lon="118.092569"></trkpt>
<trkpt lat="24.465404" lon="118.092548"></trkpt>
<trkpt lat="24.465404" lon="118.092548"></trkpt>
<trkpt lat="24.465833" lon="118.092444"></trkpt>
<trkpt lat="24.465833" lon="118.092444"></trkpt>
<trkpt lat="24.466493" lon="118.092248"></trkpt>
<trkpt lat="24.466493" lon="118.092248"></trkpt>
<trkpt lat="24.466549" lon="118.092227"></trkpt>
<trkpt lat="24.46697" lon="118.092066"></trkpt>
<trkpt lat="24.46697" lon="118.092066"></trkpt>
<trkpt lat="24.467409" lon="118.091884"></trkpt>
<trkpt lat="24.467409" lon="118.091884"></trkpt>
<trkpt lat="24.467873" lon="118.091688"></trkpt>
<trkpt lat="24.467912" lon="118.091619"></trkpt>
<trkpt lat="24.467912" lon="118.091619"></trkpt>
<trkpt lat="24.468134" lon="118.091532"></trkpt>
<trkpt lat="24.468134" lon="118.091532"></trkpt>
<trkpt lat="24.468424" lon="118.091419"></trkpt>
<trkpt lat="24.468424" lon="118.091415"></trkpt>
<trkpt lat="24.468542" lon="118.091428"></trkpt>
<trkpt lat="24.468542" lon="118.091428"></trkpt>
<trkpt lat="24.468589" lon="118.091432"></trkpt>
<trkpt lat="24.468637" lon="118.091458"></trkpt>
<trkpt lat="24.468633" lon="118.091458"></trkpt>
<trkpt lat="24.46872" lon="118.091341"></trkpt>
<trkpt lat="24.46872" lon="118.091341"></trkpt>
<trkpt lat="24.468724" lon="118.091341"></trkpt>
<trkpt lat="24.468859" lon="118.091341"></trkpt>
<trkpt lat="24.468854" lon="118.091332"></trkpt>
<trkpt lat="24.469071" lon="118.091606"></trkpt>
<trkpt lat="24.469071" lon="118.091606"></trkpt>
<trkpt lat="24.469071" lon="118.09161"></trkpt>
<trkpt lat="24.469175" lon="118.09148"></trkpt>
<trkpt lat="24.469223" lon="118.091441"></trkpt>
<trkpt lat="24.469371" lon="118.091376"></trkpt>
<trkpt lat="24.469371" lon="118.091372"></trkpt>
<trkpt lat="24.46947" lon="118.091424"></trkpt>
<trkpt lat="24.46947" lon="118.091424"></trkpt>
<trkpt lat="24.469527" lon="118.09145"></trkpt>
<trkpt lat="24.469714" lon="118.09148"></trkpt>
<trkpt lat="24.469714" lon="118.09148"></trkpt>
<trkpt lat="24.470182" lon="118.091576"></trkpt>
<trkpt lat="24.470182" lon="118.091576"></trkpt>
<trkpt lat="24.470508" lon="118.091654"></trkpt>
<trkpt lat="24.470508" lon="118.091654"></trkpt>
<trkpt lat="24.471892" lon="118.091923"></trkpt>
<trkpt lat="24.472257" lon="118.091979"></trkpt>
<trkpt lat="24.472418" lon="118.091992"></trkpt>
<trkpt lat="24.472418" lon="118.091992"></trkpt>
<trkpt lat="24.472591" lon="118.092001"></trkpt>
<trkpt lat="24.472591" lon="118.092001"></trkpt>
<trkpt lat="24.473056" lon="118.091979"></trkpt>
<trkpt lat="24.473312" lon="118.091936"></trkpt>
<trkpt lat="24.473312" lon="118.091931"></trkpt>
<trkpt lat="24.473403" lon="118.09227"></trkpt>
<trkpt lat="24.473403" lon="118.09227"></trkpt>
<trkpt lat="24.473485" lon="118.092504"></trkpt>
<trkpt lat="24.473598" lon="118.092726"></trkpt>
<trkpt lat="24.473598" lon="118.092726"></trkpt>
<trkpt lat="24.473668" lon="118.092839"></trkpt>
<trkpt lat="24.473798" lon="118.093003"></trkpt>
<trkpt lat="24.473798" lon="118.093003"></trkpt>
<trkpt lat="24.473941" lon="118.093138"></trkpt>
<trkpt lat="24.473941" lon="118.093138"></trkpt>
<trkpt lat="24.474119" lon="118.093255"></trkpt>
<trkpt lat="24.474388" lon="118.093372"></trkpt>
<trkpt lat="24.474388" lon="118.093372"></trkpt>
<trkpt lat="24.474614" lon="118.093498"></trkpt>
<trkpt lat="24.474614" lon="118.093498"></trkpt>
<trkpt lat="24.474779" lon="118.093594"></trkpt>
<trkpt lat="24.474779" lon="118.093594"></trkpt>
<trkpt lat="24.474965" lon="118.093733"></trkpt>
<trkpt lat="24.474965" lon="118.093733"></trkpt>
<trkpt lat="24.475178" lon="118.093915"></trkpt>
<trkpt lat="24.475382" lon="118.094188"></trkpt>
<trkpt lat="24.475664" lon="118.094792"></trkpt>
<trkpt lat="24.475664" lon="118.094792"></trkpt>
<trkpt lat="24.47569" lon="118.094844"></trkpt>
<trkpt lat="24.47569" lon="118.094844"></trkpt>
<trkpt lat="24.475747" lon="118.094935"></trkpt>
<trkpt lat="24.475747" lon="118.094935"></trkpt>
<trkpt lat="24.475885" lon="118.095204"></trkpt>
<trkpt lat="24.475885" lon="118.095204"></trkpt>
<trkpt lat="24.476185" lon="118.095751"></trkpt>
<trkpt lat="24.476185" lon="118.095751"></trkpt>
<trkpt lat="24.476471" lon="118.096298"></trkpt>
<trkpt lat="24.476471" lon="118.096298"></trkpt>
<trkpt lat="24.476636" lon="118.096623"></trkpt>
<trkpt lat="24.476636" lon="118.096623"></trkpt>
<trkpt lat="24.476936" lon="118.097227"></trkpt>
<trkpt lat="24.476936" lon="118.097227"></trkpt>
<trkpt lat="24.477383" lon="118.096957"></trkpt>
<trkpt lat="24.477383" lon="118.096957"></trkpt>
<trkpt lat="24.477535" lon="118.096862"></trkpt>
<trkpt lat="24.478255" lon="118.096415"></trkpt>
<trkpt lat="24.478255" lon="118.096415"></trkpt>
<trkpt lat="24.478655" lon="118.096168"></trkpt>
<trkpt lat="24.478655" lon="118.096168"></trkpt>
<trkpt lat="24.47921" lon="118.095825"></trkpt>
<trkpt lat="24.47921" lon="118.095825"></trkpt>
<trkpt lat="24.479271" lon="118.095786"></trkpt>
<trkpt lat="24.479271" lon="118.095786"></trkpt>
<trkpt lat="24.479293" lon="118.095755"></trkpt>
<trkpt lat="24.479336" lon="118.095729"></trkpt>
<trkpt lat="24.479436" lon="118.095664"></trkpt>
<trkpt lat="24.479575" lon="118.095577"></trkpt>
<trkpt lat="24.479575" lon="118.095577"></trkpt>
<trkpt lat="24.479735" lon="118.095482"></trkpt>
<trkpt lat="24.479766" lon="118.095473"></trkpt>
<trkpt lat="24.479766" lon="118.095473"></trkpt>
<trkpt lat="24.479792" lon="118.095443"></trkpt>
<trkpt lat="24.479887" lon="118.095378"></trkpt>
<trkpt lat="24.479887" lon="118.095378"></trkpt>
<trkpt lat="24.479948" lon="118.095334"></trkpt>
<trkpt lat="24.480004" lon="118.095326"></trkpt>
<trkpt lat="24.480004" lon="118.095321"></trkpt>
<trkpt lat="24.480052" lon="118.09526"></trkpt>
<trkpt lat="24.480291" lon="118.0951"></trkpt>
<trkpt lat="24.480291" lon="118.0951"></trkpt>
<trkpt lat="24.480456" lon="118.094996"></trkpt>
<trkpt lat="24.480456" lon="118.094996"></trkpt>
<trkpt lat="24.480534" lon="118.094944"></trkpt>
<trkpt lat="24.480586" lon="118.094944"></trkpt>
<trkpt lat="24.480586" lon="118.094944"></trkpt>
<trkpt lat="24.48059" lon="118.094939"></trkpt>
<trkpt lat="24.480712" lon="118.094883"></trkpt>
<trkpt lat="24.480712" lon="118.094883"></trkpt>
<trkpt lat="24.480998" lon="118.094761"></trkpt>
<trkpt lat="24.481224" lon="118.094709"></trkpt>
<trkpt lat="24.481224" lon="118.094709"></trkpt>
<trkpt lat="24.481684" lon="118.094657"></trkpt>
<trkpt lat="24.481684" lon="118.094657"></trkpt>
<trkpt lat="24.482387" lon="118.094549"></trkpt>
<trkpt lat="24.482387" lon="118.094549"></trkpt>
<trkpt lat="24.483542" lon="118.09434"></trkpt>
<trkpt lat="24.483542" lon="118.09434"></trkpt>
<trkpt lat="24.484045" lon="118.094249"></trkpt>
<trkpt lat="24.484045" lon="118.094249"></trkpt>
<trkpt lat="24.484097" lon="118.094236"></trkpt>
<trkpt lat="24.484097" lon="118.094236"></trkpt>
<trkpt lat="24.484375" lon="118.094188"></trkpt>
<trkpt lat="24.484375" lon="118.094188"></trkpt>
<trkpt lat="24.4849" lon="118.094097"></trkpt>
<trkpt lat="24.4849" lon="118.094097"></trkpt>
<trkpt lat="24.486189" lon="118.09385"></trkpt>
<trkpt lat="24.486411" lon="118.093798"></trkpt>
<trkpt lat="24.486411" lon="118.093798"></trkpt>
<trkpt lat="24.486597" lon="118.09375"></trkpt>
<trkpt lat="24.486597" lon="118.09375"></trkpt>
<trkpt lat="24.486658" lon="118.093733"></trkpt>
<trkpt lat="24.486658" lon="118.093733"></trkpt>
<trkpt lat="24.486771" lon="118.093707"></trkpt>
<trkpt lat="24.486771" lon="118.093707"></trkpt>
<trkpt lat="24.487044" lon="118.093641"></trkpt>
<trkpt lat="24.487044" lon="118.093641"></trkpt>
<trkpt lat="24.48707" lon="118.093637"></trkpt>
<trkpt lat="24.48707" lon="118.093637"></trkpt>
<trkpt lat="24.487331" lon="118.093542"></trkpt>
<trkpt lat="24.487908" lon="118.093437"></trkpt>
<trkpt lat="24.487908" lon="118.093437"></trkpt>
<trkpt lat="24.488303" lon="118.093338"></trkpt>
<trkpt lat="24.488303" lon="118.093338"></trkpt>
<trkpt lat="24.488524" lon="118.093238"></trkpt>
<trkpt lat="24.488581" lon="118.093212"></trkpt>
<trkpt lat="24.488581" lon="118.093212"></trkpt>
<trkpt lat="24.488681" lon="118.093043"></trkpt>
<trkpt lat="24.48898" lon="118.092869"></trkpt>
<trkpt lat="24.48898" lon="118.092869"></trkpt>
<trkpt lat="24.489002" lon="118.09286"></trkpt>
<trkpt lat="24.489002" lon="118.09286"></trkpt>
<trkpt lat="24.489306" lon="118.092756"></trkpt>
<trkpt lat="24.48951" lon="118.092756"></trkpt>
<trkpt lat="24.489514" lon="118.092756"></trkpt>
<trkpt lat="24.489622" lon="118.092817"></trkpt>
<trkpt lat="24.489622" lon="118.092817"></trkpt>
<trkpt lat="24.489692" lon="118.092856"></trkpt>
<trkpt lat="24.489692" lon="118.092856"></trkpt>
<trkpt lat="24.490239" lon="118.093147"></trkpt>
<trkpt lat="24.490239" lon="118.093151"></trkpt>
<trkpt lat="24.490456" lon="118.092708"></trkpt>
<trkpt lat="24.490456" lon="118.092708"></trkpt>
<trkpt lat="24.490842" lon="118.09191"></trkpt>
<trkpt lat="24.490842" lon="118.09191"></trkpt>
<trkpt lat="24.490872" lon="118.091845"></trkpt>
<trkpt lat="24.490872" lon="118.091845"></trkpt>
<trkpt lat="24.490955" lon="118.091693"></trkpt>
<trkpt lat="24.490955" lon="118.091693"></trkpt>
<trkpt lat="24.49122" lon="118.091094"></trkpt>
<trkpt lat="24.49122" lon="118.091094"></trkpt>
<trkpt lat="24.491233" lon="118.091063"></trkpt>
<trkpt lat="24.491233" lon="118.091063"></trkpt>
<trkpt lat="24.491688" lon="118.089918"></trkpt>
<trkpt lat="24.491688" lon="118.089918"></trkpt>
<trkpt lat="24.491727" lon="118.089813"></trkpt>
<trkpt lat="24.491727" lon="118.089813"></trkpt>
<trkpt lat="24.491923" lon="118.089301"></trkpt>
<trkpt lat="24.491923" lon="118.089301"></trkpt>
<trkpt lat="24.492161" lon="118.088615"></trkpt>
<trkpt lat="24.492305" lon="118.088069"></trkpt>
<trkpt lat="24.492305" lon="118.088064"></trkpt>
<trkpt lat="24.493181" lon="118.087938"></trkpt>
<trkpt lat="24.493181" lon="118.087938"></trkpt>
<trkpt lat="24.493524" lon="118.087882"></trkpt>
<trkpt lat="24.493524" lon="118.087882"></trkpt>
<trkpt lat="24.493681" lon="118.08786"></trkpt>
<trkpt lat="24.493681" lon="118.08786"></trkpt>
<trkpt lat="24.493789" lon="118.087843"></trkpt>
<trkpt lat="24.493789" lon="118.087843"></trkpt>
<trkpt lat="24.494102" lon="118.087804"></trkpt>
<trkpt lat="24.494102" lon="118.087804"></trkpt>
<trkpt lat="24.494527" lon="118.087739"></trkpt>
<trkpt lat="24.494527" lon="118.087739"></trkpt>
<trkpt lat="24.495017" lon="118.087713"></trkpt>
<trkpt lat="24.495017" lon="118.087713"></trkpt>
<trkpt lat="24.495686" lon="118.087708"></trkpt>
<trkpt lat="24.495686" lon="118.087708"></trkpt>
<trkpt lat="24.496332" lon="118.087708"></trkpt>
<trkpt lat="24.496332" lon="118.087708"></trkpt>
<trkpt lat="24.496853" lon="118.087708"></trkpt>
<trkpt lat="24.496853" lon="118.087708"></trkpt>
<trkpt lat="24.497279" lon="118.087708"></trkpt>
<trkpt lat="24.497279" lon="118.087708"></trkpt>
<trkpt lat="24.497387" lon="118.087708"></trkpt>
<trkpt lat="24.497387" lon="118.087708"></trkpt>
<trkpt lat="24.49819" lon="118.087708"></trkpt>
<trkpt lat="24.49819" lon="118.087708"></trkpt>
<trkpt lat="24.498451" lon="118.087704"></trkpt>
<trkpt lat="24.498451" lon="118.087704"></trkpt>
<trkpt lat="24.49895" lon="118.087687"></trkpt>
<trkpt lat="24.49895" lon="118.087682"></trkpt>
<trkpt lat="24.498989" lon="118.087626"></trkpt>
<trkpt lat="24.498989" lon="118.087626"></trkpt>
<trkpt lat="24.499049" lon="118.087474"></trkpt>
<trkpt lat="24.499049" lon="118.087474"></trkpt>
<trkpt lat="24.499297" lon="118.086693"></trkpt>
<trkpt lat="24.499297" lon="118.086688"></trkpt>
<trkpt lat="24.49951" lon="118.08678"></trkpt>
<trkpt lat="24.499735" lon="118.086879"></trkpt>
<trkpt lat="24.499735" lon="118.086879"></trkpt>
<trkpt lat="24.500378" lon="118.087161"></trkpt>
<trkpt lat="24.500378" lon="118.087161"></trkpt>
<trkpt lat="24.50082" lon="118.087413"></trkpt>
<trkpt lat="24.501263" lon="118.087717"></trkpt>
<trkpt lat="24.501263" lon="118.087717"></trkpt>
<trkpt lat="24.501576" lon="118.087969"></trkpt>
<trkpt lat="24.501888" lon="118.088268"></trkpt>
<trkpt lat="24.502101" lon="118.088498"></trkpt>
<trkpt lat="24.502352" lon="118.088819"></trkpt>
<trkpt lat="24.502352" lon="118.088819"></trkpt>
<trkpt lat="24.502426" lon="118.088915"></trkpt>
<trkpt lat="24.502426" lon="118.088915"></trkpt>
<trkpt lat="24.502548" lon="118.089058"></trkpt>
<trkpt lat="24.502839" lon="118.08947"></trkpt>
<trkpt lat="24.502839" lon="118.08947"></trkpt>
<trkpt lat="24.502899" lon="118.08954"></trkpt>
<trkpt lat="24.502899" lon="118.08954"></trkpt>
<trkpt lat="24.503086" lon="118.089392"></trkpt>
<trkpt lat="24.503086" lon="118.089388"></trkpt>
<trkpt lat="24.503377" lon="118.089588"></trkpt>
<trkpt lat="24.504223" lon="118.090629"></trkpt>
<trkpt lat="24.504679" lon="118.09115"></trkpt>
<trkpt lat="24.504679" lon="118.09115"></trkpt>
<trkpt lat="24.5051" lon="118.091562"></trkpt>
<trkpt lat="24.505586" lon="118.091923"></trkpt>
<trkpt lat="24.505959" lon="118.092144"></trkpt>
<trkpt lat="24.506467" lon="118.0924"></trkpt>
<trkpt lat="24.506923" lon="118.092552"></trkpt>
<trkpt lat="24.506923" lon="118.092552"></trkpt>
<trkpt lat="24.507027" lon="118.092587"></trkpt>
<trkpt lat="24.507027" lon="118.092587"></trkpt>
<trkpt lat="24.507209" lon="118.092643"></trkpt>
<trkpt lat="24.507209" lon="118.092643"></trkpt>
<trkpt lat="24.509219" lon="118.093164"></trkpt>
<trkpt lat="24.509219" lon="118.093164"></trkpt>
<trkpt lat="24.509744" lon="118.093299"></trkpt>
<trkpt lat="24.509744" lon="118.093299"></trkpt>
<trkpt lat="24.510495" lon="118.093498"></trkpt>
<trkpt lat="24.510521" lon="118.093503"></trkpt>
<trkpt lat="24.510521" lon="118.093503"></trkpt>
<trkpt lat="24.510764" lon="118.093568"></trkpt>
<trkpt lat="24.510764" lon="118.093568"></trkpt>
<trkpt lat="24.510851" lon="118.093589"></trkpt>
<trkpt lat="24.510851" lon="118.093589"></trkpt>
<trkpt lat="24.513225" lon="118.094223"></trkpt>
<trkpt lat="24.513225" lon="118.094223"></trkpt>
<trkpt lat="24.515104" lon="118.094705"></trkpt>
<trkpt lat="24.517079" lon="118.095178"></trkpt>
<trkpt lat="24.517079" lon="118.095178"></trkpt>
<trkpt lat="24.517218" lon="118.095208"></trkpt>
<trkpt lat="24.517218" lon="118.095208"></trkpt>
<trkpt lat="24.518199" lon="118.095456"></trkpt>
<trkpt lat="24.519102" lon="118.09566"></trkpt>
<trkpt lat="24.519102" lon="118.09566"></trkpt>
<trkpt lat="24.521263" lon="118.096211"></trkpt>
<trkpt lat="24.521263" lon="118.096211"></trkpt>
<trkpt lat="24.52148" lon="118.096267"></trkpt>
<trkpt lat="24.5224" lon="118.096502"></trkpt>
<trkpt lat="24.522747" lon="118.096632"></trkpt>
<trkpt lat="24.522839" lon="118.09668"></trkpt>
<trkpt lat="24.522839" lon="118.09668"></trkpt>
<trkpt lat="24.522921" lon="118.096714"></trkpt>
<trkpt lat="24.522921" lon="118.096714"></trkpt>
<trkpt lat="24.523043" lon="118.096775"></trkpt>
<trkpt lat="24.523364" lon="118.096962"></trkpt>
<trkpt lat="24.523698" lon="118.097201"></trkpt>
<trkpt lat="24.525799" lon="118.098793"></trkpt>
<trkpt lat="24.526402" lon="118.099258"></trkpt>
<trkpt lat="24.526567" lon="118.099397"></trkpt>
<trkpt lat="24.526706" lon="118.099709"></trkpt>
<trkpt lat="24.526706" lon="118.099709"></trkpt>
<trkpt lat="24.527266" lon="118.10013"></trkpt>
<trkpt lat="24.527266" lon="118.10013"></trkpt>
<trkpt lat="24.527426" lon="118.100074"></trkpt>
<trkpt lat="24.528989" lon="118.101237"></trkpt>
<trkpt lat="24.529084" lon="118.101276"></trkpt>
<trkpt lat="24.529149" lon="118.101276"></trkpt>
<trkpt lat="24.529245" lon="118.101263"></trkpt>
<trkpt lat="24.529245" lon="118.101259"></trkpt>
<trkpt lat="24.529345" lon="118.101237"></trkpt>
<trkpt lat="24.529466" lon="118.101176"></trkpt>
<trkpt lat="24.52951" lon="118.101115"></trkpt>
<trkpt lat="24.52951" lon="118.101111"></trkpt>
<trkpt lat="24.52964" lon="118.100885"></trkpt>
<trkpt lat="24.529957" lon="118.100395"></trkpt>
<trkpt lat="24.529957" lon="118.100391"></trkpt>
<trkpt lat="24.530187" lon="118.100564"></trkpt>
<trkpt lat="24.530187" lon="118.100564"></trkpt>
<trkpt lat="24.530273" lon="118.100629"></trkpt>
<trkpt lat="24.530273" lon="118.100629"></trkpt>
<trkpt lat="24.531354" lon="118.101393"></trkpt>
<trkpt lat="24.531354" lon="118.101393"></trkpt>
<trkpt lat="24.531949" lon="118.101836"></trkpt>
<trkpt lat="24.532296" lon="118.102044"></trkpt>
<trkpt lat="24.53247" lon="118.102131"></trkpt>
<trkpt lat="24.532795" lon="118.102292"></trkpt>
<trkpt lat="24.532795" lon="118.102292"></trkpt>
<trkpt lat="24.532843" lon="118.102313"></trkpt>
<trkpt lat="24.532843" lon="118.102313"></trkpt>
<trkpt lat="24.53322" lon="118.102435"></trkpt>
<trkpt lat="24.534058" lon="118.102799"></trkpt>
<trkpt lat="24.534345" lon="118.102912"></trkpt>
<trkpt lat="24.534345" lon="118.102912"></trkpt>
<trkpt lat="24.534549" lon="118.103021"></trkpt>
<trkpt lat="24.534549" lon="118.103021"></trkpt>
<trkpt lat="24.534562" lon="118.103025"></trkpt>
<trkpt lat="24.534696" lon="118.103112"></trkpt>
<trkpt lat="24.534696" lon="118.103112"></trkpt>
<trkpt lat="24.534831" lon="118.103199"></trkpt>
<trkpt lat="24.535143" lon="118.103433"></trkpt>
<trkpt lat="24.536641" lon="118.104609"></trkpt>
<trkpt lat="24.536641" lon="118.104609"></trkpt>
<trkpt lat="24.536688" lon="118.104661"></trkpt>
<trkpt lat="24.536688" lon="118.104661"></trkpt>
<trkpt lat="24.537674" lon="118.10605"></trkpt>
<trkpt lat="24.537674" lon="118.10605"></trkpt>
<trkpt lat="24.538155" lon="118.10674"></trkpt>
<trkpt lat="24.538338" lon="118.106984"></trkpt>
<trkpt lat="24.538485" lon="118.107148"></trkpt>
<trkpt lat="24.538724" lon="118.10737"></trkpt>
<trkpt lat="24.53954" lon="118.108043"></trkpt>
<trkpt lat="24.53954" lon="118.108043"></trkpt>
<trkpt lat="24.539774" lon="118.108225"></trkpt>
<trkpt lat="24.540109" lon="118.108485"></trkpt>
<trkpt lat="24.540109" lon="118.108485"></trkpt>
<trkpt lat="24.540152" lon="118.10852"></trkpt>
<trkpt lat="24.540152" lon="118.10852"></trkpt>
<trkpt lat="24.540412" lon="118.108707"></trkpt>
<trkpt lat="24.540638" lon="118.108828"></trkpt>
<trkpt lat="24.54079" lon="118.108885"></trkpt>
<trkpt lat="24.541181" lon="118.108997"></trkpt>
<trkpt lat="24.541567" lon="118.109093"></trkpt>
<trkpt lat="24.541567" lon="118.109093"></trkpt>
<trkpt lat="24.542691" lon="118.109167"></trkpt>
<trkpt lat="24.543129" lon="118.109214"></trkpt>
<trkpt lat="24.543129" lon="118.109214"></trkpt>
<trkpt lat="24.543247" lon="118.109206"></trkpt>
<trkpt lat="24.543247" lon="118.109206"></trkpt>
<trkpt lat="24.543455" lon="118.109171"></trkpt>
<trkpt lat="24.543533" lon="118.109154"></trkpt>
<trkpt lat="24.544453" lon="118.109084"></trkpt>
<trkpt lat="24.545052" lon="118.109002"></trkpt>
<trkpt lat="24.545339" lon="118.108937"></trkpt>
<trkpt lat="24.545951" lon="118.108733"></trkpt>
<trkpt lat="24.545951" lon="118.108733"></trkpt>
<trkpt lat="24.54671" lon="118.108459"></trkpt>
<trkpt lat="24.547157" lon="118.108255"></trkpt>
<trkpt lat="24.547292" lon="118.10816"></trkpt>
<trkpt lat="24.547357" lon="118.108073"></trkpt>
<trkpt lat="24.547357" lon="118.108073"></trkpt>
<trkpt lat="24.547426" lon="118.108008"></trkpt>
<trkpt lat="24.547426" lon="118.108008"></trkpt>
<trkpt lat="24.54819" lon="118.107218"></trkpt>
<trkpt lat="24.54819" lon="118.107218"></trkpt>
<trkpt lat="24.548624" lon="118.106719"></trkpt>
<trkpt lat="24.548624" lon="118.106719"></trkpt>
<trkpt lat="24.548806" lon="118.106528"></trkpt>
<trkpt lat="24.548806" lon="118.106523"></trkpt>
<trkpt lat="24.549158" lon="118.106884"></trkpt>
<trkpt lat="24.549527" lon="118.107205"></trkpt>
<trkpt lat="24.54967" lon="118.107391"></trkpt>
<trkpt lat="24.54967" lon="118.107391"></trkpt>
<trkpt lat="24.549826" lon="118.107617"></trkpt>
<trkpt lat="24.550009" lon="118.107921"></trkpt>
<trkpt lat="24.550621" lon="118.109145"></trkpt>
<trkpt lat="24.550621" lon="118.109145"></trkpt>
<trkpt lat="24.550582" lon="118.109123"></trkpt>
<trkpt lat="24.550443" lon="118.108932"></trkpt>
<trkpt lat="24.550443" lon="118.108932"></trkpt>
<trkpt lat="24.550391" lon="118.108854"></trkpt>
<trkpt lat="24.550191" lon="118.108459"></trkpt>
<trkpt lat="24.550191" lon="118.108459"></trkpt>
<trkpt lat="24.549939" lon="118.107943"></trkpt>
<trkpt lat="24.549727" lon="118.107574"></trkpt>
<trkpt lat="24.549653" lon="118.107504"></trkpt>
<trkpt lat="24.549605" lon="118.107478"></trkpt>
<trkpt lat="24.54951" lon="118.107461"></trkpt>
<trkpt lat="24.549505" lon="118.107457"></trkpt>
<trkpt lat="24.549601" lon="118.107365"></trkpt>
<trkpt lat="24.549601" lon="118.107365"></trkpt>
<trkpt lat="24.549835" lon="118.107114"></trkpt>
<trkpt lat="24.549835" lon="118.107105"></trkpt>
<trkpt lat="24.549905" lon="118.107079"></trkpt>
<trkpt lat="24.551484" lon="118.105503"></trkpt>
<trkpt lat="24.551532" lon="118.105464"></trkpt>
<trkpt lat="24.551532" lon="118.105464"></trkpt>
<trkpt lat="24.551576" lon="118.105421"></trkpt>
<trkpt lat="24.551576" lon="118.105421"></trkpt>
<trkpt lat="24.561523" lon="118.094887"></trkpt>
<trkpt lat="24.561645" lon="118.09474"></trkpt>
<trkpt lat="24.56171" lon="118.094674"></trkpt>
<trkpt lat="24.56171" lon="118.094674"></trkpt>
<trkpt lat="24.561797" lon="118.094588"></trkpt>
<trkpt lat="24.561892" lon="118.094505"></trkpt>
<trkpt lat="24.562135" lon="118.094245"></trkpt>
<trkpt lat="24.562409" lon="118.093967"></trkpt>
<trkpt lat="24.562652" lon="118.093741"></trkpt>
<trkpt lat="24.563043" lon="118.093403"></trkpt>
<trkpt lat="24.56329" lon="118.093229"></trkpt>
<trkpt lat="24.563468" lon="118.093134"></trkpt>
<trkpt lat="24.563524" lon="118.093038"></trkpt>
<trkpt lat="24.563524" lon="118.093038"></trkpt>
<trkpt lat="24.563685" lon="118.093312"></trkpt>
<trkpt lat="24.563685" lon="118.093312"></trkpt>
<trkpt lat="24.564093" lon="118.093889"></trkpt>
<trkpt lat="24.564253" lon="118.094136"></trkpt>
<trkpt lat="24.564253" lon="118.094136"></trkpt>
<trkpt lat="24.56431" lon="118.094319"></trkpt>
<trkpt lat="24.564705" lon="118.095074"></trkpt>
<trkpt lat="24.564705" lon="118.095074"></trkpt>
<trkpt lat="24.56497" lon="118.095569"></trkpt>
<trkpt lat="24.565039" lon="118.095747"></trkpt>
<trkpt lat="24.565252" lon="118.096441"></trkpt>
<trkpt lat="24.565252" lon="118.096441"></trkpt>
<trkpt lat="24.565425" lon="118.096493"></trkpt>
<trkpt lat="24.565707" lon="118.096576"></trkpt>
<trkpt lat="24.565885" lon="118.096667"></trkpt>
<trkpt lat="24.565994" lon="118.096745"></trkpt>
<trkpt lat="24.566667" lon="118.097266"></trkpt>
<trkpt lat="24.566823" lon="118.097413"></trkpt>
<trkpt lat="24.567214" lon="118.097852"></trkpt>
<trkpt lat="24.567214" lon="118.097852"></trkpt>
<trkpt lat="24.56737" lon="118.097951"></trkpt>
<trkpt lat="24.567674" lon="118.098051"></trkpt>
<trkpt lat="24.568099" lon="118.09822"></trkpt>
<trkpt lat="24.568455" lon="118.098325"></trkpt>
<trkpt lat="24.568455" lon="118.098325"></trkpt>
<trkpt lat="24.569262" lon="118.098481"></trkpt>
<trkpt lat="24.569262" lon="118.098481"></trkpt>
<trkpt lat="24.569358" lon="118.098498"></trkpt>
<trkpt lat="24.569358" lon="118.098498"></trkpt>
<trkpt lat="24.569978" lon="118.098576"></trkpt>
<trkpt lat="24.569978" lon="118.098576"></trkpt>
<trkpt lat="24.570365" lon="118.098624"></trkpt>
<trkpt lat="24.570365" lon="118.098624"></trkpt>
<trkpt lat="24.570942" lon="118.098711"></trkpt>
<trkpt lat="24.570942" lon="118.098711"></trkpt>
<trkpt lat="24.571806" lon="118.098841"></trkpt>
<trkpt lat="24.571806" lon="118.098841"></trkpt>
<trkpt lat="24.572244" lon="118.098906"></trkpt>
<trkpt lat="24.572244" lon="118.098906"></trkpt>
<trkpt lat="24.572244" lon="118.099583"></trkpt>
<trkpt lat="24.572244" lon="118.099583"></trkpt>
<trkpt lat="24.572253" lon="118.10013"></trkpt>
<trkpt lat="24.572253" lon="118.10013"></trkpt>
<trkpt lat="24.572253" lon="118.100747"></trkpt>
<trkpt lat="24.572253" lon="118.100747"></trkpt>
<trkpt lat="24.572253" lon="118.101176"></trkpt>
<trkpt lat="24.572253" lon="118.101176"></trkpt>
<trkpt lat="24.572253" lon="118.101389"></trkpt>
<trkpt lat="24.572253" lon="118.101389"></trkpt>
<trkpt lat="24.572253" lon="118.101771"></trkpt>
<trkpt lat="24.572253" lon="118.101771"></trkpt>
<trkpt lat="24.572266" lon="118.103025"></trkpt>
<trkpt lat="24.572266" lon="118.103138"></trkpt>
<trkpt lat="24.572266" lon="118.103138"></trkpt>
<trkpt lat="24.572266" lon="118.103351"></trkpt>
<trkpt lat="24.572266" lon="118.103351"></trkpt>
<trkpt lat="24.572266" lon="118.103142"></trkpt>
<trkpt lat="24.572266" lon="118.103142"></trkpt>
<trkpt lat="24.572266" lon="118.10303"></trkpt>
<trkpt lat="24.572257" lon="118.101775"></trkpt>
<trkpt lat="24.572257" lon="118.101775"></trkpt>
<trkpt lat="24.572257" lon="118.101393"></trkpt>
<trkpt lat="24.572257" lon="118.101393"></trkpt>
<trkpt lat="24.572257" lon="118.101181"></trkpt>
<trkpt lat="24.572257" lon="118.101181"></trkpt>
<trkpt lat="24.572257" lon="118.100751"></trkpt>
<trkpt lat="24.572257" lon="118.100751"></trkpt>
<trkpt lat="24.572257" lon="118.100135"></trkpt>
<trkpt lat="24.572257" lon="118.100135"></trkpt>
<trkpt lat="24.572248" lon="118.099583"></trkpt>
<trkpt lat="24.572248" lon="118.099583"></trkpt>
<trkpt lat="24.572248" lon="118.098911"></trkpt>
<trkpt lat="24.572244" lon="118.098906"></trkpt>
<trkpt lat="24.57181" lon="118.098845"></trkpt>
<trkpt lat="24.57181" lon="118.098845"></trkpt>
<trkpt lat="24.570946" lon="118.098715"></trkpt>
<trkpt lat="24.570946" lon="118.098715"></trkpt>
<trkpt lat="24.570369" lon="118.098628"></trkpt>
<trkpt lat="24.570369" lon="118.098628"></trkpt>
<trkpt lat="24.569983" lon="118.098581"></trkpt>
<trkpt lat="24.569983" lon="118.098581"></trkpt>
<trkpt lat="24.569362" lon="118.098503"></trkpt>
<trkpt lat="24.569362" lon="118.098503"></trkpt>
<trkpt lat="24.569266" lon="118.098485"></trkpt>
<trkpt lat="24.569266" lon="118.098485"></trkpt>
<trkpt lat="24.568459" lon="118.098329"></trkpt>
<trkpt lat="24.568455" lon="118.098325"></trkpt>
<trkpt lat="24.568459" lon="118.097669"></trkpt>
<trkpt lat="24.568459" lon="118.097669"></trkpt>
<trkpt lat="24.568451" lon="118.097083"></trkpt>
<trkpt lat="24.568451" lon="118.097083"></trkpt>
<trkpt lat="24.568407" lon="118.096484"></trkpt>
<trkpt lat="24.568407" lon="118.096484"></trkpt>
<trkpt lat="24.568338" lon="118.096306"></trkpt>
<trkpt lat="24.56826" lon="118.096181"></trkpt>
<trkpt lat="24.56826" lon="118.096181"></trkpt>
<trkpt lat="24.568173" lon="118.096059"></trkpt>
<trkpt lat="24.567717" lon="118.095556"></trkpt>
<trkpt lat="24.567717" lon="118.095556"></trkpt>
<trkpt lat="24.567648" lon="118.095477"></trkpt>
<trkpt lat="24.567648" lon="118.095477"></trkpt>
<trkpt lat="24.56737" lon="118.095165"></trkpt>
<trkpt lat="24.56737" lon="118.095165"></trkpt>
<trkpt lat="24.567279" lon="118.095056"></trkpt>
<trkpt lat="24.567279" lon="118.095056"></trkpt>
<trkpt lat="24.567105" lon="118.094839"></trkpt>
<trkpt lat="24.566997" lon="118.094727"></trkpt>
<trkpt lat="24.566836" lon="118.09451"></trkpt>
<trkpt lat="24.56674" lon="118.094184"></trkpt>
<trkpt lat="24.56674" lon="118.094184"></trkpt>
<trkpt lat="24.566693" lon="118.093967"></trkpt>
<trkpt lat="24.566693" lon="118.093967"></trkpt>
<trkpt lat="24.566567" lon="118.093485"></trkpt>
<trkpt lat="24.566385" lon="118.092891"></trkpt>
<trkpt lat="24.566385" lon="118.092891"></trkpt>
<trkpt lat="24.566354" lon="118.092795"></trkpt>
<trkpt lat="24.56635" lon="118.092791"></trkpt>
<trkpt lat="24.56638" lon="118.092444"></trkpt>
<trkpt lat="24.56638" lon="118.092444"></trkpt>
<trkpt lat="24.566415" lon="118.092283"></trkpt>
<trkpt lat="24.566415" lon="118.092201"></trkpt>
<trkpt lat="24.566411" lon="118.092196"></trkpt>
<trkpt lat="24.565868" lon="118.091853"></trkpt>
<trkpt lat="24.565608" lon="118.09168"></trkpt>
<trkpt lat="24.565603" lon="118.091675"></trkpt>
<trkpt lat="24.565564" lon="118.091571"></trkpt>
<trkpt lat="24.565625" lon="118.091393"></trkpt>
<trkpt lat="24.565638" lon="118.091285"></trkpt>
<trkpt lat="24.565638" lon="118.091285"></trkpt>
<trkpt lat="24.565603" lon="118.091224"></trkpt>
<trkpt lat="24.565599" lon="118.09122"></trkpt>
<trkpt lat="24.565516" lon="118.090933"></trkpt>
<trkpt lat="24.565512" lon="118.090929"></trkpt>
<trkpt lat="24.56533" lon="118.090929"></trkpt>
<trkpt lat="24.56533" lon="118.090929"></trkpt>
<trkpt lat="24.565334" lon="118.090638"></trkpt>
<trkpt lat="24.565334" lon="118.090638"></trkpt>
<trkpt lat="24.565313" lon="118.090382"></trkpt>
<trkpt lat="24.565308" lon="118.090378"></trkpt>
<trkpt lat="24.565213" lon="118.090369"></trkpt>
<trkpt lat="24.565117" lon="118.090308"></trkpt>
<trkpt lat="24.565039" lon="118.090208"></trkpt>
<trkpt lat="24.564991" lon="118.090109"></trkpt>
<trkpt lat="24.564987" lon="118.090104"></trkpt>
<trkpt lat="24.565013" lon="118.089939"></trkpt>
<trkpt lat="24.565013" lon="118.089939"></trkpt>
<trkpt lat="24.565091" lon="118.089601"></trkpt>
<trkpt lat="24.565091" lon="118.089596"></trkpt>
<trkpt lat="24.564965" lon="118.089484"></trkpt>
<trkpt lat="24.564162" lon="118.089188"></trkpt>
<trkpt lat="24.564158" lon="118.089184"></trkpt>
<trkpt lat="24.564102" lon="118.089288"></trkpt>
<trkpt lat="24.563993" lon="118.089392"></trkpt>
<trkpt lat="24.563832" lon="118.089505"></trkpt>
<trkpt lat="24.563754" lon="118.089549"></trkpt>
</trkseg></trk>
</gpx>