<?xml version="1.0" encoding="UTF-8"?>
<kml xmlns="http://www.opengis.net/kml/2.2">
<Document><name>厦门 行程路线图</name>
<Folder><name>Day1 老城烟火+集美学村（1号线沿线） (2026-09-18)</name>
<Placemark><name>中山路步行街</name><description>老虎城四楼天台可拍全景(10元)；中华城免费</description><Point><coordinates>118.081903,24.454104,0</coordinates></Point></Placemark>
<Placemark><name>厦门八市（营平菜市场）</name><description>看热闹为主，海鲜加工慎重；阿杰五香等小吃在此</description><Point><coordinates>118.075017,24.457902,0</coordinates></Point></Placemark>
<Placemark><name>老溪岸沙茶面</name><description></description><Point><coordinates>118.088955,24.461247,0</coordinates></Point></Placemark>
<Placemark><name>集美学村</name><description>地铁1号线直达；龙舟池/鳌园/嘉庚故居/大社戏台</description><Point><coordinates>118.103353,24.572373,0</coordinates></Point></Placemark>
<Placemark><name>十里长堤（集美）</name><description>地铁穿海+日落+不定期免费演出</description><Point><coordinates>118.089475,24.563722,0</coordinates></Point></Placemark>
<Placemark><name>Day1 老城烟火+集美学村（1号线沿线） (2026-09-18) 路线</name><LineString><tessellate>1</tessellate><coordinates>118.081901,24.454102,0 118.081901,24.454102,0 118.081901,24.454102,0 118.081259,24.454045,0 118.081259,24.454045,0 118.081055,24.454023,0 118.080521,24.453976,0 118.080521,24.453976,0 118.080252,24.453954,0 118.080252,24.453954,0 118.078637,24.453798,0 118.078633,24.453793,0 118.078498,24.45398,0 118.078498,24.45398,0 118.077934,24.454718,0 118.077934,24.454718,0 118.077708,24.455013,0 118.077708,24.455013,0 118.077517,24.455156,0 118.077348,24.455221,0 118.077244,24.455243,0 118.077027,24.455226,0 118.077027,24.455226,0 118.076771,24.455113,0 118.076766,24.455109,0 118.076641,24.455386,0 118.076636,24.455386,0 118.076415,24.455295,0 118.076411,24.455291,0 118.076263,24.455547,0 118.076263,24.455547,0 118.07625,24.455564,0 118.076141,24.455707,0 118.076141,24.455707,0 118.075911,24.456011,0 118.075911,24.456011,0 118.075816,24.45622,0 118.075638,24.456523,0 118.075638,24.456523,0 118.075386,24.456936,0 118.075386,24.456936,0 118.075208,24.4574,0 118.075208,24.4574,0 118.075178,24.457496,0 118.075178,24.457496,0 118.075109,24.457661,0 118.075043,24.457773,0 118.07497,24.457869,0 118.074965,24.457869,0 118.075039,24.457778,0 118.075104,24.457665,0 118.075174,24.4575,0 118.075174,24.4575,0 118.075204,24.457405,0 118.075204,24.457405,0 118.075382,24.45694,0 118.075382,24.456936,0 118.075994,24.457127,0 118.075994,24.457127,0 118.076089,24.457153,0 118.076207,24.457218,0 118.076207,24.457218,0 118.076411,24.457344,0 118.076411,24.457344,0 118.076615,24.457474,0 118.076615,24.457474,0 118.077309,24.45793,0 118.077309,24.45793,0 118.077717,24.458199,0 118.077717,24.458199,0 118.077769,24.458234,0 118.077769,24.458234,0 118.07822,24.458529,0 118.07822,24.458529,0 118.078385,24.45865,0 118.078533,24.458793,0 118.078585,24.458889,0 118.078637,24.45911,0 118.078637,24.45911,0 118.078724,24.459839,0 118.078724,24.459839,0 118.079049,24.459931,0 118.079049,24.459931,0 118.079449,24.460022,0 118.079449,24.460022,0 118.079753,24.460082,0 118.079753,24.460082,0 118.079983,24.460126,0 118.079983,24.460126,0 118.080161,24.460161,0 118.080161,24.460161,0 118.080512,24.460243,0 118.080512,24.460243,0 118.080855,24.460321,0 118.080855,24.460321,0 118.08105,24.460365,0 118.081293,24.460412,0 118.081293,24.460412,0 118.082179,24.460573,0 118.082179,24.460573,0 118.082773,24.460703,0 118.082773,24.460703,0 118.083264,24.460803,0 118.083264,24.460803,0 118.083798,24.460933,0 118.083798,24.460933,0 118.083906,24.460955,0 118.083906,24.460955,0 118.084015,24.460981,0 118.084015,24.460981,0 118.084336,24.461046,0 118.084336,24.461046,0 118.084922,24.461163,0 118.084922,24.461163,0 118.085156,24.461224,0 118.085156,24.461224,0 118.085773,24.461367,0 118.085773,24.461367,0 118.086953,24.461619,0 118.086953,24.461619,0 118.087604,24.461085,0 118.087604,24.461085,0 118.087682,24.461024,0 118.087682,24.461024,0 118.087934,24.460807,0 118.087934,24.460803,0 118.088338,24.461311,0 118.088338,24.461311,0 118.08895,24.46122,0 118.08895,24.461215,0 118.089015,24.461211,0 118.089015,24.461211,0 118.089015,24.461545,0 118.089015,24.461545,0 118.088997,24.462092,0 118.088993,24.462092,0 118.090074,24.462344,0 118.090074,24.462344,0 118.091224,24.46263,0 118.091224,24.46263,0 118.09138,24.462665,0 118.09138,24.462665,0 118.091944,24.462817,0 118.091944,24.462817,0 118.093112,24.46316,0 118.093112,24.46316,0 118.093242,24.463199,0 118.093242,24.463199,0 118.093203,24.463346,0 118.093203,24.463346,0 118.093047,24.463741,0 118.093047,24.463741,0 118.092917,24.464063,0 118.092917,24.464063,0 118.092917,24.464197,0 118.092791,24.464722,0 118.092726,24.464905,0 118.092726,24.464905,0 118.092569,24.465317,0 118.092548,24.465404,0 118.092548,24.465404,0 118.092444,24.465833,0 118.092444,24.465833,0 118.092248,24.466493,0 118.092248,24.466493,0 118.092227,24.466549,0 118.092066,24.46697,0 118.092066,24.46697,0 118.091884,24.467409,0 118.091884,24.467409,0 118.091688,24.467873,0 118.091619,24.467912,0 118.091619,24.467912,0 118.091532,24.468134,0 118.091532,24.468134,0 118.091419,24.468424,0 118.091415,24.468424,0 118.091428,24.468542,0 118.091428,24.468542,0 118.091432,24.468589,0 118.091458,24.468637,0 118.091458,24.468633,0 118.091341,24.46872,0 118.091341,24.46872,0 118.091341,24.468724,0 118.091341,24.468859,0 118.091332,24.468854,0 118.091606,24.469071,0 118.091606,24.469071,0 118.09161,24.469071,0 118.09148,24.469175,0 118.091441,24.469223,0 118.091376,24.469371,0 118.091372,24.469371,0 118.091424,24.46947,0 118.091424,24.46947,0 118.09145,24.469527,0 118.09148,24.469714,0 118.09148,24.469714,0 118.091576,24.470182,0 118.091576,24.470182,0 118.091654,24.470508,0 118.091654,24.470508,0 118.091923,24.471892,0 118.091979,24.472257,0 118.091992,24.472418,0 118.091992,24.472418,0 118.092001,24.472591,0 118.092001,24.472591,0 118.091979,24.473056,0 118.091936,24.473312,0 118.091931,24.473312,0 118.09227,24.473403,0 118.09227,24.473403,0 118.092504,24.473485,0 118.092726,24.473598,0 118.092726,24.473598,0 118.092839,24.473668,0 118.093003,24.473798,0 118.093003,24.473798,0 118.093138,24.473941,0 118.093138,24.473941,0 118.093255,24.474119,0 118.093372,24.474388,0 118.093372,24.474388,0 118.093498,24.474614,0 118.093498,24.474614,0 118.093594,24.474779,0 118.093594,24.474779,0 118.093733,24.474965,0 118.093733,24.474965,0 118.093915,24.475178,0 118.094188,24.475382,0 118.094792,24.475664,0 118.094792,24.475664,0 118.094844,24.47569,0 118.094844,24.47569,0 118.094935,24.475747,0 118.094935,24.475747,0 118.095204,24.475885,0 118.095204,24.475885,0 118.095751,24.476185,0 118.095751,24.476185,0 118.096298,24.476471,0 118.096298,24.476471,0 118.096623,24.476636,0 118.096623,24.476636,0 118.097227,24.476936,0 118.097227,24.476936,0 118.096957,24.477383,0 118.096957,24.477383,0 118.096862,24.477535,0 118.096415,24.478255,0 118.096415,24.478255,0 118.096168,24.478655,0 118.096168,24.478655,0 118.095825,24.47921,0 118.095825,24.47921,0 118.095786,24.479271,0 118.095786,24.479271,0 118.095755,24.479293,0 118.095729,24.479336,0 118.095664,24.479436,0 118.095577,24.479575,0 118.095577,24.479575,0 118.095482,24.479735,0 118.095473,24.479766,0 118.095473,24.479766,0 118.095443,24.479792,0 118.095378,24.479887,0 118.095378,24.479887,0 118.095334,24.479948,0 118.095326,24.480004,0 118.095321,24.480004,0 118.09526,24.480052,0 118.0951,24.480291,0 118.0951,24.480291,0 118.094996,24.480456,0 118.094996,24.480456,0 118.094944,24.480534,0 118.094944,24.480586,0 118.094944,24.480586,0 118.094939,24.48059,0 118.094883,24.480712,0 118.094883,24.480712,0 118.094761,24.480998,0 118.094709,24.481224,0 118.094709,24.481224,0 118.094657,24.481684,0 118.094657,24.481684,0 118.094549,24.482387,0 118.094549,24.482387,0 118.09434,24.483542,0 118.09434,24.483542,0 118.094249,24.484045,0 118.094249,24.484045,0 118.094236,24.484097,0 118.094236,24.484097,0 118.094188,24.484375,0 118.094188,24.484375,0 118.094097,24.4849,0 118.094097,24.4849,0 118.09385,24.486189,0 118.093798,24.486411,0 118.093798,24.486411,0 118.09375,24.486597,0 118.09375,24.486597,0 118.093733,24.486658,0 118.093733,24.486658,0 118.093707,24.486771,0 118.093707,24.486771,0 118.093641,24.487044,0 118.093641,24.487044,0 118.093637,24.48707,0 118.093637,24.48707,0 118.093542,24.487331,0 118.093437,24.487908,0 118.093437,24.487908,0 118.093338,24.488303,0 118.093338,24.488303,0 118.093238,24.488524,0 118.093212,24.488581,0 118.093212,24.488581,0 118.093043,24.488681,0 118.092869,24.48898,0 118.092869,24.48898,0 118.09286,24.489002,0 118.09286,24.489002,0 118.092756,24.489306,0 118.092756,24.48951,0 118.092756,24.489514,0 118.092817,24.489622,0 118.092817,24.489622,0 118.092856,24.489692,0 118.092856,24.489692,0 118.093147,24.490239,0 118.093151,24.490239,0 118.092708,24.490456,0 118.092708,24.490456,0 118.09191,24.490842,0 118.09191,24.490842,0 118.091845,24.490872,0 118.091845,24.490872,0 118.091693,24.490955,0 118.091693,24.490955,0 118.091094,24.49122,0 118.091094,24.49122,0 118.091063,24.491233,0 118.091063,24.491233,0 118.089918,24.491688,0 118.089918,24.491688,0 118.089813,24.491727,0 118.089813,24.491727,0 118.089301,24.491923,0 118.089301,24.491923,0 118.088615,24.492161,0 118.088069,24.492305,0 118.088064,24.492305,0 118.087938,24.493181,0 118.087938,24.493181,0 118.087882,24.493524,0 118.087882,24.493524,0 118.08786,24.493681,0 118.08786,24.493681,0 118.087843,24.493789,0 118.087843,24.493789,0 118.087804,24.494102,0 118.087804,24.494102,0 118.087739,24.494527,0 118.087739,24.494527,0 118.087713,24.495017,0 118.087713,24.495017,0 118.087708,24.495686,0 118.087708,24.495686,0 118.087708,24.496332,0 118.087708,24.496332,0 118.087708,24.496853,0 118.087708,24.496853,0 118.087708,24.497279,0 118.087708,24.497279,0 118.087708,24.497387,0 118.087708,24.497387,0 118.087708,24.49819,0 118.087708,24.49819,0 118.087704,24.498451,0 118.087704,24.498451,0 118.087687,24.49895,0 118.087682,24.49895,0 118.087626,24.498989,0 118.087626,24.498989,0 118.087474,24.499049,0 118.087474,24.499049,0 118.086693,24.499297,0 118.086688,24.499297,0 118.08678,24.49951,0 118.086879,24.499735,0 118.086879,24.499735,0 118.087161,24.500378,0 118.087161,24.500378,0 118.087413,24.50082,0 118.087717,24.501263,0 118.087717,24.501263,0 118.087969,24.501576,0 118.088268,24.501888,0 118.088498,24.502101,0 118.088819,24.502352,0 118.088819,24.502352,0 118.088915,24.502426,0 118.088915,24.502426,0 118.089058,24.502548,0 118.08947,24.502839,0 118.08947,24.502839,0 118.08954,24.502899,0 118.08954,24.502899,0 118.089392,24.503086,0 118.089388,24.503086,0 118.089588,24.503377,0 118.090629,24.504223,0 118.09115,24.504679,0 118.09115,24.504679,0 118.091562,24.5051,0 118.091923,24.505586,0 118.092144,24.505959,0 118.0924,24.506467,0 118.092552,24.506923,0 118.092552,24.506923,0 118.092587,24.507027,0 118.092587,24.507027,0 118.092643,24.507209,0 118.092643,24.507209,0 118.093164,24.509219,0 118.093164,24.509219,0 118.093299,24.509744,0 118.093299,24.509744,0 118.093498,24.510495,0 118.093503,24.510521,0 118.093503,24.510521,0 118.093568,24.510764,0 118.093568,24.510764,0 118.093589,24.510851,0 118.093589,24.510851,0 118.094223,24.513225,0 118.094223,24.513225,0 118.094705,24.515104,0 118.095178,24.517079,0 118.095178,24.517079,0 118.095208,24.517218,0 118.095208,24.517218,0 118.095456,24.518199,0 118.09566,24.519102,0 118.09566,24.519102,0 118.096211,24.521263,0 118.096211,24.521263,0 118.096267,24.52148,0 118.096502,24.5224,0 118.096632,24.522747,0 118.09668,24.522839,0 118.09668,24.522839,0 118.096714,24.522921,0 118.096714,24.522921,0 118.096775,24.523043,0 118.096962,24.523364,0 118.097201,24.523698,0 118.098793,24.525799,0 118.099258,24.526402,0 118.099397,24.526567,0 118.099709,24.526706,0 118.099709,24.526706,0 118.10013,24.527266,0 118.10013,24.527266,0 118.100074,24.527426,0 118.101237,24.528989,0 118.101276,24.529084,0 118.101276,24.529149,0 118.101263,24.529245,0 118.101259,24.529245,0 118.101237,24.529345,0 118.101176,24.529466,0 118.101115,24.52951,0 118.101111,24.52951,0 118.100885,24.52964,0 118.100395,24.529957,0 118.100391,24.529957,0 118.100564,24.530187,0 118.100564,24.530187,0 118.100629,24.530273,0 118.100629,24.530273,0 118.101393,24.531354,0 118.101393,24.531354,0 118.101836,24.531949,0 118.102044,24.532296,0 118.102131,24.53247,0 118.102292,24.532795,0 118.102292,24.532795,0 118.102313,24.532843,0 118.102313,24.532843,0 118.102435,24.53322,0 118.102799,24.534058,0 118.102912,24.534345,0 118.102912,24.534345,0 118.103021,24.534549,0 118.103021,24.534549,0 118.103025,24.534562,0 118.103112,24.534696,0 118.103112,24.534696,0 118.103199,24.534831,0 118.103433,24.535143,0 118.104609,24.536641,0 118.104609,24.536641,0 118.104661,24.536688,0 118.104661,24.536688,0 118.10605,24.537674,0 118.10605,24.537674,0 118.10674,24.538155,0 118.106984,24.538338,0 118.107148,24.538485,0 118.10737,24.538724,0 118.108043,24.53954,0 118.108043,24.53954,0 118.108225,24.539774,0 118.108485,24.540109,0 118.108485,24.540109,0 118.10852,24.540152,0 118.10852,24.540152,0 118.108707,24.540412,0 118.108828,24.540638,0 118.108885,24.54079,0 118.108997,24.541181,0 118.109093,24.541567,0 118.109093,24.541567,0 118.109167,24.542691,0 118.109214,24.543129,0 118.109214,24.543129,0 118.109206,24.543247,0 118.109206,24.543247,0 118.109171,24.543455,0 118.109154,24.543533,0 118.109084,24.544453,0 118.109002,24.545052,0 118.108937,24.545339,0 118.108733,24.545951,0 118.108733,24.545951,0 118.108459,24.54671,0 118.108255,24.547157,0 118.10816,24.547292,0 118.108073,24.547357,0 118.108073,24.547357,0 118.108008,24.547426,0 118.108008,24.547426,0 118.107218,24.54819,0 118.107218,24.54819,0 118.106719,24.548624,0 118.106719,24.548624,0 118.106528,24.548806,0 118.106523,24.548806,0 118.106884,24.549158,0 118.107205,24.549527,0 118.107391,24.54967,0 118.107391,24.54967,0 118.107617,24.549826,0 118.107921,24.550009,0 118.109145,24.550621,0 118.109145,24.550621,0 118.109123,24.550582,0 118.108932,24.550443,0 118.108932,24.550443,0 118.108854,24.550391,0 118.108459,24.550191,0 118.108459,24.550191,0 118.107943,24.549939,0 118.107574,24.549727,0 118.107504,24.549653,0 118.107478,24.549605,0 118.107461,24.54951,0 118.107457,24.549505,0 118.107365,24.549601,0 118.107365,24.549601,0 118.107114,24.549835,0 118.107105,24.549835,0 118.107079,24.549905,0 118.105503,24.551484,0 118.105464,24.551532,0 118.105464,24.551532,0 118.105421,24.551576,0 118.105421,24.551576,0 118.094887,24.561523,0 118.09474,24.561645,0 118.094674,24.56171,0 118.094674,24.56171,0 118.094588,24.561797,0 118.094505,24.561892,0 118.094245,24.562135,0 118.093967,24.562409,0 118.093741,24.562652,0 118.093403,24.563043,0 118.093229,24.56329,0 118.093134,24.563468,0 118.093038,24.563524,0 118.093038,24.563524,0 118.093312,24.563685,0 118.093312,24.563685,0 118.093889,24.564093,0 118.094136,24.564253,0 118.094136,24.564253,0 118.094319,24.56431,0 118.095074,24.564705,0 118.095074,24.564705,0 118.095569,24.56497,0 118.095747,24.565039,0 118.096441,24.565252,0 118.096441,24.565252,0 118.096493,24.565425,0 118.096576,24.565707,0 118.096667,24.565885,0 118.096745,24.565994,0 118.097266,24.566667,0 118.097413,24.566823,0 118.097852,24.567214,0 118.097852,24.567214,0 118.097951,24.56737,0 118.098051,24.567674,0 118.09822,24.568099,0 118.098325,24.568455,0 118.098325,24.568455,0 118.098481,24.569262,0 118.098481,24.569262,0 118.098498,24.569358,0 118.098498,24.569358,0 118.098576,24.569978,0 118.098576,24.569978,0 118.098624,24.570365,0 118.098624,24.570365,0 118.098711,24.570942,0 118.098711,24.570942,0 118.098841,24.571806,0 118.098841,24.571806,0 118.098906,24.572244,0 118.098906,24.572244,0 118.099583,24.572244,0 118.099583,24.572244,0 118.10013,24.572253,0 118.10013,24.572253,0 118.100747,24.572253,0 118.100747,24.572253,0 118.101176,24.572253,0 118.101176,24.572253,0 118.101389,24.572253,0 118.101389,24.572253,0 118.101771,24.572253,0 118.101771,24.572253,0 118.103025,24.572266,0 118.103138,24.572266,0 118.103138,24.572266,0 118.103351,24.572266,0 118.103351,24.572266,0 118.103142,24.572266,0 118.103142,24.572266,0 118.10303,24.572266,0 118.101775,24.572257,0 118.101775,24.572257,0 118.101393,24.572257,0 118.101393,24.572257,0 118.101181,24.572257,0 118.101181,24.572257,0 118.100751,24.572257,0 118.100751,24.572257,0 118.100135,24.572257,0 118.100135,24.572257,0 118.099583,24.572248,0 118.099583,24.572248,0 118.098911,24.572248,0 118.098906,24.572244,0 118.098845,24.57181,0 118.098845,24.57181,0 118.098715,24.570946,0 118.098715,24.570946,0 118.098628,24.570369,0 118.098628,24.570369,0 118.098581,24.569983,0 118.098581,24.569983,0 118.098503,24.569362,0 118.098503,24.569362,0 118.098485,24.569266,0 118.098485,24.569266,0 118.098329,24.568459,0 118.098325,24.568455,0 118.097669,24.568459,0 118.097669,24.568459,0 118.097083,24.568451,0 118.097083,24.568451,0 118.096484,24.568407,0 118.096484,24.568407,0 118.096306,24.568338,0 118.096181,24.56826,0 118.096181,24.56826,0 118.096059,24.568173,0 118.095556,24.567717,0 118.095556,24.567717,0 118.095477,24.567648,0 118.095477,24.567648,0 118.095165,24.56737,0 118.095165,24.56737,0 118.095056,24.567279,0 118.095056,24.567279,0 118.094839,24.567105,0 118.094727,24.566997,0 118.09451,24.566836,0 118.094184,24.56674,0 118.094184,24.56674,0 118.093967,24.566693,0 118.093967,24.566693,0 118.093485,24.566567,0 118.092891,24.566385,0 118.092891,24.566385,0 118.092795,24.566354,0 118.092791,24.56635,0 118.092444,24.56638,0 118.092444,24.56638,0 118.092283,24.566415,0 118.092201,24.566415,0 118.092196,24.566411,0 118.091853,24.565868,0 118.09168,24.565608,0 118.091675,24.565603,0 118.091571,24.565564,0 118.091393,24.565625,0 118.091285,24.565638,0 118.091285,24.565638,0 118.091224,24.565603,0 118.09122,24.565599,0 118.090933,24.565516,0 118.090929,24.565512,0 118.090929,24.56533,0 118.090929,24.56533,0 118.090638,24.565334,0 118.090638,24.565334,0 118.090382,24.565313,0 118.090378,24.565308,0 118.090369,24.565213,0 118.090308,24.565117,0 118.090208,24.565039,0 118.090109,24.564991,0 118.090104,24.564987,0 118.089939,24.565013,0 118.089939,24.565013,0 118.089601,24.565091,0 118.089596,24.565091,0 118.089484,24.564965,0 118.089188,24.564162,0 118.089184,24.564158,0 118.089288,24.564102,0 118.089392,24.563993,0 118.089505,24.563832,0 118.089549,24.563754,0</coordinates></LineString></Placemark>
</Folder>
<Folder><name>Day2 山海环岛：植物园→厦大→环岛路 (2026-09-19)</name>
<Placemark><name>厦门园林植物园</name><description>西门进+观光车；雨林喷雾8:00-9:30/15:00-16:30</description><Point><coordinates>118.109277,24.447728,0</coordinates></Point></Placemark>
<Placemark><name>南普陀寺</name><description>东门进长津阁石阶20分钟到免费观景台；西门出接猫街</description><Point><coordinates>118.095336,24.440836,0</coordinates></Point></Placemark>
<Placemark><name>顶澳仔猫街</name><description>无真猫，涂鸦打卡地</description><Point><coordinates>118.091662,24.440171,0</coordinates></Point></Placemark>
<Placemark><name>沙坡尾艺术西区</name><description>彩虹墙在艺术西区2楼天台；拍照为主</description><Point><coordinates>118.087587,24.437609,0</coordinates></Point></Placemark>
<Placemark><name>白城沙滩</name><description>日落分神级；人较多</description><Point><coordinates>118.100875,24.432281,0</coordinates></Point></Placemark>
<Placemark><name>演武大桥观景台</name><description>拍世茂双子塔经典机位</description><Point><coordinates>118.087789,24.435421,0</coordinates></Point></Placemark>
<Placemark><name>环岛路（白城→黄厝）</name><description>可29路公交1元走全程；黄厝日出/日落均可</description><Point><coordinates>118.142325,24.431453,0</coordinates></Point></Placemark>
<Placemark><name>黄厝海滩</name><description>看日落最佳；附近海边咖啡馆多</description><Point><coordinates>118.228083,24.64782,0</coordinates></Point></Placemark>
<Placemark><name>Day2 山海环岛：植物园→厦大→环岛路 (2026-09-19) 路线</name><LineString><tessellate>1</tessellate><coordinates>118.108835,24.447604,0 118.108799,24.447712,0 118.108804,24.447782,0 118.108922,24.448254,0 118.108928,24.448383,0 118.108879,24.448576,0 118.10882,24.448646,0 118.108735,24.448683,0 118.108735,24.448683,0 118.10867,24.448667,0 118.108445,24.448501,0 118.108311,24.448442,0 118.10823,24.448431,0 118.108139,24.448447,0 118.10786,24.448549,0 118.107667,24.448667,0 118.107608,24.448737,0 118.107538,24.448893,0 118.107517,24.448978,0 118.107479,24.449032,0 118.107222,24.449102,0 118.107157,24.449096,0 118.107115,24.449075,0 118.107115,24.449075,0 118.106991,24.449107,0 118.106964,24.449177,0 118.106691,24.449386,0 118.106583,24.449488,0 118.106374,24.449826,0 118.10624,24.450014,0 118.106101,24.450137,0 118.105848,24.450239,0 118.10565,24.450287,0 118.10565,24.450287,0 118.105296,24.451086,0 118.105151,24.45129,0 118.105151,24.45129,0 118.104674,24.451355,0 118.10433,24.451365,0 118.104083,24.451323,0 118.104083,24.451323,0 118.103644,24.450748,0 118.103418,24.450507,0 118.103273,24.450325,0 118.103204,24.450212,0 118.103145,24.450062,0 118.103145,24.449992,0 118.103161,24.449928,0 118.103499,24.44945,0 118.10352,24.449375,0 118.103526,24.449252,0 118.10351,24.449155,0 118.103311,24.448533,0 118.103225,24.448431,0 118.103139,24.448394,0 118.103053,24.448388,0 118.103027,24.448394,0 118.102882,24.448447,0 118.10249,24.448667,0 118.102356,24.448678,0 118.102233,24.44864,0 118.102233,24.44864,0 118.102195,24.448624,0 118.10212,24.448538,0 118.10205,24.448378,0 118.10205,24.4482,0 118.10211,24.447943,0 118.102115,24.447852,0 118.102099,24.447771,0 118.10204,24.447685,0 118.10204,24.447685,0 118.10204,24.4476,0 118.102018,24.447562,0 118.10131,24.447095,0 118.101262,24.447047,0 118.101267,24.446929,0 118.101369,24.446693,0 118.10138,24.446618,0 118.10131,24.446478,0 118.101063,24.446125,0 118.101026,24.446039,0 118.101026,24.446039,0 118.100677,24.44621,0 118.100634,24.446216,0 118.10057,24.446205,0 118.10042,24.446092,0 118.100286,24.446135,0 118.100232,24.446156,0 118.100168,24.446156,0 118.100114,24.44613,0 118.099749,24.445631,0 118.099658,24.445502,0 118.09947,24.445379,0 118.099234,24.445266,0 118.099234,24.445266,0 118.099084,24.445073,0 118.098918,24.444896,0 118.098859,24.44458,0 118.09881,24.444247,0 118.098741,24.444097,0 118.098649,24.443941,0 118.098435,24.44378,0 118.098338,24.443753,0 118.09821,24.443807,0 118.098172,24.44378,0 118.098129,24.443668,0 118.097936,24.443475,0 118.097871,24.443179,0 118.09755,24.442847,0 118.09755,24.442847,0 118.097416,24.442847,0 118.097346,24.442815,0 118.097324,24.442729,0 118.097373,24.442584,0 118.097206,24.442391,0 118.097136,24.442337,0 118.097131,24.44231,0 118.097174,24.442241,0 118.097217,24.442208,0 118.097351,24.442171,0 118.097641,24.442058,0 118.097936,24.441951,0 118.098043,24.441908,0 118.098065,24.441892,0 118.098081,24.441806,0 118.098065,24.44179,0 118.097893,24.441693,0 118.097775,24.441666,0 118.097635,24.441613,0 118.097501,24.441591,0 118.097383,24.441618,0 118.097281,24.441645,0 118.09719,24.441656,0 118.097051,24.44142,0 118.096922,24.441205,0 118.096815,24.441034,0 118.096702,24.440846,0 118.096595,24.440669,0 118.096595,24.440669,0 118.096193,24.440835,0 118.095973,24.440953,0 118.095871,24.441007,0 118.095731,24.441066,0 118.095661,24.441098,0 118.095538,24.441146,0 118.095538,24.441146,0 118.095431,24.440937,0 118.095345,24.440846,0 118.095333,24.440838,0 118.095168,24.440723,0 118.095168,24.440723,0 118.095232,24.440894,0 118.095254,24.44098,0 118.095254,24.44098,0 118.09527,24.441082,0 118.095265,24.441296,0 118.095227,24.441785,0 118.095216,24.442096,0 118.095307,24.443185,0 118.095275,24.444316,0 118.095286,24.444467,0 118.095302,24.44458,0 118.095307,24.444612,0 118.095388,24.444805,0 118.09556,24.445127,0 118.096144,24.446076,0 118.096144,24.446076,0 118.096198,24.446242,0 118.09623,24.446527,0 118.096209,24.446768,0 118.09608,24.447122,0 118.095484,24.448474,0 118.095415,24.448603,0 118.095281,24.448764,0 118.094685,24.449273,0 118.094551,24.449434,0 118.094465,24.449574,0 118.094358,24.449788,0 118.094197,24.450105,0 118.094106,24.450309,0 118.094052,24.45048,0 118.094041,24.450663,0 118.094073,24.450947,0 118.094127,24.451215,0 118.094277,24.451736,0 118.094299,24.45187,0 118.094304,24.452074,0 118.094283,24.452191,0 118.094235,24.452336,0 118.094175,24.452438,0 118.094106,24.452524,0 118.093961,24.452669,0 118.093773,24.45291,0 118.093709,24.453023,0 118.093634,24.453195,0 118.093591,24.453415,0 118.093612,24.45372,0 118.093612,24.453822,0 118.093585,24.453983,0 118.093548,24.454112,0 118.093456,24.454278,0 118.093188,24.45453,0 118.092668,24.454874,0 118.092443,24.455035,0 118.092357,24.455094,0 118.091933,24.455378,0 118.091622,24.455566,0 118.091413,24.455689,0 118.09137,24.455711,0 118.091102,24.455898,0 118.090817,24.456075,0 118.090635,24.456151,0 118.089996,24.456354,0 118.089852,24.456301,0 118.08975,24.456006,0 118.089621,24.455646,0 118.089583,24.455566,0 118.089406,24.45518,0 118.089251,24.454927,0 118.088988,24.454514,0 118.088843,24.454353,0 118.088602,24.454085,0 118.088478,24.453962,0 118.088328,24.453801,0 118.088189,24.453661,0 118.087905,24.453383,0 118.087497,24.45297,0 118.087298,24.452776,0 118.086993,24.452465,0 118.086917,24.452379,0 118.086805,24.452251,0 118.086418,24.451891,0 118.086236,24.451757,0 118.086091,24.451671,0 118.085979,24.451612,0 118.085775,24.451526,0 118.085608,24.451478,0 118.085104,24.451376,0 118.084176,24.451205,0 118.084144,24.451199,0 118.083838,24.451124,0 118.08365,24.451054,0 118.083382,24.450958,0 118.083345,24.450824,0 118.083972,24.449568,0 118.083983,24.449541,0 118.084069,24.44929,0 118.084165,24.448506,0 118.084267,24.447734,0 118.084348,24.44753,0 118.084418,24.447412,0 118.084605,24.447138,0 118.084713,24.446993,0 118.084809,24.446854,0 118.084916,24.446704,0 118.085823,24.445438,0 118.086038,24.445159,0 118.08607,24.445116,0 118.086118,24.445051,0 118.086333,24.444762,0 118.086494,24.44458,0 118.086536,24.444536,0 118.086655,24.444445,0 118.086976,24.444263,0 118.087245,24.444107,0 118.087529,24.44393,0 118.08761,24.443871,0 118.087717,24.443786,0 118.087754,24.443753,0 118.087883,24.443651,0 118.088575,24.443024,0 118.088886,24.442713,0 118.088966,24.442621,0 118.08902,24.442595,0 118.089251,24.442337,0 118.089525,24.442037,0 118.089836,24.441758,0 118.090367,24.441253,0 118.090555,24.441066,0 118.090748,24.440905,0 118.090951,24.440749,0 118.091171,24.44061,0 118.091633,24.440347,0 118.09174,24.440285,0 118.09174,24.440285,0 118.091783,24.440261,0 118.091783,24.440261,0 118.091944,24.440186,0 118.092094,24.440148,0 118.09248,24.440143,0 118.093097,24.440181,0 118.093403,24.440197,0 118.093403,24.440197,0 118.093564,24.44009,0 118.093623,24.44003,0 118.093618,24.439778,0 118.093618,24.439778,0 118.093553,24.439408,0 118.093532,24.439306,0 118.093526,24.439269,0 118.09343,24.438684,0 118.093414,24.438577,0 118.093365,24.438003,0 118.093323,24.437627,0 118.093242,24.437257,0 118.093129,24.436946,0 118.093119,24.436919,0 118.092968,24.436619,0 118.092716,24.436211,0 118.092502,24.435937,0 118.092475,24.435911,0 118.092169,24.435524,0 118.092169,24.435524,0 118.091729,24.435776,0 118.091483,24.435916,0 118.091365,24.435975,0 118.091214,24.43605,0 118.090667,24.436329,0 118.090072,24.436613,0 118.089996,24.436651,0 118.08983,24.436731,0 118.089546,24.436871,0 118.089197,24.437048,0 118.088966,24.43716,0 118.088763,24.437284,0 118.088655,24.437364,0 118.088366,24.4376,0 118.088135,24.437718,0 118.088135,24.437718,0 118.088071,24.43767,0 118.087899,24.437498,0 118.087867,24.437488,0 118.087679,24.437643,0 118.087625,24.437659,0 118.087575,24.437621,0 118.087575,24.437621,0 118.087625,24.437659,0 118.087679,24.437643,0 118.087867,24.437488,0 118.087899,24.437498,0 118.088071,24.43767,0 118.088135,24.437718,0 118.088135,24.437718,0 118.088366,24.4376,0 118.088366,24.4376,0 118.087765,24.437139,0 118.087454,24.436903,0 118.0874,24.436865,0 118.0874,24.436865,0 118.087803,24.436329,0 118.087803,24.436329,0 118.087647,24.4362,0 118.087625,24.436146,0 118.087636,24.436115,0 118.087743,24.435948,0 118.087856,24.435819,0 118.088999,24.434811,0 118.08924,24.434591,0 118.08924,24.434591,0 118.089809,24.435068,0 118.090034,24.435261,0 118.090034,24.435261,0 118.090216,24.435122,0 118.090495,24.434929,0 118.09137,24.434344,0 118.09137,24.434344,0 118.091246,24.434156,0 118.091118,24.433974,0 118.091118,24.433974,0 118.09086,24.433593,0 118.090812,24.433518,0 118.090463,24.433003,0 118.0902,24.432686,0 118.090125,24.432622,0 118.089996,24.432542,0 118.089884,24.432493,0 118.089739,24.432466,0 118.089589,24.432488,0 118.089487,24.43251,0 118.08938,24.432585,0 118.089321,24.432676,0 118.089299,24.432772,0 118.08931,24.432901,0 118.089353,24.432992,0 118.08946,24.433105,0 118.089557,24.433153,0 118.089664,24.433175,0 118.089798,24.433175,0 118.090066,24.43311,0 118.090345,24.432955,0 118.090635,24.432821,0 118.09107,24.43266,0 118.091783,24.432418,0 118.09218,24.432316,0 118.092464,24.432257,0 118.092866,24.432198,0 118.096482,24.43185,0 118.098623,24.431646,0 118.098869,24.431635,0 118.099068,24.431646,0 118.09925,24.431678,0 118.099427,24.431732,0 118.09961,24.431807,0 118.099771,24.431898,0 118.099996,24.432064,0 118.099996,24.432064,0 118.100334,24.432354,0 118.100484,24.432456,0 118.100655,24.432542,0 118.100738,24.432573,0 118.100738,24.432573,0 118.100822,24.432606,0 118.100897,24.432628,0 118.100983,24.432649,0 118.101176,24.432676,0 118.101348,24.432681,0 118.101541,24.432665,0 118.101954,24.432579,0 118.102238,24.432504,0 118.102753,24.432333,0 118.103027,24.43222,0 118.103038,24.432215,0 118.103665,24.431946,0 118.104126,24.431748,0 118.104706,24.431544,0 118.10499,24.431458,0 118.105156,24.431415,0 118.105248,24.431388,0 118.105468,24.431324,0 118.105628,24.431281,0 118.106041,24.431174,0 118.106095,24.431152,0 118.106433,24.431083,0 118.107082,24.430879,0 118.107635,24.43067,0 118.107849,24.430589,0 118.108407,24.430337,0 118.108831,24.430171,0 118.109008,24.430112,0 118.109475,24.42994,0 118.110135,24.429779,0 118.110322,24.429731,0 118.110644,24.429575,0 118.110773,24.429527,0 118.112371,24.42927,0 118.112838,24.429194,0 118.113203,24.429141,0 118.113589,24.429087,0 118.114421,24.428915,0 118.114426,24.429017,0 118.114024,24.429114,0 118.112178,24.429425,0 118.111519,24.429532,0 118.110773,24.429672,0 118.110682,24.429704,0 118.110161,24.429843,0 118.109485,24.43002,0 118.109185,24.430133,0 118.108461,24.430444,0 118.107656,24.430804,0 118.107179,24.430975,0 118.106675,24.431131,0 118.105827,24.431356,0 118.105505,24.431469,0 118.105264,24.431555,0 118.105076,24.431614,0 118.104851,24.431689,0 118.104411,24.431834,0 118.104116,24.431952,0 118.103837,24.432075,0 118.103027,24.432413,0 118.102946,24.432445,0 118.102662,24.432552,0 118.102345,24.432644,0 118.102345,24.432644,0 118.101739,24.43281,0 118.101466,24.43288,0 118.101283,24.432923,0 118.101053,24.432966,0 118.100902,24.432976,0 118.100763,24.432966,0 118.100613,24.432939,0 118.100436,24.432885,0 118.100286,24.432815,0 118.100168,24.43274,0 118.100082,24.43267,0 118.099996,24.432585,0 118.09991,24.432456,0 118.099808,24.432198,0 118.099433,24.431903,0 118.099309,24.431839,0 118.09918,24.431785,0 118.09902,24.431748,0 118.098859,24.431732,0 118.09755,24.431828,0 118.096396,24.431936,0 118.092861,24.4323,0 118.092861,24.4323,0 118.092486,24.432354,0 118.092137,24.432429,0 118.091788,24.432526,0 118.091338,24.432676,0 118.091075,24.432778,0 118.090673,24.432976,0 118.090377,24.433143,0 118.090061,24.433341,0 118.089793,24.43354,0 118.089728,24.433593,0 118.089525,24.43376,0 118.088779,24.434462,0 118.087788,24.43542,0 118.087788,24.43542,0 118.087786,24.435422,0 118.085952,24.437176,0 118.085716,24.437429,0 118.085276,24.437971,0 118.085013,24.438335,0 118.084788,24.438689,0 118.084552,24.439097,0 118.084031,24.440132,0 118.084031,24.440132,0 118.083999,24.440256,0 118.083865,24.440615,0 118.083838,24.440701,0 118.083833,24.440787,0 118.083833,24.440873,0 118.083865,24.441018,0 118.083924,24.441146,0 118.083994,24.441253,0 118.08408,24.441355,0 118.084283,24.441554,0 118.084391,24.441635,0 118.084605,24.441779,0 118.084696,24.441838,0 118.085238,24.442139,0 118.085286,24.442165,0 118.085405,24.442262,0 118.085689,24.442391,0 118.085979,24.44252,0 118.085979,24.44252,0 118.086236,24.442584,0 118.086424,24.442686,0 118.087126,24.443131,0 118.08732,24.443265,0 118.087685,24.443544,0 118.087668,24.443587,0 118.087615,24.4437,0 118.087572,24.443732,0 118.087465,24.443786,0 118.087465,24.443786,0 118.0874,24.44371,0 118.087051,24.443426,0 118.086247,24.442858,0 118.086123,24.442729,0 118.086005,24.442659,0 118.085887,24.442589,0 118.085887,24.442589,0 118.085678,24.442482,0 118.085528,24.442412,0 118.085077,24.442208,0 118.084611,24.442015,0 118.084385,24.441903,0 118.084214,24.441806,0 118.084031,24.441672,0 118.083886,24.441543,0 118.083779,24.44142,0 118.083672,24.441253,0 118.083597,24.441103,0 118.083548,24.440942,0 118.083522,24.440787,0 118.083516,24.440605,0 118.083527,24.44046,0 118.083565,24.440288,0 118.083618,24.440138,0 118.083731,24.439923,0 118.084262,24.438995,0 118.084616,24.4384,0 118.084782,24.438169,0 118.084959,24.437986,0 118.085077,24.437885,0 118.085469,24.437413,0 118.086129,24.43678,0 118.087228,24.435728,0 118.087454,24.435514,0 118.087679,24.435304,0 118.088173,24.434875,0 118.088639,24.43443,0 118.089058,24.434033,0 118.089519,24.43362,0 118.089557,24.433593,0 118.089836,24.433379,0 118.090152,24.433153,0 118.090393,24.433014,0 118.090635,24.432821,0 118.09107,24.43266,0 118.091783,24.432418,0 118.09218,24.432316,0 118.092464,24.432257,0 118.092866,24.432198,0 118.096482,24.43185,0 118.098623,24.431646,0 118.098869,24.431635,0 118.099068,24.431646,0 118.09925,24.431678,0 118.099427,24.431732,0 118.09961,24.431807,0 118.099771,24.431898,0 118.099996,24.432064,0 118.099996,24.432064,0 118.100334,24.432354,0 118.100484,24.432456,0 118.100656,24.432542,0 118.100822,24.432606,0 118.100897,24.432628,0 118.100983,24.432649,0 118.101176,24.432676,0 118.101348,24.432681,0 118.101541,24.432665,0 118.101954,24.432579,0 118.102238,24.432504,0 118.102753,24.432333,0 118.103027,24.43222,0 118.103038,24.432215,0 118.103665,24.431946,0 118.104126,24.431748,0 118.104706,24.431544,0 118.10499,24.431458,0 118.105156,24.431415,0 118.105248,24.431388,0 118.105468,24.431324,0 118.105628,24.431281,0 118.106041,24.431174,0 118.106095,24.431152,0 118.106433,24.431083,0 118.107082,24.430879,0 118.107635,24.43067,0 118.107849,24.430589,0 118.108407,24.430337,0 118.108831,24.430171,0 118.109008,24.430112,0 118.109475,24.42994,0 118.110135,24.429779,0 118.110322,24.429731,0 118.110644,24.429575,0 118.110773,24.429527,0 118.112371,24.42927,0 118.112838,24.429194,0 118.113203,24.429141,0 118.113589,24.429087,0 118.114421,24.428915,0 118.114925,24.428765,0 118.115247,24.428679,0 118.115327,24.428658,0 118.1158,24.428508,0 118.116491,24.428277,0 118.117103,24.428121,0 118.117629,24.428036,0 118.118203,24.427993,0 118.118578,24.427993,0 118.1192,24.427971,0 118.119689,24.427891,0 118.119758,24.427875,0 118.120021,24.427805,0 118.120306,24.427708,0 118.120606,24.427574,0 118.120863,24.42744,0 118.121464,24.427054,0 118.122242,24.426518,0 118.122612,24.426233,0 118.123052,24.425917,0 118.123149,24.425852,0 118.123921,24.425278,0 118.124189,24.425166,0 118.125,24.424726,0 118.125123,24.424667,0 118.125251,24.424597,0 118.125911,24.424366,0 118.126485,24.424238,0 118.127285,24.424136,0 118.12802,24.42413,0 118.12817,24.424136,0 118.128272,24.424136,0 118.128985,24.424136,0 118.129178,24.424136,0 118.129221,24.424136,0 118.12994,24.424136,0 118.130305,24.424125,0 118.130407,24.424114,0 118.130718,24.424077,0 118.131126,24.424001,0 118.131523,24.423905,0 118.131844,24.423808,0 118.133947,24.422998,0 118.134553,24.422811,0 118.134929,24.42273,0 118.135358,24.422693,0 118.135594,24.422693,0 118.135916,24.422709,0 118.136335,24.422768,0 118.13693,24.422934,0 118.137155,24.423015,0 118.137482,24.423175,0 118.13767,24.423277,0 118.138062,24.423535,0 118.138287,24.423723,0 118.138657,24.424109,0 118.138786,24.424259,0 118.139076,24.42472,0 118.139167,24.424908,0 118.139296,24.425219,0 118.139639,24.426233,0 118.14024,24.428084,0 118.140299,24.428282,0 118.140497,24.428749,0 118.140545,24.428851,0 118.140567,24.428905,0 118.140798,24.429377,0 118.140932,24.429581,0 118.141103,24.429849,0 118.141291,24.430096,0 118.141527,24.430375,0 118.142021,24.430873,0 118.142396,24.431185,0 118.142965,24.431581,0 118.142718,24.431705,0 118.142326,24.431453,0 118.142325,24.431452,0 118.142064,24.431254,0 118.141656,24.43089,0 118.141441,24.430664,0 118.140905,24.429999,0 118.14061,24.429559,0 118.140572,24.429468,0 118.14046,24.429205,0 118.140385,24.429023,0 118.14024,24.428653,0 118.140073,24.428288,0 118.140299,24.428282,0 118.140497,24.428749,0 118.140545,24.428851,0 118.140567,24.428905,0 118.140798,24.429377,0 118.140932,24.429581,0 118.141103,24.429849,0 118.141291,24.430096,0 118.141527,24.430375,0 118.142021,24.430873,0 118.142396,24.431185,0 118.142965,24.431581,0 118.143405,24.431812,0 118.143528,24.431871,0 118.143759,24.431984,0 118.144091,24.432118,0 118.14451,24.432268,0 118.145062,24.432418,0 118.146972,24.432831,0 118.147122,24.432864,0 118.147444,24.43295,0 118.14783,24.433078,0 118.148179,24.433218,0 118.148501,24.433368,0 118.148587,24.433416,0 118.148656,24.433454,0 118.148893,24.433593,0 118.149107,24.433727,0 118.149365,24.43391,0 118.149622,24.434119,0 118.149912,24.434387,0 118.151033,24.435487,0 118.151097,24.435546,0 118.151441,24.435921,0 118.152658,24.437123,0 118.153361,24.437777,0 118.153441,24.437981,0 118.153061,24.438528,0 118.152878,24.438823,0 118.152706,24.439108,0 118.151795,24.440626,0 118.15165,24.440873,0 118.151537,24.441098,0 118.151441,24.441345,0 118.151366,24.441629,0 118.151328,24.441838,0 118.151306,24.442096,0 118.151333,24.442525,0 118.151441,24.442943,0 118.151478,24.443093,0 118.151532,24.443287,0 118.151859,24.44458,0 118.151902,24.444756,0 118.152052,24.445293,0 118.152186,24.445695,0 118.15232,24.445942,0 118.152546,24.446269,0 118.152851,24.44658,0 118.153645,24.447321,0 118.154032,24.447712,0 118.154214,24.447948,0 118.154316,24.448109,0 118.154836,24.448957,0 118.155056,24.44929,0 118.155056,24.44929,0 118.155271,24.449568,0 118.15541,24.449719,0 118.155603,24.449901,0 118.155818,24.450078,0 118.156038,24.450234,0 118.156317,24.450411,0 118.156725,24.450604,0 118.156901,24.450711,0 118.157561,24.450931,0 118.15865,24.451317,0 118.158988,24.451398,0 118.158988,24.451398,0 118.159337,24.451457,0 118.159857,24.451467,0 118.160254,24.451435,0 118.160581,24.451387,0 118.160823,24.451344,0 118.161134,24.451285,0 118.161692,24.451188,0 118.162132,24.451146,0 118.162438,24.45114,0 118.163044,24.451167,0 118.164149,24.451328,0 118.164369,24.451328,0 118.164696,24.451301,0 118.165163,24.451215,0 118.165404,24.451194,0 118.165876,24.451205,0 118.166161,24.451247,0 118.166423,24.451344,0 118.166713,24.451505,0 118.166836,24.451591,0 118.167175,24.451875,0 118.167722,24.452288,0 118.167845,24.452374,0 118.167915,24.452417,0 118.168119,24.452562,0 118.168676,24.452862,0 118.168945,24.452996,0 118.168955,24.453001,0 118.169277,24.453152,0 118.169889,24.453383,0 118.170098,24.453474,0 118.17071,24.453796,0 118.171203,24.45416,0 118.171386,24.454327,0 118.171477,24.454423,0 118.171477,24.454423,0 118.17167,24.45452,0 118.171756,24.454595,0 118.172464,24.455281,0 118.172796,24.455566,0 118.172893,24.455646,0 118.173113,24.455786,0 118.17351,24.456043,0 118.174003,24.45637,0 118.174416,24.456574,0 118.174899,24.456746,0 118.175843,24.457014,0 118.176079,24.4571,0 118.176278,24.457191,0 118.176278,24.457191,0 118.176702,24.457454,0 118.176932,24.457642,0 118.177099,24.457803,0 118.177265,24.458006,0 118.177404,24.458216,0 118.177533,24.458441,0 118.17764,24.458683,0 118.177721,24.458919,0 118.177775,24.459144,0 118.17807,24.460732,0 118.178724,24.464245,0 118.178853,24.464857,0 118.178853,24.464857,0 118.17896,24.465179,0 118.17911,24.465554,0 118.179234,24.465806,0 118.179384,24.466059,0 118.179743,24.466552,0 118.180162,24.46711,0 118.180425,24.467502,0 118.180875,24.468236,0 118.18117,24.468805,0 118.181342,24.469181,0 118.181556,24.469685,0 118.181755,24.470232,0 118.182318,24.471895,0 118.182452,24.472217,0 118.182511,24.472356,0 118.182699,24.472802,0 118.183,24.473408,0 118.184459,24.476273,0 118.184598,24.476519,0 118.185118,24.477538,0 118.185419,24.478134,0 118.185805,24.478906,0 118.187001,24.481272,0 118.1872,24.481658,0 118.187404,24.482093,0 118.187618,24.482736,0 118.18771,24.483096,0 118.187763,24.483348,0 118.187822,24.483766,0 118.188117,24.486272,0 118.188171,24.486647,0 118.188171,24.48749,0 118.18816,24.487736,0 118.188176,24.488224,0 118.188198,24.488525,0 118.188208,24.488611,0 118.188262,24.488927,0 118.188364,24.489405,0 118.188439,24.489898,0 118.188552,24.490746,0 118.188568,24.491014,0 118.188568,24.49132,0 118.188471,24.492087,0 118.188369,24.492613,0 118.188251,24.492816,0 118.188214,24.492875,0 118.188198,24.492902,0 118.188096,24.493079,0 118.188042,24.493235,0 118.187999,24.493492,0 118.187956,24.493776,0 118.187913,24.494302,0 118.187935,24.49508,0 118.187924,24.495643,0 118.187945,24.495853,0 118.187994,24.496131,0 118.187994,24.496131,0 118.187913,24.496931,0 118.187972,24.497258,0 118.188042,24.497607,0 118.18809,24.497741,0 118.188208,24.498052,0 118.188326,24.498352,0 118.188761,24.499511,0 118.188857,24.499758,0 118.189051,24.50023,0 118.189292,24.500949,0 118.189313,24.501002,0 118.189415,24.501319,0 118.189501,24.501603,0 118.189619,24.502183,0 118.189673,24.502472,0 118.189716,24.503363,0 118.189716,24.503674,0 118.189657,24.504393,0 118.189641,24.504596,0 118.18949,24.505433,0 118.189351,24.505905,0 118.189292,24.506115,0 118.189067,24.506656,0 118.189029,24.506758,0 118.188696,24.507359,0 118.188342,24.507923,0 118.188181,24.508137,0 118.187828,24.508571,0 118.187446,24.50899,0 118.186867,24.509521,0 118.186063,24.510208,0 118.185714,24.510497,0 118.185135,24.510986,0 118.185135,24.510986,0 118.185006,24.511286,0 118.184823,24.511774,0 118.184823,24.511774,0 118.184668,24.512085,0 118.184587,24.512273,0 118.184545,24.512429,0 118.184528,24.512616,0 118.184539,24.512686,0 118.184555,24.51274,0 118.184614,24.512863,0 118.184968,24.513448,0 118.185016,24.513577,0 118.186143,24.515089,0 118.186143,24.515089,0 118.186921,24.516039,0 118.188514,24.517873,0 118.189437,24.518893,0 118.190917,24.520588,0 118.191701,24.521484,0 118.192988,24.522959,0 118.194297,24.524391,0 118.196083,24.526242,0 118.196845,24.526993,0 118.197971,24.528045,0 118.199398,24.5293,0 118.20097,24.530689,0 118.201909,24.531574,0 118.2028,24.53247,0 118.202966,24.532642,0 118.204028,24.533768,0 118.212713,24.543456,0 118.21289,24.543655,0 118.215159,24.546181,0 118.21723,24.54852,0 118.21774,24.549132,0 118.218936,24.550639,0 118.2193,24.551128,0 118.220191,24.552393,0 118.220561,24.552946,0 118.220958,24.553552,0 118.221505,24.554443,0 118.222095,24.555419,0 118.22253,24.556197,0 118.223265,24.557624,0 118.223855,24.558809,0 118.224246,24.559518,0 118.224606,24.560129,0 118.225346,24.561256,0 118.225646,24.561674,0 118.225947,24.562066,0 118.226081,24.562221,0 118.226161,24.562318,0 118.226639,24.562913,0 118.227706,24.564061,0 118.228141,24.564496,0 118.22849,24.564812,0 118.228908,24.565123,0 118.229235,24.56537,0 118.2293,24.565429,0 118.22938,24.565499,0 118.229852,24.565928,0 118.230888,24.566716,0 118.231644,24.567312,0 118.23239,24.567945,0 118.232449,24.568004,0 118.23276,24.568288,0 118.233452,24.568953,0 118.234707,24.570295,0 118.234863,24.570472,0 118.235088,24.570745,0 118.235732,24.571545,0 118.236998,24.573293,0 118.237792,24.574495,0 118.238113,24.574994,0 118.238602,24.575836,0 118.238838,24.576281,0 118.238902,24.576415,0 118.239305,24.577268,0 118.239573,24.577923,0 118.23975,24.578432,0 118.23997,24.579151,0 118.240216,24.580138,0 118.240281,24.580514,0 118.240308,24.580648,0 118.240458,24.581544,0 118.240533,24.582354,0 118.240581,24.582949,0 118.240603,24.583625,0 118.240597,24.584119,0 118.240565,24.585471,0 118.240506,24.586613,0 118.240452,24.587402,0 118.240426,24.587847,0 118.240259,24.590647,0 118.240184,24.592101,0 118.239787,24.598388,0 118.239487,24.603291,0 118.23946,24.603865,0 118.239422,24.604584,0 118.239396,24.605512,0 118.239406,24.606864,0 118.239471,24.609375,0 118.239524,24.611923,0 118.239551,24.612995,0 118.239567,24.613612,0 118.239605,24.615323,0 118.239685,24.619052,0 118.239696,24.620232,0 118.239691,24.620361,0 118.239642,24.621273,0 118.2396,24.621798,0 118.239487,24.622571,0 118.239294,24.623526,0 118.237529,24.631245,0 118.237507,24.631347,0 118.237041,24.633332,0 118.23688,24.633911,0 118.236681,24.634566,0 118.236493,24.635124,0 118.235281,24.63861,0 118.234863,24.639871,0 118.23483,24.639968,0 118.23483,24.639968,0 118.234852,24.640343,0 118.234375,24.641754,0 118.234176,24.642333,0 118.233768,24.643513,0 118.233683,24.643744,0 118.233602,24.643975,0 118.233543,24.644141,0 118.233248,24.645026,0 118.233205,24.645166,0 118.233092,24.645498,0 118.232964,24.645863,0 118.232711,24.646603,0 118.23247,24.647328,0 118.232368,24.64766,0 118.232127,24.648594,0 118.232127,24.648594,0 118.232154,24.64868,0 118.232218,24.648755,0 118.23232,24.648835,0 118.232433,24.648862,0 118.232556,24.648883,0 118.233479,24.649012,0 118.233752,24.649093,0 118.233709,24.649173,0 118.233017,24.649093,0 118.232223,24.649001,0 118.231027,24.648867,0 118.230265,24.648792,0 118.230094,24.648824,0 118.230003,24.648889,0 118.229906,24.649012,0 118.229788,24.649211,0 118.229745,24.649334,0 118.229686,24.649313,0 118.229348,24.649184,0 118.228855,24.648948,0 118.228425,24.648765,0 118.228114,24.648636,0 118.227175,24.648256,0 118.227175,24.648256,0 118.22724,24.647966,0 118.227256,24.647939,0 118.227288,24.647923,0 118.227288,24.647923,0 118.227953,24.647789,0 118.228068,24.647765,0</coordinates></LineString></Placemark>
</Folder>
<Folder><name>Day3 鼓浪屿全日：码头→三大片区 (2026-09-20)</name>
<Placemark><name>东渡邮轮码头</name><description>提前到码头取票/刷码</description><Point><coordinates>118.077007,24.49397,0</coordinates></Point></Placemark>
<Placemark><name>日光岩</name><description>节假日排队严重，建议早去或傍晚</description><Point><coordinates>118.067310,24.442228,0</coordinates></Point></Placemark>
<Placemark><name>菽庄花园+钢琴博物馆</name><description>钢琴博物馆有免费演奏，卡好时间</description><Point><coordinates>118.069520,24.439035,0</coordinates></Point></Placemark>
<Placemark><name>鼓浪屿（全岛）</name><description>主码头东渡；船票小程序购；不要信路边拉客</description><Point><coordinates>118.066102,24.446214,0</coordinates></Point></Placemark>
<Placemark><name>八卦楼（风琴博物馆）</name><description>每天有管风琴演奏；有免费讲解</description><Point><coordinates>118.068263,24.447422,0</coordinates></Point></Placemark>
<Placemark><name>大德记沙滩+皓月园</name><description>退潮礁石注意防滑</description><Point><coordinates>118.075936,24.441099,0</coordinates></Point></Placemark>
<Placemark><name>Day3 鼓浪屿全日：码头→三大片区 (2026-09-20) 路线</name><LineString><tessellate>1</tessellate><coordinates>118.077005,24.493763,0 118.077326,24.493763,0 118.077326,24.493763,0 118.077083,24.492643,0 118.077083,24.492643,0 118.077062,24.492491,0 118.077062,24.492491,0 118.076936,24.491697,0 118.076936,24.491697,0 118.07691,24.491506,0 118.07691,24.491506,0 118.076797,24.490621,0 118.076797,24.490621,0 118.076793,24.490564,0 118.076793,24.490564,0 118.076658,24.489944,0 118.076658,24.489944,0 118.076402,24.488529,0 118.076367,24.48832,0 118.076367,24.48832,0 118.076324,24.48803,0 118.076324,24.48803,0 118.076159,24.48694,0 118.076159,24.48694,0 118.076137,24.486832,0 118.076137,24.486832,0 118.07602,24.486289,0 118.07602,24.486289,0 118.075959,24.48605,0 118.075833,24.485846,0 118.075833,24.485846,0 118.075573,24.48549,0 118.075573,24.48549,0 118.075234,24.485195,0 118.075234,24.485191,0 118.075291,24.485122,0 118.075217,24.485035,0 118.075156,24.484852,0 118.075187,24.484588,0 118.075239,24.484332,0 118.075282,24.484145,0 118.075286,24.484097,0 118.075286,24.484093,0 118.075378,24.484041,0 118.075447,24.483963,0 118.075447,24.483963,0 118.075577,24.483811,0 118.075577,24.483754,0 118.075577,24.483754,0 118.075577,24.48375,0 118.075729,24.483507,0 118.075729,24.483507,0 118.075885,24.48322,0 118.075885,24.48322,0 118.075951,24.483082,0 118.075951,24.483082,0 118.075994,24.482982,0 118.075994,24.482982,0 118.076011,24.482943,0 118.076011,24.482943,0 118.076094,24.48276,0 118.076094,24.48276,0 118.076133,24.482682,0 118.076133,24.482682,0 118.076224,24.482491,0 118.076224,24.482491,0 118.076319,24.482326,0 118.076319,24.482326,0 118.076471,24.482092,0 118.076632,24.481879,0 118.076632,24.481879,0 118.07684,24.481649,0 118.07684,24.481645,0 118.076515,24.481398,0 118.076515,24.481398,0 118.076315,24.481259,0 118.076311,24.481254,0 118.076302,24.481276,0 118.076289,24.481298,0 118.076289,24.481298,0 118.076168,24.48122,0 118.076029,24.481168,0 118.075859,24.481137,0 118.075729,24.481137,0 118.075204,24.481215,0 118.075143,24.481254,0 118.074996,24.481641,0 118.074952,24.481658,0 118.074701,24.481641,0 118.074701,24.481641,0 118.074605,24.481632,0 118.074601,24.481632,0 118.074141,24.481549,0 118.073472,24.481372,0 118.073472,24.481372,0 118.069614,24.480352,0 118.069288,24.48023,0 118.069288,24.48023,0 118.067318,24.479492,0 118.066632,24.479102,0 118.065946,24.478069,0 118.065777,24.477539,0 118.065538,24.47678,0 118.064896,24.472543,0 118.064019,24.466554,0 118.063971,24.466215,0 118.061137,24.460043,0 118.060477,24.459201,0 118.059084,24.457951,0 118.058767,24.457665,0 118.057092,24.455799,0 118.056979,24.455569,0 118.056332,24.454236,0 118.056133,24.453416,0 118.056133,24.453416,0 118.056024,24.452982,0 118.055877,24.451688,0 118.055946,24.450247,0 118.056011,24.450043,0 118.05671,24.448494,0 118.057517,24.44727,0 118.057626,24.447179,0 118.057626,24.447179,0 118.058628,24.446354,0 118.058628,24.44635,0 118.05878,24.446228,0 118.05878,24.446228,0 118.058893,24.446133,0 118.058893,24.446133,0 118.059028,24.446042,0 118.059028,24.446042,0 118.05908,24.446003,0 118.059405,24.445768,0 118.059405,24.445768,0 118.059505,24.445681,0 118.059505,24.445681,0 118.059531,24.445651,0 118.059531,24.445651,0 118.05967,24.445456,0 118.05967,24.445456,0 118.05974,24.445312,0 118.059761,24.4452,0 118.059753,24.445161,0 118.05964,24.445,0 118.059622,24.444931,0 118.059622,24.444878,0 118.059674,24.444727,0 118.059674,24.444727,0 118.059744,24.444583,0 118.059805,24.444453,0 118.059805,24.444453,0 118.059896,24.444253,0 118.059961,24.444023,0 118.059983,24.443798,0 118.059983,24.443559,0 118.059957,24.443451,0 118.059865,24.443247,0 118.059722,24.443016,0 118.059566,24.442856,0 118.059523,24.442786,0 118.059514,24.442721,0 118.059514,24.442582,0 118.059562,24.442448,0 118.059627,24.442361,0 118.059761,24.442248,0 118.059874,24.442187,0 118.059874,24.442187,0 118.059948,24.442153,0 118.059948,24.442153,0 118.060378,24.442018,0 118.060586,24.441927,0 118.060694,24.441914,0 118.060694,24.441914,0 118.061376,24.44194,0 118.061376,24.44194,0 118.061949,24.44197,0 118.061949,24.44197,0 118.062326,24.442014,0 118.062326,24.442014,0 118.062595,24.442431,0 118.062595,24.442431,0 118.062886,24.442539,0 118.062986,24.4426,0 118.062986,24.4426,0 118.063238,24.442669,0 118.06342,24.442669,0 118.063602,24.442756,0 118.063828,24.442921,0 118.063885,24.442951,0 118.06401,24.442969,0 118.064076,24.442956,0 118.064136,24.442908,0 118.064175,24.442856,0 118.064266,24.442595,0 118.064353,24.442504,0 118.06444,24.442435,0 118.064653,24.442322,0 118.064883,24.442227,0 118.064883,24.442227,0 118.065052,24.442183,0 118.065052,24.442183,0 118.065239,24.442153,0 118.065339,24.442157,0 118.065551,24.442205,0 118.065551,24.442205,0 118.065864,24.442283,0 118.065864,24.442283,0 118.066198,24.442114,0 118.066246,24.441975,0 118.06628,24.441675,0 118.06628,24.441675,0 118.066332,24.441523,0 118.06658,24.441215,0 118.06658,24.441207,0 118.066662,24.441172,0 118.066706,24.441137,0 118.066706,24.441133,0 118.067148,24.441098,0 118.067235,24.44115,0 118.067235,24.44115,0 118.067266,24.441172,0 118.06753,24.441211,0 118.067799,24.441215,0 118.067977,24.44125,0 118.068216,24.441328,0 118.068312,24.441328,0 118.068403,24.441376,0 118.068477,24.441428,0 118.068472,24.441428,0 118.068472,24.441476,0 118.06849,24.441493,0 118.06849,24.441493,0 118.068524,24.441532,0 118.06852,24.441623,0 118.068628,24.44197,0 118.068628,24.44197,0 118.068659,24.442044,0 118.068659,24.442044,0 118.068294,24.442122,0 118.06829,24.442122,0 118.068238,24.442235,0 118.068238,24.442383,0 118.068234,24.442383,0 118.068073,24.442387,0 118.068051,24.442409,0 118.068038,24.442452,0 118.067995,24.442478,0 118.06799,24.442478,0 118.06793,24.442474,0 118.06786,24.442444,0 118.067704,24.442444,0 118.067704,24.442444,0 118.067604,24.442452,0 118.067604,24.442452,0 118.067431,24.44247,0 118.067426,24.44247,0 118.067474,24.4424,0 118.067574,24.442344,0 118.067578,24.442318,0 118.067539,24.442296,0 118.067409,24.442313,0 118.067352,24.442313,0 118.0673,24.442235,0 118.067296,24.442231,0 118.067348,24.442309,0 118.067405,24.442313,0 118.067535,24.442296,0 118.067578,24.442313,0 118.067578,24.442339,0 118.067478,24.442396,0 118.067431,24.44247,0 118.067426,24.44247,0 118.0676,24.442457,0 118.0676,24.442457,0 118.0677,24.442448,0 118.0677,24.442448,0 118.067856,24.442444,0 118.067925,24.44247,0 118.06799,24.442478,0 118.06799,24.442478,0 118.068034,24.442457,0 118.068047,24.442413,0 118.068069,24.442391,0 118.068234,24.442387,0 118.068234,24.442383,0 118.068234,24.44224,0 118.06829,24.442127,0 118.06829,24.442122,0 118.068659,24.442049,0 118.068659,24.442044,0 118.068633,24.441975,0 118.068633,24.441975,0 118.06852,24.441628,0 118.068524,24.441536,0 118.068494,24.441497,0 118.068494,24.441497,0 118.068472,24.44148,0 118.068472,24.441432,0 118.068472,24.441428,0 118.068585,24.441332,0 118.068585,24.441328,0 118.068828,24.441194,0 118.068854,24.441168,0 118.068854,24.44112,0 118.068798,24.44072,0 118.068793,24.440716,0 118.069076,24.440356,0 118.069076,24.440356,0 118.06911,24.440308,0 118.06911,24.440304,0 118.06934,24.440273,0 118.069449,24.440204,0 118.069449,24.4402,0 118.069379,24.440117,0 118.069379,24.440117,0 118.069336,24.440065,0 118.069336,24.440065,0 118.069015,24.439674,0 118.069015,24.439674,0 118.068845,24.439653,0 118.068841,24.439648,0 118.068841,24.439566,0 118.068841,24.439566,0 118.06885,24.439444,0 118.06885,24.43944,0 118.06911,24.439444,0 118.06911,24.439444,0 118.069115,24.439362,0 118.069115,24.439362,0 118.069167,24.439193,0 118.069262,24.439019,0 118.069262,24.439019,0 118.069245,24.438997,0 118.069245,24.438924,0 118.06931,24.438919,0 118.06931,24.438915,0 118.069358,24.438919,0 118.069358,24.438919,0 118.06944,24.438928,0 118.069449,24.438945,0 118.069436,24.43901,0 118.069436,24.43901,0 118.069423,24.439084,0 118.069418,24.439084,0 118.069523,24.439045,0 118.069523,24.439041,0 118.069423,24.439084,0 118.069418,24.439084,0 118.069431,24.439015,0 118.069431,24.439015,0 118.069449,24.43895,0 118.069444,24.438932,0 118.069362,24.438924,0 118.069362,24.438924,0 118.069314,24.438919,0 118.06931,24.438915,0 118.069245,24.438919,0 118.069245,24.438993,0 118.069262,24.439015,0 118.069262,24.439015,0 118.069171,24.439188,0 118.069119,24.439358,0 118.069119,24.439358,0 118.069115,24.439444,0 118.06911,24.439444,0 118.068854,24.439444,0 118.06885,24.43944,0 118.068845,24.439562,0 118.068845,24.439562,0 118.068845,24.439648,0 118.068841,24.439648,0 118.06872,24.439657,0 118.068715,24.439657,0 118.068546,24.439848,0 118.06842,24.439883,0 118.06842,24.439883,0 118.068277,24.439909,0 118.068277,24.439909,0 118.068047,24.439961,0 118.068047,24.439961,0 118.067982,24.43997,0 118.067982,24.43997,0 118.06773,24.439996,0 118.067726,24.439996,0 118.067695,24.440156,0 118.067661,24.440221,0 118.067661,24.440221,0 118.067426,24.440573,0 118.067426,24.440573,0 118.067348,24.440647,0 118.067313,24.440694,0 118.067283,24.440751,0 118.067261,24.44082,0 118.067244,24.440907,0 118.067244,24.440907,0 118.06724,24.44115,0 118.067235,24.44115,0 118.067153,24.441098,0 118.06671,24.441133,0 118.066706,24.441133,0 118.066667,24.441168,0 118.066584,24.441207,0 118.06658,24.441211,0 118.066337,24.441519,0 118.066285,24.441671,0 118.066285,24.441671,0 118.06625,24.44197,0 118.066202,24.442109,0 118.065868,24.442283,0 118.065864,24.442283,0 118.066011,24.442426,0 118.066011,24.442426,0 118.066215,24.4426,0 118.066463,24.442873,0 118.066519,24.442986,0 118.066541,24.443216,0 118.066623,24.443303,0 118.066706,24.443359,0 118.066706,24.443359,0 118.067227,24.443624,0 118.067227,24.443624,0 118.066957,24.444128,0 118.066957,24.444128,0 118.066875,24.444423,0 118.066858,24.444579,0 118.066858,24.444601,0 118.066853,24.444601,0 118.066732,24.444692,0 118.066549,24.444688,0 118.066437,24.44474,0 118.066437,24.44474,0 118.066198,24.444766,0 118.06599,24.444857,0 118.065981,24.444857,0 118.065994,24.445,0 118.065994,24.445,0 118.066042,24.44559,0 118.066042,24.44559,0 118.066046,24.445673,0 118.066046,24.445673,0 118.066107,24.445911,0 118.066111,24.44599,0 118.066111,24.44599,0 118.066037,24.446168,0 118.066033,24.446168,0 118.066029,24.446168,0 118.066033,24.446168,0 118.066111,24.445994,0 118.066111,24.44599,0 118.066602,24.446107,0 118.066697,24.446107,0 118.066697,24.446102,0 118.066749,24.445977,0 118.066853,24.445638,0 118.066853,24.445551,0 118.066832,24.445425,0 118.066827,24.445421,0 118.066984,24.445443,0 118.067105,24.445365,0 118.067218,24.445365,0 118.067218,24.445365,0 118.067248,24.445447,0 118.067383,24.445543,0 118.067422,24.445612,0 118.0674,24.445751,0 118.067365,24.445807,0 118.067396,24.445842,0 118.067795,24.445955,0 118.068099,24.446063,0 118.068099,24.446063,0 118.068394,24.446263,0 118.068446,24.446267,0 118.068568,24.446246,0 118.068828,24.446315,0 118.068828,24.446315,0 118.068806,24.446385,0 118.068763,24.446675,0 118.068754,24.446814,0 118.068754,24.446814,0 118.068763,24.44694,0 118.068802,24.447044,0 118.068802,24.447044,0 118.068707,24.447214,0 118.068707,24.447214,0 118.068589,24.447435,0 118.068585,24.447435,0 118.068377,24.447196,0 118.068312,24.44714,0 118.068268,24.447144,0 118.068116,24.44727,0 118.068112,24.44727,0 118.068264,24.447148,0 118.068307,24.44714,0 118.068372,24.447192,0 118.068585,24.447435,0 118.068585,24.447435,0 118.068702,24.447218,0 118.068702,24.447218,0 118.068802,24.447049,0 118.068802,24.447044,0 118.068767,24.446944,0 118.068754,24.446819,0 118.06875,24.446814,0 118.069145,24.446879,0 118.069388,24.446944,0 118.069388,24.446944,0 118.069557,24.44701,0 118.069557,24.44701,0 118.069809,24.447135,0 118.069809,24.447135,0 118.070009,24.447244,0 118.070009,24.447244,0 118.070113,24.447309,0 118.070113,24.447309,0 118.070161,24.447335,0 118.070161,24.447335,0 118.070239,24.447374,0 118.070239,24.447374,0 118.070495,24.4475,0 118.070495,24.4475,0 118.070668,24.44724,0 118.070729,24.447161,0 118.071115,24.446892,0 118.071115,24.446892,0 118.071402,24.446706,0 118.071402,24.446706,0 118.072066,24.446276,0 118.072066,24.446272,0 118.072214,24.446497,0 118.072244,24.446519,0 118.072309,24.446519,0 118.0724,24.446476,0 118.072448,24.446432,0 118.072457,24.446406,0 118.072457,24.446402,0 118.073025,24.446228,0 118.073025,24.446228,0 118.073281,24.44615,0 118.073281,24.44615,0 118.073338,24.446107,0 118.073767,24.445391,0 118.073767,24.445391,0 118.073898,24.445252,0 118.073898,24.445252,0 118.074132,24.444948,0 118.074132,24.444944,0 118.074544,24.445234,0 118.074614,24.445252,0 118.075213,24.44477,0 118.075252,24.444709,0 118.075252,24.444709,0 118.075282,24.444648,0 118.075286,24.444583,0 118.075291,24.444549,0 118.075291,24.444549,0 118.075317,24.444206,0 118.075317,24.444206,0 118.075321,24.444136,0 118.075321,24.444136,0 118.075365,24.443793,0 118.075365,24.443793,0 118.075421,24.443381,0 118.075582,24.442574,0 118.075608,24.442361,0 118.075608,24.442292,0 118.075586,24.442222,0 118.075503,24.442118,0 118.075499,24.442114,0 118.075595,24.441949,0 118.075595,24.441949,0 118.075677,24.441819,0 118.075677,24.441814,0 118.075642,24.441788,0 118.075621,24.441671,0 118.075551,24.441606,0 118.07553,24.441562,0 118.075534,24.441519,0 118.07556,24.441458,0 118.075681,24.441324,0 118.075681,24.441324,0 118.075838,24.441081,0 118.075838,24.441081,0 118.075929,24.441107,0</coordinates></LineString></Placemark>
</Folder>
</Document></kml>