<?xml version="1.0" encoding="UTF-8"?>
<kml xmlns="http://www.opengis.net/kml/2.2">
<Document><name>厦门 行程路线图</name>
<Folder><name>Day1 老城烟火+集美学村（1号线沿线） (2026-09-18)</name>
<Placemark><name>中山路步行街</name><description>老虎城四楼天台可拍全景(10元)；中华城免费</description><Point><coordinates>118.081903,24.454104,0</coordinates></Point></Placemark>
<Placemark><name>厦门八市（营平菜市场）</name><description>看热闹为主，海鲜加工慎重；阿杰五香等小吃在此</description><Point><coordinates>118.075017,24.457902,0</coordinates></Point></Placemark>
<Placemark><name>老溪岸沙茶面</name><description></description><Point><coordinates>118.088955,24.461247,0</coordinates></Point></Placemark>
<Placemark><name>集美学村</name><description>地铁1号线直达；龙舟池/鳌园/嘉庚故居/大社戏台</description><Point><coordinates>118.103353,24.572373,0</coordinates></Point></Placemark>
<Placemark><name>十里长堤（集美）</name><description>地铁穿海+日落+不定期免费演出</description><Point><coordinates>118.089475,24.563722,0</coordinates></Point></Placemark>
<Placemark><name>Day1 老城烟火+集美学村（1号线沿线） (2026-09-18) 路线</name><LineString><tessellate>1</tessellate><coordinates>118.081901,24.454102,0 118.081901,24.454102,0 118.081901,24.454102,0 118.081259,24.454045,0 118.081259,24.454045,0 118.081055,24.454023,0 118.080521,24.453976,0 118.080521,24.453976,0 118.080252,24.453954,0 118.080252,24.453954,0 118.078637,24.453798,0 118.078633,24.453793,0 118.078498,24.45398,0 118.078498,24.45398,0 118.077934,24.454718,0 118.077934,24.454718,0 118.077708,24.455013,0 118.077708,24.455013,0 118.077517,24.455156,0 118.077348,24.455221,0 118.077244,24.455243,0 118.077027,24.455226,0 118.077027,24.455226,0 118.076771,24.455113,0 118.076766,24.455109,0 118.076641,24.455386,0 118.076636,24.455386,0 118.076415,24.455295,0 118.076411,24.455291,0 118.076263,24.455547,0 118.076263,24.455547,0 118.07625,24.455564,0 118.076141,24.455707,0 118.076141,24.455707,0 118.075911,24.456011,0 118.075911,24.456011,0 118.075816,24.45622,0 118.075638,24.456523,0 118.075638,24.456523,0 118.075386,24.456936,0 118.075386,24.456936,0 118.075208,24.4574,0 118.075208,24.4574,0 118.075178,24.457496,0 118.075178,24.457496,0 118.075109,24.457661,0 118.075043,24.457773,0 118.07497,24.457869,0 118.074965,24.457869,0 118.075039,24.457778,0 118.075104,24.457665,0 118.075174,24.4575,0 118.075174,24.4575,0 118.075204,24.457405,0 118.075204,24.457405,0 118.075382,24.45694,0 118.075382,24.456936,0 118.075994,24.457127,0 118.075994,24.457127,0 118.076089,24.457153,0 118.076207,24.457218,0 118.076207,24.457218,0 118.076411,24.457344,0 118.076411,24.457344,0 118.076615,24.457474,0 118.076615,24.457474,0 118.077309,24.45793,0 118.077309,24.45793,0 118.077717,24.458199,0 118.077717,24.458199,0 118.077769,24.458234,0 118.077769,24.458234,0 118.07822,24.458529,0 118.07822,24.458529,0 118.078385,24.45865,0 118.078533,24.458793,0 118.078585,24.458889,0 118.078637,24.45911,0 118.078637,24.45911,0 118.078724,24.459839,0 118.078724,24.459839,0 118.079049,24.459931,0 118.079049,24.459931,0 118.079449,24.460022,0 118.079449,24.460022,0 118.079753,24.460082,0 118.079753,24.460082,0 118.079983,24.460126,0 118.079983,24.460126,0 118.080161,24.460161,0 118.080161,24.460161,0 118.080512,24.460243,0 118.080512,24.460243,0 118.080855,24.460321,0 118.080855,24.460321,0 118.08105,24.460365,0 118.081293,24.460412,0 118.081293,24.460412,0 118.082179,24.460573,0 118.082179,24.460573,0 118.082773,24.460703,0 118.082773,24.460703,0 118.083264,24.460803,0 118.083264,24.460803,0 118.083798,24.460933,0 118.083798,24.460933,0 118.083906,24.460955,0 118.083906,24.460955,0 118.084015,24.460981,0 118.084015,24.460981,0 118.084336,24.461046,0 118.084336,24.461046,0 118.084922,24.461163,0 118.084922,24.461163,0 118.085156,24.461224,0 118.085156,24.461224,0 118.085773,24.461367,0 118.085773,24.461367,0 118.086953,24.461619,0 118.086953,24.461619,0 118.087604,24.461085,0 118.087604,24.461085,0 118.087682,24.461024,0 118.087682,24.461024,0 118.087934,24.460807,0 118.087934,24.460803,0 118.088338,24.461311,0 118.088338,24.461311,0 118.08895,24.46122,0 118.08895,24.461215,0 118.089015,24.461211,0 118.089015,24.461211,0 118.089015,24.461545,0 118.089015,24.461545,0 118.088997,24.462092,0 118.088993,24.462092,0 118.090074,24.462344,0 118.090074,24.462344,0 118.091224,24.46263,0 118.091224,24.46263,0 118.09138,24.462665,0 118.09138,24.462665,0 118.091944,24.462817,0 118.091944,24.462817,0 118.093112,24.46316,0 118.093112,24.46316,0 118.093242,24.463199,0 118.093242,24.463199,0 118.093203,24.463346,0 118.093203,24.463346,0 118.093047,24.463741,0 118.093047,24.463741,0 118.092917,24.464063,0 118.092917,24.464063,0 118.092917,24.464197,0 118.092791,24.464722,0 118.092726,24.464905,0 118.092726,24.464905,0 118.092569,24.465317,0 118.092548,24.465404,0 118.092548,24.465404,0 118.092444,24.465833,0 118.092444,24.465833,0 118.092248,24.466493,0 118.092248,24.466493,0 118.092227,24.466549,0 118.092066,24.46697,0 118.092066,24.46697,0 118.091884,24.467409,0 118.091884,24.467409,0 118.091688,24.467873,0 118.091619,24.467912,0 118.091619,24.467912,0 118.091532,24.468134,0 118.091532,24.468134,0 118.091419,24.468424,0 118.091415,24.468424,0 118.091428,24.468542,0 118.091428,24.468542,0 118.091432,24.468589,0 118.091458,24.468637,0 118.091458,24.468633,0 118.091341,24.46872,0 118.091341,24.46872,0 118.091341,24.468724,0 118.091341,24.468859,0 118.091332,24.468854,0 118.091606,24.469071,0 118.091606,24.469071,0 118.09161,24.469071,0 118.09148,24.469175,0 118.091441,24.469223,0 118.091376,24.469371,0 118.091372,24.469371,0 118.091424,24.46947,0 118.091424,24.46947,0 118.09145,24.469527,0 118.09148,24.469714,0 118.09148,24.469714,0 118.091576,24.470182,0 118.091576,24.470182,0 118.091654,24.470508,0 118.091654,24.470508,0 118.091923,24.471892,0 118.091979,24.472257,0 118.091992,24.472418,0 118.091992,24.472418,0 118.092001,24.472591,0 118.092001,24.472591,0 118.091979,24.473056,0 118.091936,24.473312,0 118.091931,24.473312,0 118.09227,24.473403,0 118.09227,24.473403,0 118.092504,24.473485,0 118.092726,24.473598,0 118.092726,24.473598,0 118.092839,24.473668,0 118.093003,24.473798,0 118.093003,24.473798,0 118.093138,24.473941,0 118.093138,24.473941,0 118.093255,24.474119,0 118.093372,24.474388,0 118.093372,24.474388,0 118.093498,24.474614,0 118.093498,24.474614,0 118.093594,24.474779,0 118.093594,24.474779,0 118.093733,24.474965,0 118.093733,24.474965,0 118.093915,24.475178,0 118.094188,24.475382,0 118.094792,24.475664,0 118.094792,24.475664,0 118.094844,24.47569,0 118.094844,24.47569,0 118.094935,24.475747,0 118.094935,24.475747,0 118.095204,24.475885,0 118.095204,24.475885,0 118.095751,24.476185,0 118.095751,24.476185,0 118.096298,24.476471,0 118.096298,24.476471,0 118.096623,24.476636,0 118.096623,24.476636,0 118.097227,24.476936,0 118.097227,24.476936,0 118.096957,24.477383,0 118.096957,24.477383,0 118.096862,24.477535,0 118.096415,24.478255,0 118.096415,24.478255,0 118.096168,24.478655,0 118.096168,24.478655,0 118.095825,24.47921,0 118.095825,24.47921,0 118.095786,24.479271,0 118.095786,24.479271,0 118.095755,24.479293,0 118.095729,24.479336,0 118.095664,24.479436,0 118.095577,24.479575,0 118.095577,24.479575,0 118.095482,24.479735,0 118.095473,24.479766,0 118.095473,24.479766,0 118.095443,24.479792,0 118.095378,24.479887,0 118.095378,24.479887,0 118.095334,24.479948,0 118.095326,24.480004,0 118.095321,24.480004,0 118.09526,24.480052,0 118.0951,24.480291,0 118.0951,24.480291,0 118.094996,24.480456,0 118.094996,24.480456,0 118.094944,24.480534,0 118.094944,24.480586,0 118.094944,24.480586,0 118.094939,24.48059,0 118.094883,24.480712,0 118.094883,24.480712,0 118.094761,24.480998,0 118.094709,24.481224,0 118.094709,24.481224,0 118.094657,24.481684,0 118.094657,24.481684,0 118.094549,24.482387,0 118.094549,24.482387,0 118.09434,24.483542,0 118.09434,24.483542,0 118.094249,24.484045,0 118.094249,24.484045,0 118.094236,24.484097,0 118.094236,24.484097,0 118.094188,24.484375,0 118.094188,24.484375,0 118.094097,24.4849,0 118.094097,24.4849,0 118.09385,24.486189,0 118.093798,24.486411,0 118.093798,24.486411,0 118.09375,24.486597,0 118.09375,24.486597,0 118.093733,24.486658,0 118.093733,24.486658,0 118.093707,24.486771,0 118.093707,24.486771,0 118.093641,24.487044,0 118.093641,24.487044,0 118.093637,24.48707,0 118.093637,24.48707,0 118.093542,24.487331,0 118.093437,24.487908,0 118.093437,24.487908,0 118.093338,24.488303,0 118.093338,24.488303,0 118.093238,24.488524,0 118.093212,24.488581,0 118.093212,24.488581,0 118.093043,24.488681,0 118.092869,24.48898,0 118.092869,24.48898,0 118.09286,24.489002,0 118.09286,24.489002,0 118.092756,24.489306,0 118.092756,24.48951,0 118.092756,24.489514,0 118.092817,24.489622,0 118.092817,24.489622,0 118.092856,24.489692,0 118.092856,24.489692,0 118.093147,24.490239,0 118.093151,24.490239,0 118.092708,24.490456,0 118.092708,24.490456,0 118.09191,24.490842,0 118.09191,24.490842,0 118.091845,24.490872,0 118.091845,24.490872,0 118.091693,24.490955,0 118.091693,24.490955,0 118.091094,24.49122,0 118.091094,24.49122,0 118.091063,24.491233,0 118.091063,24.491233,0 118.089918,24.491688,0 118.089918,24.491688,0 118.089813,24.491727,0 118.089813,24.491727,0 118.089301,24.491923,0 118.089301,24.491923,0 118.088615,24.492161,0 118.088069,24.492305,0 118.088064,24.492305,0 118.087938,24.493181,0 118.087938,24.493181,0 118.087882,24.493524,0 118.087882,24.493524,0 118.08786,24.493681,0 118.08786,24.493681,0 118.087843,24.493789,0 118.087843,24.493789,0 118.087804,24.494102,0 118.087804,24.494102,0 118.087739,24.494527,0 118.087739,24.494527,0 118.087713,24.495017,0 118.087713,24.495017,0 118.087708,24.495686,0 118.087708,24.495686,0 118.087708,24.496332,0 118.087708,24.496332,0 118.087708,24.496853,0 118.087708,24.496853,0 118.087708,24.497279,0 118.087708,24.497279,0 118.087708,24.497387,0 118.087708,24.497387,0 118.087708,24.49819,0 118.087708,24.49819,0 118.087704,24.498451,0 118.087704,24.498451,0 118.087687,24.49895,0 118.087682,24.49895,0 118.087626,24.498989,0 118.087626,24.498989,0 118.087474,24.499049,0 118.087474,24.499049,0 118.086693,24.499297,0 118.086688,24.499297,0 118.08678,24.49951,0 118.086879,24.499735,0 118.086879,24.499735,0 118.087161,24.500378,0 118.087161,24.500378,0 118.087413,24.50082,0 118.087717,24.501263,0 118.087717,24.501263,0 118.087969,24.501576,0 118.088268,24.501888,0 118.088498,24.502101,0 118.088819,24.502352,0 118.088819,24.502352,0 118.088915,24.502426,0 118.088915,24.502426,0 118.089058,24.502548,0 118.08947,24.502839,0 118.08947,24.502839,0 118.08954,24.502899,0 118.08954,24.502899,0 118.089392,24.503086,0 118.089388,24.503086,0 118.089588,24.503377,0 118.090629,24.504223,0 118.09115,24.504679,0 118.09115,24.504679,0 118.091562,24.5051,0 118.091923,24.505586,0 118.092144,24.505959,0 118.0924,24.506467,0 118.092552,24.506923,0 118.092552,24.506923,0 118.092587,24.507027,0 118.092587,24.507027,0 118.092643,24.507209,0 118.092643,24.507209,0 118.093164,24.509219,0 118.093164,24.509219,0 118.093299,24.509744,0 118.093299,24.509744,0 118.093498,24.510495,0 118.093503,24.510521,0 118.093503,24.510521,0 118.093568,24.510764,0 118.093568,24.510764,0 118.093589,24.510851,0 118.093589,24.510851,0 118.094223,24.513225,0 118.094223,24.513225,0 118.094705,24.515104,0 118.095178,24.517079,0 118.095178,24.517079,0 118.095208,24.517218,0 118.095208,24.517218,0 118.095456,24.518199,0 118.09566,24.519102,0 118.09566,24.519102,0 118.096211,24.521263,0 118.096211,24.521263,0 118.096267,24.52148,0 118.096502,24.5224,0 118.096632,24.522747,0 118.09668,24.522839,0 118.09668,24.522839,0 118.096714,24.522921,0 118.096714,24.522921,0 118.096775,24.523043,0 118.096962,24.523364,0 118.097201,24.523698,0 118.098793,24.525799,0 118.099258,24.526402,0 118.099397,24.526567,0 118.099709,24.526706,0 118.099709,24.526706,0 118.10013,24.527266,0 118.10013,24.527266,0 118.100074,24.527426,0 118.101237,24.528989,0 118.101276,24.529084,0 118.101276,24.529149,0 118.101263,24.529245,0 118.101259,24.529245,0 118.101237,24.529345,0 118.101176,24.529466,0 118.101115,24.52951,0 118.101111,24.52951,0 118.100885,24.52964,0 118.100395,24.529957,0 118.100391,24.529957,0 118.100564,24.530187,0 118.100564,24.530187,0 118.100629,24.530273,0 118.100629,24.530273,0 118.101393,24.531354,0 118.101393,24.531354,0 118.101836,24.531949,0 118.102044,24.532296,0 118.102131,24.53247,0 118.102292,24.532795,0 118.102292,24.532795,0 118.102313,24.532843,0 118.102313,24.532843,0 118.102435,24.53322,0 118.102799,24.534058,0 118.102912,24.534345,0 118.102912,24.534345,0 118.103021,24.534549,0 118.103021,24.534549,0 118.103025,24.534562,0 118.103112,24.534696,0 118.103112,24.534696,0 118.103199,24.534831,0 118.103433,24.535143,0 118.104609,24.536641,0 118.104609,24.536641,0 118.104661,24.536688,0 118.104661,24.536688,0 118.10605,24.537674,0 118.10605,24.537674,0 118.10674,24.538155,0 118.106984,24.538338,0 118.107148,24.538485,0 118.10737,24.538724,0 118.108043,24.53954,0 118.108043,24.53954,0 118.108225,24.539774,0 118.108485,24.540109,0 118.108485,24.540109,0 118.10852,24.540152,0 118.10852,24.540152,0 118.108707,24.540412,0 118.108828,24.540638,0 118.108885,24.54079,0 118.108997,24.541181,0 118.109093,24.541567,0 118.109093,24.541567,0 118.109167,24.542691,0 118.109214,24.543129,0 118.109214,24.543129,0 118.109206,24.543247,0 118.109206,24.543247,0 118.109171,24.543455,0 118.109154,24.543533,0 118.109084,24.544453,0 118.109002,24.545052,0 118.108937,24.545339,0 118.108733,24.545951,0 118.108733,24.545951,0 118.108459,24.54671,0 118.108255,24.547157,0 118.10816,24.547292,0 118.108073,24.547357,0 118.108073,24.547357,0 118.108008,24.547426,0 118.108008,24.547426,0 118.107218,24.54819,0 118.107218,24.54819,0 118.106719,24.548624,0 118.106719,24.548624,0 118.106528,24.548806,0 118.106523,24.548806,0 118.106884,24.549158,0 118.107205,24.549527,0 118.107391,24.54967,0 118.107391,24.54967,0 118.107617,24.549826,0 118.107921,24.550009,0 118.109145,24.550621,0 118.109145,24.550621,0 118.109123,24.550582,0 118.108932,24.550443,0 118.108932,24.550443,0 118.108854,24.550391,0 118.108459,24.550191,0 118.108459,24.550191,0 118.107943,24.549939,0 118.107574,24.549727,0 118.107504,24.549653,0 118.107478,24.549605,0 118.107461,24.54951,0 118.107457,24.549505,0 118.107365,24.549601,0 118.107365,24.549601,0 118.107114,24.549835,0 118.107105,24.549835,0 118.107079,24.549905,0 118.105503,24.551484,0 118.105464,24.551532,0 118.105464,24.551532,0 118.105421,24.551576,0 118.105421,24.551576,0 118.094887,24.561523,0 118.09474,24.561645,0 118.094674,24.56171,0 118.094674,24.56171,0 118.094588,24.561797,0 118.094505,24.561892,0 118.094245,24.562135,0 118.093967,24.562409,0 118.093741,24.562652,0 118.093403,24.563043,0 118.093229,24.56329,0 118.093134,24.563468,0 118.093038,24.563524,0 118.093038,24.563524,0 118.093312,24.563685,0 118.093312,24.563685,0 118.093889,24.564093,0 118.094136,24.564253,0 118.094136,24.564253,0 118.094319,24.56431,0 118.095074,24.564705,0 118.095074,24.564705,0 118.095569,24.56497,0 118.095747,24.565039,0 118.096441,24.565252,0 118.096441,24.565252,0 118.096493,24.565425,0 118.096576,24.565707,0 118.096667,24.565885,0 118.096745,24.565994,0 118.097266,24.566667,0 118.097413,24.566823,0 118.097852,24.567214,0 118.097852,24.567214,0 118.097951,24.56737,0 118.098051,24.567674,0 118.09822,24.568099,0 118.098325,24.568455,0 118.098325,24.568455,0 118.098481,24.569262,0 118.098481,24.569262,0 118.098498,24.569358,0 118.098498,24.569358,0 118.098576,24.569978,0 118.098576,24.569978,0 118.098624,24.570365,0 118.098624,24.570365,0 118.098711,24.570942,0 118.098711,24.570942,0 118.098841,24.571806,0 118.098841,24.571806,0 118.098906,24.572244,0 118.098906,24.572244,0 118.099583,24.572244,0 118.099583,24.572244,0 118.10013,24.572253,0 118.10013,24.572253,0 118.100747,24.572253,0 118.100747,24.572253,0 118.101176,24.572253,0 118.101176,24.572253,0 118.101389,24.572253,0 118.101389,24.572253,0 118.101771,24.572253,0 118.101771,24.572253,0 118.103025,24.572266,0 118.103138,24.572266,0 118.103138,24.572266,0 118.103351,24.572266,0 118.103351,24.572266,0 118.103142,24.572266,0 118.103142,24.572266,0 118.10303,24.572266,0 118.101775,24.572257,0 118.101775,24.572257,0 118.101393,24.572257,0 118.101393,24.572257,0 118.101181,24.572257,0 118.101181,24.572257,0 118.100751,24.572257,0 118.100751,24.572257,0 118.100135,24.572257,0 118.100135,24.572257,0 118.099583,24.572248,0 118.099583,24.572248,0 118.098911,24.572248,0 118.098906,24.572244,0 118.098845,24.57181,0 118.098845,24.57181,0 118.098715,24.570946,0 118.098715,24.570946,0 118.098628,24.570369,0 118.098628,24.570369,0 118.098581,24.569983,0 118.098581,24.569983,0 118.098503,24.569362,0 118.098503,24.569362,0 118.098485,24.569266,0 118.098485,24.569266,0 118.098329,24.568459,0 118.098325,24.568455,0 118.097669,24.568459,0 118.097669,24.568459,0 118.097083,24.568451,0 118.097083,24.568451,0 118.096484,24.568407,0 118.096484,24.568407,0 118.096306,24.568338,0 118.096181,24.56826,0 118.096181,24.56826,0 118.096059,24.568173,0 118.095556,24.567717,0 118.095556,24.567717,0 118.095477,24.567648,0 118.095477,24.567648,0 118.095165,24.56737,0 118.095165,24.56737,0 118.095056,24.567279,0 118.095056,24.567279,0 118.094839,24.567105,0 118.094727,24.566997,0 118.09451,24.566836,0 118.094184,24.56674,0 118.094184,24.56674,0 118.093967,24.566693,0 118.093967,24.566693,0 118.093485,24.566567,0 118.092891,24.566385,0 118.092891,24.566385,0 118.092795,24.566354,0 118.092791,24.56635,0 118.092444,24.56638,0 118.092444,24.56638,0 118.092283,24.566415,0 118.092201,24.566415,0 118.092196,24.566411,0 118.091853,24.565868,0 118.09168,24.565608,0 118.091675,24.565603,0 118.091571,24.565564,0 118.091393,24.565625,0 118.091285,24.565638,0 118.091285,24.565638,0 118.091224,24.565603,0 118.09122,24.565599,0 118.090933,24.565516,0 118.090929,24.565512,0 118.090929,24.56533,0 118.090929,24.56533,0 118.090638,24.565334,0 118.090638,24.565334,0 118.090382,24.565313,0 118.090378,24.565308,0 118.090369,24.565213,0 118.090308,24.565117,0 118.090208,24.565039,0 118.090109,24.564991,0 118.090104,24.564987,0 118.089939,24.565013,0 118.089939,24.565013,0 118.089601,24.565091,0 118.089596,24.565091,0 118.089484,24.564965,0 118.089188,24.564162,0 118.089184,24.564158,0 118.089288,24.564102,0 118.089392,24.563993,0 118.089505,24.563832,0 118.089549,24.563754,0</coordinates></LineString></Placemark>
</Folder>
</Document></kml>