<?xml version="1.0" encoding="UTF-8"?>
<kml xmlns="http://www.opengis.net/kml/2.2">
<Document><name>厦门 行程路线图</name>
<Folder><name>Day3 鼓浪屿全日：码头→三大片区 (2026-09-20)</name>
<Placemark><name>东渡邮轮码头</name><description>提前到码头取票/刷码</description><Point><coordinates>118.077007,24.49397,0</coordinates></Point></Placemark>
<Placemark><name>日光岩</name><description>节假日排队严重，建议早去或傍晚</description><Point><coordinates>118.067310,24.442228,0</coordinates></Point></Placemark>
<Placemark><name>菽庄花园+钢琴博物馆</name><description>钢琴博物馆有免费演奏，卡好时间</description><Point><coordinates>118.069520,24.439035,0</coordinates></Point></Placemark>
<Placemark><name>鼓浪屿（全岛）</name><description>主码头东渡；船票小程序购；不要信路边拉客</description><Point><coordinates>118.066102,24.446214,0</coordinates></Point></Placemark>
<Placemark><name>八卦楼（风琴博物馆）</name><description>每天有管风琴演奏；有免费讲解</description><Point><coordinates>118.068263,24.447422,0</coordinates></Point></Placemark>
<Placemark><name>大德记沙滩+皓月园</name><description>退潮礁石注意防滑</description><Point><coordinates>118.075936,24.441099,0</coordinates></Point></Placemark>
<Placemark><name>Day3 鼓浪屿全日：码头→三大片区 (2026-09-20) 路线</name><LineString><tessellate>1</tessellate><coordinates>118.077005,24.493763,0 118.077326,24.493763,0 118.077326,24.493763,0 118.077083,24.492643,0 118.077083,24.492643,0 118.077062,24.492491,0 118.077062,24.492491,0 118.076936,24.491697,0 118.076936,24.491697,0 118.07691,24.491506,0 118.07691,24.491506,0 118.076797,24.490621,0 118.076797,24.490621,0 118.076793,24.490564,0 118.076793,24.490564,0 118.076658,24.489944,0 118.076658,24.489944,0 118.076402,24.488529,0 118.076367,24.48832,0 118.076367,24.48832,0 118.076324,24.48803,0 118.076324,24.48803,0 118.076159,24.48694,0 118.076159,24.48694,0 118.076137,24.486832,0 118.076137,24.486832,0 118.07602,24.486289,0 118.07602,24.486289,0 118.075959,24.48605,0 118.075833,24.485846,0 118.075833,24.485846,0 118.075573,24.48549,0 118.075573,24.48549,0 118.075234,24.485195,0 118.075234,24.485191,0 118.075291,24.485122,0 118.075217,24.485035,0 118.075156,24.484852,0 118.075187,24.484588,0 118.075239,24.484332,0 118.075282,24.484145,0 118.075286,24.484097,0 118.075286,24.484093,0 118.075378,24.484041,0 118.075447,24.483963,0 118.075447,24.483963,0 118.075577,24.483811,0 118.075577,24.483754,0 118.075577,24.483754,0 118.075577,24.48375,0 118.075729,24.483507,0 118.075729,24.483507,0 118.075885,24.48322,0 118.075885,24.48322,0 118.075951,24.483082,0 118.075951,24.483082,0 118.075994,24.482982,0 118.075994,24.482982,0 118.076011,24.482943,0 118.076011,24.482943,0 118.076094,24.48276,0 118.076094,24.48276,0 118.076133,24.482682,0 118.076133,24.482682,0 118.076224,24.482491,0 118.076224,24.482491,0 118.076319,24.482326,0 118.076319,24.482326,0 118.076471,24.482092,0 118.076632,24.481879,0 118.076632,24.481879,0 118.07684,24.481649,0 118.07684,24.481645,0 118.076515,24.481398,0 118.076515,24.481398,0 118.076315,24.481259,0 118.076311,24.481254,0 118.076302,24.481276,0 118.076289,24.481298,0 118.076289,24.481298,0 118.076168,24.48122,0 118.076029,24.481168,0 118.075859,24.481137,0 118.075729,24.481137,0 118.075204,24.481215,0 118.075143,24.481254,0 118.074996,24.481641,0 118.074952,24.481658,0 118.074701,24.481641,0 118.074701,24.481641,0 118.074605,24.481632,0 118.074601,24.481632,0 118.074141,24.481549,0 118.073472,24.481372,0 118.073472,24.481372,0 118.069614,24.480352,0 118.069288,24.48023,0 118.069288,24.48023,0 118.067318,24.479492,0 118.066632,24.479102,0 118.065946,24.478069,0 118.065777,24.477539,0 118.065538,24.47678,0 118.064896,24.472543,0 118.064019,24.466554,0 118.063971,24.466215,0 118.061137,24.460043,0 118.060477,24.459201,0 118.059084,24.457951,0 118.058767,24.457665,0 118.057092,24.455799,0 118.056979,24.455569,0 118.056332,24.454236,0 118.056133,24.453416,0 118.056133,24.453416,0 118.056024,24.452982,0 118.055877,24.451688,0 118.055946,24.450247,0 118.056011,24.450043,0 118.05671,24.448494,0 118.057517,24.44727,0 118.057626,24.447179,0 118.057626,24.447179,0 118.058628,24.446354,0 118.058628,24.44635,0 118.05878,24.446228,0 118.05878,24.446228,0 118.058893,24.446133,0 118.058893,24.446133,0 118.059028,24.446042,0 118.059028,24.446042,0 118.05908,24.446003,0 118.059405,24.445768,0 118.059405,24.445768,0 118.059505,24.445681,0 118.059505,24.445681,0 118.059531,24.445651,0 118.059531,24.445651,0 118.05967,24.445456,0 118.05967,24.445456,0 118.05974,24.445312,0 118.059761,24.4452,0 118.059753,24.445161,0 118.05964,24.445,0 118.059622,24.444931,0 118.059622,24.444878,0 118.059674,24.444727,0 118.059674,24.444727,0 118.059744,24.444583,0 118.059805,24.444453,0 118.059805,24.444453,0 118.059896,24.444253,0 118.059961,24.444023,0 118.059983,24.443798,0 118.059983,24.443559,0 118.059957,24.443451,0 118.059865,24.443247,0 118.059722,24.443016,0 118.059566,24.442856,0 118.059523,24.442786,0 118.059514,24.442721,0 118.059514,24.442582,0 118.059562,24.442448,0 118.059627,24.442361,0 118.059761,24.442248,0 118.059874,24.442187,0 118.059874,24.442187,0 118.059948,24.442153,0 118.059948,24.442153,0 118.060378,24.442018,0 118.060586,24.441927,0 118.060694,24.441914,0 118.060694,24.441914,0 118.061376,24.44194,0 118.061376,24.44194,0 118.061949,24.44197,0 118.061949,24.44197,0 118.062326,24.442014,0 118.062326,24.442014,0 118.062595,24.442431,0 118.062595,24.442431,0 118.062886,24.442539,0 118.062986,24.4426,0 118.062986,24.4426,0 118.063238,24.442669,0 118.06342,24.442669,0 118.063602,24.442756,0 118.063828,24.442921,0 118.063885,24.442951,0 118.06401,24.442969,0 118.064076,24.442956,0 118.064136,24.442908,0 118.064175,24.442856,0 118.064266,24.442595,0 118.064353,24.442504,0 118.06444,24.442435,0 118.064653,24.442322,0 118.064883,24.442227,0 118.064883,24.442227,0 118.065052,24.442183,0 118.065052,24.442183,0 118.065239,24.442153,0 118.065339,24.442157,0 118.065551,24.442205,0 118.065551,24.442205,0 118.065864,24.442283,0 118.065864,24.442283,0 118.066198,24.442114,0 118.066246,24.441975,0 118.06628,24.441675,0 118.06628,24.441675,0 118.066332,24.441523,0 118.06658,24.441215,0 118.06658,24.441207,0 118.066662,24.441172,0 118.066706,24.441137,0 118.066706,24.441133,0 118.067148,24.441098,0 118.067235,24.44115,0 118.067235,24.44115,0 118.067266,24.441172,0 118.06753,24.441211,0 118.067799,24.441215,0 118.067977,24.44125,0 118.068216,24.441328,0 118.068312,24.441328,0 118.068403,24.441376,0 118.068477,24.441428,0 118.068472,24.441428,0 118.068472,24.441476,0 118.06849,24.441493,0 118.06849,24.441493,0 118.068524,24.441532,0 118.06852,24.441623,0 118.068628,24.44197,0 118.068628,24.44197,0 118.068659,24.442044,0 118.068659,24.442044,0 118.068294,24.442122,0 118.06829,24.442122,0 118.068238,24.442235,0 118.068238,24.442383,0 118.068234,24.442383,0 118.068073,24.442387,0 118.068051,24.442409,0 118.068038,24.442452,0 118.067995,24.442478,0 118.06799,24.442478,0 118.06793,24.442474,0 118.06786,24.442444,0 118.067704,24.442444,0 118.067704,24.442444,0 118.067604,24.442452,0 118.067604,24.442452,0 118.067431,24.44247,0 118.067426,24.44247,0 118.067474,24.4424,0 118.067574,24.442344,0 118.067578,24.442318,0 118.067539,24.442296,0 118.067409,24.442313,0 118.067352,24.442313,0 118.0673,24.442235,0 118.067296,24.442231,0 118.067348,24.442309,0 118.067405,24.442313,0 118.067535,24.442296,0 118.067578,24.442313,0 118.067578,24.442339,0 118.067478,24.442396,0 118.067431,24.44247,0 118.067426,24.44247,0 118.0676,24.442457,0 118.0676,24.442457,0 118.0677,24.442448,0 118.0677,24.442448,0 118.067856,24.442444,0 118.067925,24.44247,0 118.06799,24.442478,0 118.06799,24.442478,0 118.068034,24.442457,0 118.068047,24.442413,0 118.068069,24.442391,0 118.068234,24.442387,0 118.068234,24.442383,0 118.068234,24.44224,0 118.06829,24.442127,0 118.06829,24.442122,0 118.068659,24.442049,0 118.068659,24.442044,0 118.068633,24.441975,0 118.068633,24.441975,0 118.06852,24.441628,0 118.068524,24.441536,0 118.068494,24.441497,0 118.068494,24.441497,0 118.068472,24.44148,0 118.068472,24.441432,0 118.068472,24.441428,0 118.068585,24.441332,0 118.068585,24.441328,0 118.068828,24.441194,0 118.068854,24.441168,0 118.068854,24.44112,0 118.068798,24.44072,0 118.068793,24.440716,0 118.069076,24.440356,0 118.069076,24.440356,0 118.06911,24.440308,0 118.06911,24.440304,0 118.06934,24.440273,0 118.069449,24.440204,0 118.069449,24.4402,0 118.069379,24.440117,0 118.069379,24.440117,0 118.069336,24.440065,0 118.069336,24.440065,0 118.069015,24.439674,0 118.069015,24.439674,0 118.068845,24.439653,0 118.068841,24.439648,0 118.068841,24.439566,0 118.068841,24.439566,0 118.06885,24.439444,0 118.06885,24.43944,0 118.06911,24.439444,0 118.06911,24.439444,0 118.069115,24.439362,0 118.069115,24.439362,0 118.069167,24.439193,0 118.069262,24.439019,0 118.069262,24.439019,0 118.069245,24.438997,0 118.069245,24.438924,0 118.06931,24.438919,0 118.06931,24.438915,0 118.069358,24.438919,0 118.069358,24.438919,0 118.06944,24.438928,0 118.069449,24.438945,0 118.069436,24.43901,0 118.069436,24.43901,0 118.069423,24.439084,0 118.069418,24.439084,0 118.069523,24.439045,0 118.069523,24.439041,0 118.069423,24.439084,0 118.069418,24.439084,0 118.069431,24.439015,0 118.069431,24.439015,0 118.069449,24.43895,0 118.069444,24.438932,0 118.069362,24.438924,0 118.069362,24.438924,0 118.069314,24.438919,0 118.06931,24.438915,0 118.069245,24.438919,0 118.069245,24.438993,0 118.069262,24.439015,0 118.069262,24.439015,0 118.069171,24.439188,0 118.069119,24.439358,0 118.069119,24.439358,0 118.069115,24.439444,0 118.06911,24.439444,0 118.068854,24.439444,0 118.06885,24.43944,0 118.068845,24.439562,0 118.068845,24.439562,0 118.068845,24.439648,0 118.068841,24.439648,0 118.06872,24.439657,0 118.068715,24.439657,0 118.068546,24.439848,0 118.06842,24.439883,0 118.06842,24.439883,0 118.068277,24.439909,0 118.068277,24.439909,0 118.068047,24.439961,0 118.068047,24.439961,0 118.067982,24.43997,0 118.067982,24.43997,0 118.06773,24.439996,0 118.067726,24.439996,0 118.067695,24.440156,0 118.067661,24.440221,0 118.067661,24.440221,0 118.067426,24.440573,0 118.067426,24.440573,0 118.067348,24.440647,0 118.067313,24.440694,0 118.067283,24.440751,0 118.067261,24.44082,0 118.067244,24.440907,0 118.067244,24.440907,0 118.06724,24.44115,0 118.067235,24.44115,0 118.067153,24.441098,0 118.06671,24.441133,0 118.066706,24.441133,0 118.066667,24.441168,0 118.066584,24.441207,0 118.06658,24.441211,0 118.066337,24.441519,0 118.066285,24.441671,0 118.066285,24.441671,0 118.06625,24.44197,0 118.066202,24.442109,0 118.065868,24.442283,0 118.065864,24.442283,0 118.066011,24.442426,0 118.066011,24.442426,0 118.066215,24.4426,0 118.066463,24.442873,0 118.066519,24.442986,0 118.066541,24.443216,0 118.066623,24.443303,0 118.066706,24.443359,0 118.066706,24.443359,0 118.067227,24.443624,0 118.067227,24.443624,0 118.066957,24.444128,0 118.066957,24.444128,0 118.066875,24.444423,0 118.066858,24.444579,0 118.066858,24.444601,0 118.066853,24.444601,0 118.066732,24.444692,0 118.066549,24.444688,0 118.066437,24.44474,0 118.066437,24.44474,0 118.066198,24.444766,0 118.06599,24.444857,0 118.065981,24.444857,0 118.065994,24.445,0 118.065994,24.445,0 118.066042,24.44559,0 118.066042,24.44559,0 118.066046,24.445673,0 118.066046,24.445673,0 118.066107,24.445911,0 118.066111,24.44599,0 118.066111,24.44599,0 118.066037,24.446168,0 118.066033,24.446168,0 118.066029,24.446168,0 118.066033,24.446168,0 118.066111,24.445994,0 118.066111,24.44599,0 118.066602,24.446107,0 118.066697,24.446107,0 118.066697,24.446102,0 118.066749,24.445977,0 118.066853,24.445638,0 118.066853,24.445551,0 118.066832,24.445425,0 118.066827,24.445421,0 118.066984,24.445443,0 118.067105,24.445365,0 118.067218,24.445365,0 118.067218,24.445365,0 118.067248,24.445447,0 118.067383,24.445543,0 118.067422,24.445612,0 118.0674,24.445751,0 118.067365,24.445807,0 118.067396,24.445842,0 118.067795,24.445955,0 118.068099,24.446063,0 118.068099,24.446063,0 118.068394,24.446263,0 118.068446,24.446267,0 118.068568,24.446246,0 118.068828,24.446315,0 118.068828,24.446315,0 118.068806,24.446385,0 118.068763,24.446675,0 118.068754,24.446814,0 118.068754,24.446814,0 118.068763,24.44694,0 118.068802,24.447044,0 118.068802,24.447044,0 118.068707,24.447214,0 118.068707,24.447214,0 118.068589,24.447435,0 118.068585,24.447435,0 118.068377,24.447196,0 118.068312,24.44714,0 118.068268,24.447144,0 118.068116,24.44727,0 118.068112,24.44727,0 118.068264,24.447148,0 118.068307,24.44714,0 118.068372,24.447192,0 118.068585,24.447435,0 118.068585,24.447435,0 118.068702,24.447218,0 118.068702,24.447218,0 118.068802,24.447049,0 118.068802,24.447044,0 118.068767,24.446944,0 118.068754,24.446819,0 118.06875,24.446814,0 118.069145,24.446879,0 118.069388,24.446944,0 118.069388,24.446944,0 118.069557,24.44701,0 118.069557,24.44701,0 118.069809,24.447135,0 118.069809,24.447135,0 118.070009,24.447244,0 118.070009,24.447244,0 118.070113,24.447309,0 118.070113,24.447309,0 118.070161,24.447335,0 118.070161,24.447335,0 118.070239,24.447374,0 118.070239,24.447374,0 118.070495,24.4475,0 118.070495,24.4475,0 118.070668,24.44724,0 118.070729,24.447161,0 118.071115,24.446892,0 118.071115,24.446892,0 118.071402,24.446706,0 118.071402,24.446706,0 118.072066,24.446276,0 118.072066,24.446272,0 118.072214,24.446497,0 118.072244,24.446519,0 118.072309,24.446519,0 118.0724,24.446476,0 118.072448,24.446432,0 118.072457,24.446406,0 118.072457,24.446402,0 118.073025,24.446228,0 118.073025,24.446228,0 118.073281,24.44615,0 118.073281,24.44615,0 118.073338,24.446107,0 118.073767,24.445391,0 118.073767,24.445391,0 118.073898,24.445252,0 118.073898,24.445252,0 118.074132,24.444948,0 118.074132,24.444944,0 118.074544,24.445234,0 118.074614,24.445252,0 118.075213,24.44477,0 118.075252,24.444709,0 118.075252,24.444709,0 118.075282,24.444648,0 118.075286,24.444583,0 118.075291,24.444549,0 118.075291,24.444549,0 118.075317,24.444206,0 118.075317,24.444206,0 118.075321,24.444136,0 118.075321,24.444136,0 118.075365,24.443793,0 118.075365,24.443793,0 118.075421,24.443381,0 118.075582,24.442574,0 118.075608,24.442361,0 118.075608,24.442292,0 118.075586,24.442222,0 118.075503,24.442118,0 118.075499,24.442114,0 118.075595,24.441949,0 118.075595,24.441949,0 118.075677,24.441819,0 118.075677,24.441814,0 118.075642,24.441788,0 118.075621,24.441671,0 118.075551,24.441606,0 118.07553,24.441562,0 118.075534,24.441519,0 118.07556,24.441458,0 118.075681,24.441324,0 118.075681,24.441324,0 118.075838,24.441081,0 118.075838,24.441081,0 118.075929,24.441107,0</coordinates></LineString></Placemark>
</Folder>
</Document></kml>